#  2021  11   1   4   7 49.18400000   -1.649384463   101.129820371  -1.40300  0   4.77800   1.36000 1007
M06   0.55500 1.000 P
M07   4.72300 1.000 S
M08   3.47100 1.000 P
M10   1.18800 1.000 S
M13   0.25100 1.000 P
M06   0.33400 1.000 S
M07   5.44600 1.000 P
M08   4.19600 1.000 S
M10   0.99400 1.000 P
M13   0.57600 1.000 S
#  2021  11   1   5  14 35.79900000   -1.605918556   101.144131130  -1.11000  0   1.24500   1.42700 1028
M05   0.08300 1.000 P
M07   2.65100 1.000 S
M08   3.60800 1.000 P
M09   3.60700 1.000 S
M10   0.19000 1.000 P
M13   0.31600 1.000 S
M05   0.38100 1.000 P
M07   2.81100 1.000 S
M08   3.53900 1.000 P
M09   4.18100 1.000 S
M10   0.31100 1.000 P
M13   0.47100 1.000 S
#  2021  11   1   5  20 53.71900000   -1.612678802   101.129251703  -1.20700  0   1.29800   0.51200 1051
M07   1.21800 1.000 P
M09   0.65800 1.000 S
M12   0.70100 1.000 P
M13   0.45400 1.000 S
M07   2.07100 1.000 P
M09   1.32100 1.000 S
M12   0.55900 1.000 P
M13   0.31900 1.000 S
#  2021  11   1   5  32 18.41600000   -1.590800591   101.145687617  -0.87300  0   0.50100   0.19800 1070
M01   0.62700 1.000 P
M09   1.36100 1.000 S
M12   0.97400 1.000 P
M15   0.09300 1.000 S
M01   0.85400 1.000 P
M09   1.70400 1.000 S
M12   1.19400 1.000 P
M15   0.25400 1.000 S
#  2021  11   1   5  34 55.45300000   -1.616461801   101.125581155  -1.27700  0   4.43200   0.67900 1089
M01   0.81100 1.000 P
M05   0.04000 1.000 S
M09   1.17000 1.000 P
M13   1.18500 1.000 S
M01   1.54700 1.000 P
M05   0.44700 1.000 S
M09   1.78700 1.000 P
M13   0.79300 1.000 S
#  2021  11   1   5  39  2.36100000   -1.631587729   101.108194568  -1.48800  0   4.85300   0.55800 1108
M01   1.04000 1.000 P
M05   0.98800 1.000 S
M09   1.81700 1.000 P
M12   2.27000 1.000 S
M13   0.05800 1.000 P
M01   1.50400 1.000 S
M05   1.76400 1.000 P
M09   2.48100 1.000 S
M12   3.12900 1.000 P
M13   0.37700 1.000 S
#  2021  11   1   5  44  4.97600000   -1.599847294   101.148715579  -1.16600  0   2.95300   0.58900 1129
M02   1.37700 1.000 P
M03   0.28100 1.000 S
M08   0.79400 1.000 P
M09   1.32900 1.000 S
M10   2.26100 1.000 P
M13   0.39900 1.000 S
M15   0.03500 1.000 P
M02   2.41400 1.000 S
M03   0.95700 1.000 P
M08   0.58500 1.000 S
M09   1.97800 1.000 P
M10   3.48200 1.000 S
M13   0.77900 1.000 P
M15   0.60200 1.000 S
#  2021  11   2   3  35 34.97200000   -1.626005447   101.086069439  -0.29100  0   0.80900   0.12400 1154
M02   1.34200 1.000 P
M10   0.97700 1.000 S
M12   1.66000 1.000 P
M15   2.19200 1.000 S
M02   2.52800 1.000 P
M10   1.97800 1.000 S
M12   2.92800 1.000 P
M15   3.76800 1.000 S
#  2021  11   2   4  15 29.10800000   -1.566348271   101.107229581   0.87900  0   7.52000   1.30800 1173
M07   0.27700 1.000 P
M09   4.09600 1.000 S
M11   2.77000 1.000 P
M13   0.90100 1.000 S
M07   0.14200 1.000 P
M09   4.95200 1.000 S
M11   3.36200 1.000 P
M13   0.37800 1.000 S
#  2021  11   4   3  49 54.47700000   -1.614145223   101.110359651  -1.22200  0   2.30000   0.35100 1192
M05   0.43200 1.000 P
M07   1.40400 1.000 S
M08   1.21300 1.000 P
M15   1.60900 1.000 S
M05   0.09700 1.000 P
M07   2.07300 1.000 S
M08   2.01300 1.000 P
M15   2.74300 1.000 S
#  2021  11   4   4  23 43.91500000   -1.608454117   101.148769482  -1.14900  0   4.68900   0.71900 1211
M07   1.71800 1.000 P
M08   1.09200 1.000 S
M11   0.70900 1.000 P
M12   0.26600 1.000 S
M07   3.09500 1.000 P
M08   0.69500 1.000 S
M11   1.80500 1.000 P
M12   0.41500 1.000 S
#  2021  11   5   9  52 28.40700000   -1.589757787   101.182816331   0.15000  0   0.29300   0.37700 1230
M05   1.67300 1.000 P
M06   1.39300 1.000 S
M07   1.36700 1.000 P
M08   1.74000 1.000 S
M09   2.26800 1.000 P
M15   0.86300 1.000 S
M05   2.68300 1.000 P
M06   2.09300 1.000 S
M07   2.38300 1.000 P
M08   2.75300 1.000 S
M09   4.70300 1.000 P
M15   1.56300 1.000 S
#  2021  11   6   5   5  1.46800000   -1.588879888   101.132245742  -0.98300  0   0.54600   0.20700 1253
M05   0.50600 1.000 P
M07   0.00300 1.000 S
M09   1.31500 1.000 P
M10   1.15200 1.000 S
M05   0.95200 1.000 P
M07   0.46000 1.000 S
M09   1.83100 1.000 P
M10   2.01800 1.000 S
#  2021  11   8   8  39 46.57300000   -1.632549729   101.138714786  -1.50400  0   2.77600   0.32000 1272
M05   0.81500 1.000 P
M08   0.10600 1.000 S
M10   0.62300 1.000 P
M12   1.36000 1.000 S
M15   1.61900 1.000 P
M05   1.40700 1.000 S
M08   0.50700 1.000 P
M10   1.13700 1.000 S
M12   2.56700 1.000 P
M15   2.43700 1.000 S
#  2021  11   8   8  41  7.36500000   -1.587298320   101.174701520  -1.81600  0   7.76600   1.21700 1293
M07   3.72500 1.000 P
M08   2.23600 1.000 S
M12   0.69000 1.000 P
M15   1.50700 1.000 S
M07   4.72500 1.000 P
M08   2.85500 1.000 S
M12   1.04400 1.000 P
M15   1.30300 1.000 S
#  2021  11   8   8  43 40.73500000   -1.641038802   101.139020261  -1.36900  0   2.33700   0.68700 1312
M05   0.63000 1.000 P
M07   2.92800 1.000 S
M08   0.21600 1.000 P
M09   0.57100 1.000 S
M05   1.21500 1.000 P
M07   4.11500 1.000 S
M08   0.56500 1.000 P
M09   1.40500 1.000 S
#  2021  11   8   8  46 39.66400000   -1.625603512   101.141339782  -1.50300  0   0.92700   0.17200 1331
M05   0.78700 1.000 P
M08   0.09800 1.000 S
M10   0.60100 1.000 P
M12   0.89200 1.000 S
M15   1.16400 1.000 P
M05   1.26600 1.000 S
M08   0.59600 1.000 P
M10   1.25600 1.000 S
M12   1.48600 1.000 P
M15   2.16600 1.000 S
#  2021  11   8   9  12 24.94400000   -1.631421630   101.162000132  -1.29300  0   2.84600   0.52500 1352
M05   1.71100 1.000 P
M07   2.56100 1.000 S
M09   0.12400 1.000 P
M12   1.40200 1.000 S
M15   0.74000 1.000 P
M05   2.68600 1.000 S
M07   3.76600 1.000 P
M09   0.30600 1.000 S
M12   2.37600 1.000 P
M15   1.14600 1.000 S
#  2021  11   8   9  14 11.65200000   -1.638476387   101.142584224  -1.45900  0   2.22700   0.31600 1373
M05   0.94100 1.000 P
M07   1.85600 1.000 S
M09   0.00500 1.000 P
M10   1.13300 1.000 S
M05   1.73800 1.000 P
M07   2.85800 1.000 S
M09   0.59800 1.000 P
M10   1.86800 1.000 S
#  2021  11   8   9  25  1.65900000   -1.632205054   101.131320509  -1.43900  0   2.20100   0.35100 1392
M07   1.06100 1.000 P
M08   1.68200 1.000 S
M09   0.03500 1.000 P
M10   0.68000 1.000 S
M12   0.23600 1.000 P
M07   1.98300 1.000 S
M08   2.35500 1.000 P
M09   0.31900 1.000 S
M10   1.50000 1.000 P
M12   0.67100 1.000 S
#  2021  11   8   9  28 48.80600000   -1.617330553   101.116229596  -2.25600  0   1.90500   0.50800 1413
M09   0.38600 1.000 P
M10   0.92000 1.000 S
M12   0.29400 1.000 P
M15   2.26900 1.000 S
M09   0.88400 1.000 P
M10   1.53400 1.000 S
M12   0.09400 1.000 P
M15   3.32400 1.000 S
#  2021  11   8   9  47 14.66700000   -1.644249056   101.179766151  -0.29100  0   0.58500   0.79800 1432
M05   1.61600 1.000 P
M07   3.35100 1.000 S
M08   0.09000 1.000 P
M09   1.31100 1.000 S
M12   2.56000 1.000 P
M05   3.51300 1.000 S
M07   5.15300 1.000 P
M08   0.21300 1.000 S
M09   2.30300 1.000 P
M12   4.46300 1.000 S
#  2021  11   8  10  22  0.45300000   -1.586176819   101.175131564  -1.22100  0   0.39600   0.15600 1453
M05   2.08000 1.000 P
M07   1.08900 1.000 S
M08   1.21800 1.000 P
M10   1.96300 1.000 S
M05   3.65800 1.000 P
M07   2.30200 1.000 S
M08   2.06600 1.000 P
M10   3.37900 1.000 S
#  2021  11   8  10  22  3.55500000   -1.594041603   101.167207180  -1.02900  0   4.15200   0.94500 1472
M05   2.75500 1.000 P
M08   0.28300 1.000 S
M10   2.96200 1.000 P
M12   0.32700 1.000 S
M05   4.22400 1.000 P
M08   0.35300 1.000 S
M10   4.33000 1.000 P
M12   0.26100 1.000 S
#  2021  11   8  10  26 49.41400000   -1.592311623   101.135905725  -1.02100  0   1.00100   0.39400 1491
M05   1.06700 1.000 P
M07   0.43000 1.000 S
M09   1.48700 1.000 P
M12   0.00900 1.000 S
M05   1.79600 1.000 P
M07   0.03400 1.000 S
M09   2.36600 1.000 P
M12   0.29600 1.000 S
#  2021  11   8  10  32 52.38200000   -1.644387899   101.160334029  -1.52300  0   1.15900   0.40900 1510
M07   1.94100 1.000 P
M08   0.90600 1.000 S
M09   0.61400 1.000 P
M12   2.11700 1.000 S
M07   3.50800 1.000 P
M08   1.59800 1.000 S
M09   1.01800 1.000 P
M12   3.82800 1.000 S
#  2021  11   8  10  55 28.56900000   -1.678092000   101.094299749   2.26600  0   1.11800   0.19800 1529
M05   1.93200 1.000 P
M07   2.54800 1.000 S
M08   2.22400 1.000 P
M09   2.14200 1.000 S
M12   2.92700 1.000 P
M05   3.76100 1.000 S
M07   4.78100 1.000 P
M08   4.01100 1.000 S
M09   4.30100 1.000 P
M12   4.61100 1.000 S
#  2021  11  10  21  50 47.65800000   -1.646766713   101.142727821  -0.15200  0   0.31800   0.19800 1550
M02   0.57800 1.000 P
M06   0.50300 1.000 S
M08   1.33500 1.000 P
M12   1.82300 1.000 S
M13   1.03300 1.000 P
M14   0.82900 1.000 S
M15   1.18700 1.000 P
M02   1.02200 1.000 S
M06   1.12200 1.000 P
M08   2.14200 1.000 S
M12   2.90200 1.000 P
M13   1.57200 1.000 S
M14   1.66200 1.000 P
M15   2.02200 1.000 S
#  2021  11  14  19  29  9.94500000   -1.668222654   101.157359158  -0.30200  0   0.60900   0.49700 1575
M05   2.14000 1.000 P
M06   1.03600 1.000 S
M07   3.64100 1.000 P
M08   1.80200 1.000 S
M11   0.74100 1.000 P
M13   1.00600 1.000 S
M05   4.19500 1.000 P
M06   2.17500 1.000 S
M07   5.05500 1.000 P
M08   2.97500 1.000 S
M11   2.12500 1.000 P
M13   2.12500 1.000 S
#  2021  11  17   5  33  7.24000000   -1.570532420   101.082258073  -0.29500  0   0.25600   0.18100 1598
M02   2.14000 1.000 P
M06   2.69600 1.000 S
M07   1.47600 1.000 P
M08   2.47700 1.000 S
M02   4.24300 1.000 P
M06   4.66500 1.000 S
M07   2.82300 1.000 P
M08   4.08100 1.000 S
#  2021  11  21   6   4 37.39900000   -1.594090353   101.155321696  -0.85400  0   0.72900   0.79900 1617
M07   2.04400 1.000 P
M08   1.93900 1.000 S
M11   1.03900 1.000 P
M12   0.66800 1.000 S
M15   1.03500 1.000 P
M07   2.88100 1.000 S
M08   2.70100 1.000 P
M11   1.58100 1.000 S
M12   0.42900 1.000 P
M15   0.48900 1.000 S
#  2021  11  21   6   8  7.91600000   -1.624821439   101.137143411   4.50100  0   0.80700   0.14500 1638
M07   1.25100 1.000 P
M08   1.50800 1.000 S
M11   1.46200 1.000 P
M12   1.63400 1.000 S
M15   1.49400 1.000 P
M07   2.47500 1.000 S
M08   2.15500 1.000 P
M11   2.60200 1.000 S
M12   3.11500 1.000 P
M15   3.12600 1.000 S
#  2021  11  21   6  11 35.35000000   -1.584509840   101.117938821  -1.07600  0   0.48100   0.17600 1659
M07   0.71300 1.000 P
M08   0.81000 1.000 S
M11   1.71500 1.000 P
M15   1.18200 1.000 S
M07   1.51000 1.000 P
M08   1.25000 1.000 S
M11   3.01000 1.000 P
M15   2.34000 1.000 S
#  2021  11  21   6  17 29.50200000   -1.631163721   101.149682834  -1.84500  0   0.34900   0.17800 1678
M05   1.31700 1.000 P
M07   0.93900 1.000 S
M08   0.39900 1.000 P
M15   1.36700 1.000 S
M05   2.38800 1.000 P
M07   1.69800 1.000 S
M08   1.28800 1.000 P
M15   2.31800 1.000 S
#  2021  11  21   6  31 43.60300000   -1.607658655   101.190803772  -1.30900  0   3.37600   1.43600 1697
M07   0.35500 1.000 P
M08   1.16500 1.000 S
M11   0.43700 1.000 P
M12   6.21700 1.000 S
M15   0.36700 1.000 P
M07   1.05700 1.000 S
M08   2.58700 1.000 P
M11   1.64700 1.000 S
M12   7.96700 1.000 P
M15   0.98700 1.000 S
#  2021  11  21   6  35 49.25200000   -1.642103540   101.132570782  -1.54400  0   3.84800   0.54700 1718
M05   1.27300 1.000 P
M08   2.28400 1.000 S
M09   0.16300 1.000 P
M12   0.75800 1.000 S
M05   2.48800 1.000 P
M08   3.43800 1.000 S
M09   0.24800 1.000 P
M12   1.48800 1.000 S
#  2021  11  23   3  20  8.43000000   -1.592050791   101.117227781   3.77900  0   0.59700   0.11600 1737
M01   1.37700 1.000 P
M02   1.56500 1.000 S
M06   1.96800 1.000 P
M08   1.20100 1.000 S
M11   1.75500 1.000 P
M12   1.13800 1.000 S
M13   1.64900 1.000 P
M01   2.55900 1.000 S
M02   2.85500 1.000 P
M06   3.46000 1.000 S
M08   2.51400 1.000 P
M11   3.11000 1.000 S
M12   2.15100 1.000 P
M13   2.79000 1.000 S
#  2021  11  23  11  53 28.64900000   -1.584285005   101.168769151  -3.52800  0  22.98900   0.60700 1762
M06   2.70400 1.000 P
M09   0.92900 1.000 S
M11   0.76800 1.000 P
M12   2.09800 1.000 S
M06   5.06100 1.000 P
M09   1.74100 1.000 S
M11   1.78100 1.000 P
M12   3.67100 1.000 S
#  2021  11  23  17  41 16.85400000   -1.638076564   101.152816631  -0.29500  0   0.17800   0.14000 1781
M02   1.04100 1.000 P
M05   1.47800 1.000 S
M12   0.82200 1.000 P
M13   1.25500 1.000 S
M15   1.03400 1.000 P
M02   1.48600 1.000 S
M05   2.20600 1.000 P
M12   2.35600 1.000 S
M13   1.63600 1.000 P
M15   2.43600 1.000 S
#  2021  11  26  12  21 51.15100000   -1.610971748   101.127650769  -0.25500  0   0.17600   0.07300 1802
M06   0.84500 1.000 P
M07   0.37600 1.000 S
M11   0.87500 1.000 P
M15   0.94100 1.000 S
M06   1.49900 1.000 P
M07   0.68900 1.000 S
M11   1.29900 1.000 P
M15   1.47900 1.000 S
