# 2018   5  24  22  49  14.85223   44.339993470  -103.741575688   0.89844  0  0  0  0.000084  1099
PB06   0.00050  0.700  P
PB06   0.00090  0.700  S
OB13   0.00210  0.500  P
OB13   0.00380  0.500  S
PB03   0.00060  0.700  P
PB03   0.00150  0.700  S
 PB4   0.00040  1.000  P
 PB4   0.00180  1.000  S
OT16   0.00240  0.900  P
OT16   0.00340  0.900  S
PB02   0.00100  0.700  P
PB02   0.00180  0.700  S
# 2018   5  24  22  43   8.38409   44.339987594  -103.741552293   0.89094  0  0  0  0.000119  1100
OT10   0.00020  0.600  P
OT10   0.00050  0.600  S
PB05   0.00170  0.700  P
PB05   0.00250  0.700  S
OT11   0.00050  0.600  P
OT11   0.00080  0.600  S
OT08   0.00060  0.600  P
OT08   0.00090  0.600  S
 PB4   0.00150  1.000  P
 PB4   0.00240  1.000  S
PB03   0.00220  0.700  P
PB03   0.00260  0.700  S
PB02   0.00220  0.700  P
PB02   0.00260  0.700  S
OT07   0.00110  0.600  P
OT07   0.00130  0.600  S
OT16   0.00120  0.900  P
OT16   0.00190  0.900  S
PSB9   0.00310  0.500  P
PSB9   0.00510  0.500  S
# 2018   5  24  22  34   2.86738   44.340463419  -103.741585242   0.89625  0  0  0  0.000079  1101
OT16   0.01050  0.900  P
 PB4   0.00910  1.000  P
PB04   0.00910  0.700  P
PB05   0.00930  0.700  P
OT09   0.00940  0.600  P
OT08   0.00950  0.600  P
PSB9   0.01130  0.500  P
PSB7   0.01190  0.500  P
# 2018   5  24  22  41  27.46263   44.339993210  -103.741552172   0.88969  0  0  0  0.000119  1102
OT10   0.00000  0.600  P
OT10   0.00020  0.600  S
OT09   0.00030  0.600  P
OT09   0.00060  0.600  S
OT08   0.00080  0.600  P
OT08   0.00120  0.600  S
 PB4   0.00180  1.000  P
 PB4   0.00280  1.000  S
OT16   0.00120  0.900  P
OT16   0.00170  0.900  S
PT12   0.00340  0.500  P
PT12   0.00510  0.500  S
PSB9   0.00500  0.500  P
PSB9   0.00560  0.500  S
# 2018   5  24  22  34   1.43355   44.340181626  -103.741544228   0.89250  0  0  0  0.000041  1103
OT16   0.00500  0.900  P
 PB4   0.00380  1.000  P
PB05   0.00400  0.700  P
OT09   0.00420  0.600  P
PB06   0.00410  0.700  P
PB08   0.00440  0.700  P
OT08   0.00420  0.600  P
PSB9   0.00600  0.500  P
PT10   0.00620  0.500  P
# 2018   5  22  22   5   2.76529   44.339509339  -103.741299879   0.89812  0  0  0  0.000026  1104
PSB7   0.01290  0.500  P
 PB4   0.00960  1.000  P
PB04   0.01010  0.700  P
PB05   0.00970  0.700  P
PB06   0.00980  0.700  P
PB08   0.00990  0.700  P
 PB3   0.01190  0.500  P
OT16   0.01090  0.900  P
# 2018   5  25  15  22  48.38556   44.339971409  -103.741615375   0.89781  0  0  0  0.000109  1105
OT08   0.00200  0.600  P
OT08   0.00280  0.600  S
PB05   0.00090  0.700  P
PB05   0.00170  0.700  S
PB04   0.00100  0.700  P
PB04   0.00180  0.700  S
 PB4   0.00170  1.000  P
 PB4   0.00270  1.000  S
OT16   0.00290  0.900  P
OT16   0.00360  0.900  S
PSB9   0.00400  0.500  P
PSB9   0.00630  0.500  S
# 2018   5  23  19  28  36.72358   44.339926050  -103.741584983   0.90719  0  0  0  0.000110  1106
PB06   0.00160  0.700  P
OT09   0.00320  0.600  P
PB05   0.00160  0.700  P
PB04   0.00160  0.700  P
OT10   0.00320  0.600  P
 PB4   0.00220  1.000  P
OT11   0.00360  0.600  P
OB13   0.00350  0.500  P
PB03   0.00190  0.700  P
PT10   0.00390  0.500  P
OT16   0.00400  0.900  P
PT12   0.00460  0.500  P
PSB9   0.00450  0.500  P
# 2018   5  24  22  33  21.34176   44.339547414  -103.741691081   0.90312  0  0  0  0.000072  1107
PSB7   0.01030  0.500  P
PT10   0.00950  0.500  P
OT06   0.00850  0.600  P
 PB3   0.00920  0.500  P
OT08   0.00850  0.600  P
PB08   0.00820  0.700  P
PB06   0.00810  0.700  P
PB05   0.00860  0.700  P
PDT1   0.00890  0.500  P
 PB4   0.00880  1.000  P
OT16   0.00900  0.900  P
# 2018   5  25  15  24  35.47506   44.339987680  -103.741560131   0.88906  0  0  0  0.000096  1108
OT10   0.00010  0.600  P
OT10   0.00030  0.600  S
OT09   0.00000  0.600  P
OT09   0.00030  0.600  S
OT08   0.00060  0.600  P
OT08   0.00080  0.600  S
 PB4   0.00190  1.000  P
 PB4   0.00260  1.000  S
PB03   0.00240  0.700  P
PB03   0.00310  0.700  S
OT16   0.00120  0.900  P
OT16   0.00200  0.900  S
# 2018   5  22  21  59  50.47615   44.339928392  -103.741541805   0.89062  0  0  0  0.000006  1109
PB05   0.00680  0.700  P
PB04   0.00180  0.700  P
PB01   0.00190  0.700  P
PB09   0.00580  0.700  P
OT12   0.00190  0.600  P
OB13   0.00390  0.500  P
# 2018   5  25  15  20  36.86100   44.339993988  -103.741622719   0.89656  0  0  0  0.000070  1110
PB08   0.00100  0.700  P
PB08   0.00190  0.700  S
PB07   0.00090  0.700  P
PB07   0.00180  0.700  S
PB06   0.00090  0.700  P
PB06   0.00170  0.700  S
PB05   0.00110  0.700  P
PB05   0.00190  0.700  S
OT16   0.00190  0.900  P
OT16   0.00300  0.900  S
OT05   0.00220  0.600  P
OT05   0.00260  0.600  S
# 2018   5  24  22  33  27.74074   44.340011392  -103.741669390   0.89844  0  0  0  0.000098  1111
PB10   0.00120  0.700  P
PB08   0.00110  0.700  P
PDT1   0.00200  0.500  P
 PB3   0.00220  0.500  P
PB07   0.00160  0.700  P
OT09   0.00240  0.600  P
OT16   0.00220  0.900  P
OT08   0.00240  0.600  P
OT05   0.00290  0.600  P
PT10   0.00270  0.500  P
# 2018   5  25  15  15  47.79420   44.339977207  -103.741630931   0.89781  0  0  0  0.000085  1112
PB06   0.00090  0.700  P
PB06   0.00150  0.700  S
PB05   0.00110  0.700  P
PB05   0.00180  0.700  S
OT09   0.00210  0.600  P
OT09   0.00310  0.600  S
OT10   0.00170  0.600  P
OT10   0.00290  0.600  S
OT11   0.00180  0.600  P
OT11   0.00320  0.600  S
 PB4   0.00200  1.000  P
 PB4   0.00300  1.000  S
# 2018   5  24  22  42  49.66268   44.339999009  -103.741567729   0.89844  0  0  0  0.000055  1113
PB06   0.00060  0.700  P
PB06   0.00100  0.700  S
PB04   0.00050  0.700  P
PB04   0.00090  0.700  S
OB13   0.00240  0.500  P
OB13   0.00360  0.500  S
PB03   0.00060  0.700  P
PB03   0.00130  0.700  S
 PB4   0.00090  1.000  P
 PB4   0.00160  1.000  S
PB02   0.00090  0.700  P
PB02   0.00170  0.700  S
# 2018   5  25  15  22  40.22831   44.339987508  -103.741544454   0.89031  0  0  0  0.000100  1114
OT09   0.00030  0.600  P
OT09   0.00060  0.600  S
OT11   0.00060  0.600  P
OT11   0.00090  0.600  S
PB03   0.00160  0.700  P
PB03   0.00240  0.700  S
PB01   0.00220  0.700  P
PB01   0.00260  0.700  S
OT16   0.00140  0.900  P
OT16   0.00180  0.900  S
PT12   0.00300  0.500  P
PT12   0.00480  0.500  S
# 2018   5  24  22  47  44.79252   44.339964919  -103.741537097   0.90031  0  0  0  0.000092  1115
PB05   0.00070  0.700  P
PB05   0.00090  0.700  S
PB06   0.00070  0.700  P
PB06   0.00100  0.700  S
OB13   0.00300  0.500  P
OB13   0.00380  0.500  S
OT16   0.00240  0.900  P
OT16   0.00400  0.900  S
PT12   0.00560  0.500  P
PT12   0.00620  0.500  S
 PB3   0.00310  0.500  P
 PB3   0.00450  0.500  S
# 2018   5  24  22  39  18.75741   44.339987853  -103.741575808   0.88906  0  0  0  0.000138  1116
OT10   0.00020  0.600  P
OT10   0.00050  0.600  S
OT11   0.00050  0.600  P
OT11   0.00080  0.600  S
OT08   0.00050  0.600  P
OT08   0.00100  0.600  S
OT07   0.00100  0.600  P
OT07   0.00160  0.600  S
PB03   0.00280  0.700  P
PB03   0.00340  0.700  S
 PB4   0.00200  1.000  P
 PB4   0.00320  1.000  S
PB02   0.00240  0.700  P
PB02   0.00330  0.700  S
OT05   0.00160  0.600  P
OT05   0.00240  0.600  S
OT04   0.00180  0.600  P
OT04   0.00280  0.600  S
PDT1   0.00250  0.500  P
PDT1   0.00360  0.500  S
PT10   0.00420  0.500  P
PT10   0.00480  0.500  S
PT12   0.00350  0.500  P
PT12   0.00500  0.500  S
PSB7   0.00600  0.500  P
PSB7   0.00700  0.500  S
PSB9   0.00350  0.500  P
PSB9   0.00560  0.500  S
# 2018   5  23  19  31  16.47141   44.339965265  -103.741568451   0.88656  0  0  0  0.000038  1117
OT05   0.00100  0.600  P
 PB4   0.00180  1.000  P
PB02   0.00220  0.700  P
PB03   0.00240  0.700  P
OT04   0.00130  0.600  P
OT16  -0.00030  0.900  P
PT12   0.00160  0.500  P
PSB9   0.00310  0.500  P
# 2018   5  25  15  22  41.67651   44.339982314  -103.741583780   0.89219  0  0  0  0.000076  1118
OT11   0.00070  0.600  P
OT11   0.00140  0.600  S
 PB4   0.00160  1.000  P
 PB4   0.00250  1.000  S
PB02   0.00160  0.700  P
PB02   0.00260  0.700  S
OT16   0.00130  0.900  P
OT16   0.00220  0.900  S
PB01   0.00220  0.700  P
PB01   0.00290  0.700  S
PT10   0.00280  0.500  P
PT10   0.00490  0.500  S
# 2018   5  23  18  51  36.50099   44.339904853  -103.741448224   0.88687  0  0  0  0.000036  1119
 PB4   0.00260  1.000  P
PB05   0.00310  0.700  P
PB06   0.00190  0.700  P
PB07   0.00310  0.700  P
OT16   0.00310  0.900  P
PSB7   0.00470  0.500  P
# 2018   5  23  19  28   0.67419   44.339976429  -103.741560372   0.90156  0  0  0  0.000080  1120
PB05   0.00040  0.700  P
PB06   0.00030  0.700  P
PB04   0.00040  0.700  P
 PB4   0.00100  1.000  P
OB13   0.00300  0.500  P
OT05   0.00250  0.600  P
OT16   0.00230  0.900  P
OT04   0.00290  0.600  P
PSB9   0.00560  0.500  P
# 2018   5  22  22   2  30.19343   44.339981536  -103.741513233   0.87781  0  0  0  0.000098  1121
 PB4   0.00360  1.000  P
PB02   0.00360  0.700  P
PB04   0.00350  0.700  P
PB03   0.00350  0.700  P
PB05   0.00260  0.700  P
PB07   0.00250  0.700  P
OT16   0.00250  0.900  P
PB08   0.00350  0.700  P
PDT1   0.00350  0.500  P
PT10   0.00360  0.500  P
PSB7   0.00560  0.500  P
# 2018   5  25  15  20   6.61009   44.339962837  -103.741603791   0.89563  0  0  0  0.000085  1122
PB07   0.00100  0.700  P
PB07   0.00190  0.700  S
PB08   0.00120  0.700  P
PB08   0.00210  0.700  S
OT08   0.00130  0.600  P
OT08   0.00230  0.600  S
OT06   0.00140  0.600  P
OT06   0.00250  0.600  S
 PB3   0.00230  0.500  P
 PB3   0.00380  0.500  S
OT16   0.00200  0.900  P
OT16   0.00310  0.900  S
PT10   0.00260  0.500  P
PT10   0.00430  0.500  S
# 2018   5  22  22   3  49.06560   44.339759454  -103.741529738   0.89438  0  0  0  0.000047  1123
PT10   0.00550  0.500  P
PB06   0.00440  0.700  P
PB05   0.00440  0.700  P
PB08   0.00440  0.700  P
PB04   0.00440  0.700  P
 PB4   0.00440  1.000  P
PDT1   0.00540  0.500  P
OT16   0.00540  0.900  P
# 2018   5  24  22  43  42.74706   44.339981968  -103.741552413   0.89219  0  0  0  0.000147  1124
PB05   0.00060  0.700  P
PB05   0.00090  0.700  S
OT08   0.00080  0.600  P
OT08   0.00110  0.600  S
 PB4   0.00130  1.000  P
 PB4   0.00200  1.000  S
PB02   0.00150  0.700  P
PB02   0.00220  0.700  S
PB03   0.00130  0.700  P
PB03   0.00220  0.700  S
PB01   0.00150  0.700  P
PB01   0.00240  0.700  S
OT16   0.00130  0.900  P
OT16   0.00200  0.900  S
PT10   0.00340  0.500  P
PT10   0.00530  0.500  S
# 2018   5  24  22  41  29.63520   44.339954014  -103.741568692   0.89969  0  0  0  0.000109  1125
PB06   0.00030  0.700  P
PB06   0.00100  0.700  S
PB05   0.00070  0.700  P
PB05   0.00100  0.700  S
PB07   0.00060  0.700  P
PB07   0.00140  0.700  S
PB04   0.00060  0.700  P
PB04   0.00100  0.700  S
 PB4   0.00120  1.000  P
 PB4   0.00200  1.000  S
OB13   0.00310  0.500  P
OB13   0.00400  0.500  S
OT16   0.00280  0.900  P
OT16   0.00330  0.900  S
# 2018   5  22  22   2  54.90313   44.339758936  -103.741482707   0.91187  0  0  0  0.000059  1126
PSB7   0.00890  0.500  P
PT10   0.00580  0.500  P
PB04   0.00490  0.700  P
PB05   0.00480  0.700  P
 PB4   0.00490  1.000  P
PB06   0.00490  0.700  P
PB08   0.00590  0.700  P
PB10   0.00490  0.700  P
OT16   0.00480  0.900  P
PDT1   0.00680  0.500  P
# 2018   5  25  15  18  55.27863   44.339959812  -103.741584261   0.90031  0  0  0  0.000124  1127
PB07   0.00030  0.700  P
PB07   0.00080  0.700  S
PB08   0.00060  0.700  P
PB08   0.00140  0.700  S
OT06   0.00210  0.600  P
OT06   0.00350  0.600  S
OB13   0.00220  0.500  P
OB13   0.00380  0.500  S
OT16   0.00280  0.900  P
OT16   0.00400  0.900  S
 PB3   0.00210  0.500  P
 PB3   0.00340  0.500  S
# 2018   5  24  22  41  25.30364   44.339993470  -103.741575688   0.89844  0  0  0  0.000095  1128
PB06   0.00040  0.700  P
PB06   0.00080  0.700  S
PB05   0.00040  0.700  P
PB05   0.00090  0.700  S
PB07   0.00070  0.700  P
PB07   0.00120  0.700  S
PB04   0.00040  0.700  P
PB04   0.00100  0.700  S
PB08   0.00100  0.700  P
PB08   0.00180  0.700  S
PB03   0.00080  0.700  P
PB03   0.00140  0.700  S
 PB4   0.00100  1.000  P
 PB4   0.00170  1.000  S
OT16   0.00190  0.900  P
OT16   0.00300  0.900  S
PB02   0.00100  0.700  P
PB02   0.00170  0.700  S
 PB3   0.00260  0.500  P
 PB3   0.00450  0.500  S
# 2018   5  23  19  42  51.00183   44.339549488  -103.741879205   0.88687  0  0  0  0.000081  1129
OT05   0.00700  0.600  P
PDT1   0.00860  0.500  P
OT08   0.00630  0.600  P
PB04   0.00980  0.700  P
PSB9   0.00960  0.500  P
 PB4   0.00930  1.000  P
PB02   0.00990  0.700  P
OT16   0.00710  0.900  P
# 2018   5  22  21  58  31.28554   44.340100190  -103.741557724   0.89219  0  0  0  0.000011  1130
OT12   0.00150  0.600  P
OB13   0.00340  0.500  P
PB01   0.00250  0.700  P
PB07   0.00450  0.700  P
PB09   0.00550  0.700  P
PB10   0.00350  0.700  P
# 2018   5  23  19  29  23.94346   44.340607749  -103.742938557   0.87562  0  0  0  0.000062  1131
PDT1   0.02210  0.500  P
OB13   0.02590  0.500  P
OT16   0.02190  0.900  P
OT08   0.02130  0.600  P
 PB4   0.02240  1.000  P
PB02   0.02320  0.700  P
PB01   0.02350  0.700  P
OT04   0.02320  0.600  P
# 2018   5  22  21  57  50.02283   44.339751142  -103.741796489   0.85062  0  0  0  0.000064  1132
PB10   0.01020  0.700  P
PB09   0.01410  0.700  P
PB05   0.01520  0.700  P
PB04   0.00920  0.700  P
OB13   0.01220  0.500  P
OT12   0.00920  0.600  P
PB01   0.01020  0.700  P
# 2018   5  24  22  43  51.93116   44.339977121  -103.741623080   0.89781  0  0  0  0.000192  1133
PB05   0.00070  0.700  P
PB05   0.00180  0.700  S
PB04   0.00210  0.700  P
PB04   0.00270  0.700  S
PB03   0.00180  0.700  P
PB03   0.00280  0.700  S
OT16   0.00190  0.900  P
OT16   0.00270  0.900  S
PDT1   0.00330  0.500  P
PDT1   0.00410  0.500  S
 PB4   0.00160  1.000  P
 PB4   0.00280  1.000  S
PSB9   0.00410  0.500  P
PSB9   0.00590  0.500  S
# 2018   5  24  22  40  39.85045   44.340004730  -103.741575447   0.89094  0  0  0  0.000177  1134
PB03   0.00240  0.700  P
PB03   0.00270  0.700  S
OT08   0.00120  0.600  P
OT08   0.00160  0.600  S
 PB4   0.00200  1.000  P
 PB4   0.00270  1.000  S
PDT1   0.00290  0.500  P
PDT1   0.00410  0.500  S
PSB7   0.00400  0.500  P
PSB7   0.00610  0.500  S
# 2018   5  25  15  22  55.59936   44.339954014  -103.741568692   0.89781  0  0  0  0.000089  1135
OT08   0.00160  0.600  P
OT08   0.00260  0.600  S
PB06   0.00070  0.700  P
PB06   0.00140  0.700  S
PB05   0.00070  0.700  P
PB05   0.00120  0.700  S
PB04   0.00070  0.700  P
PB04   0.00100  0.700  S
 PB4   0.00130  1.000  P
 PB4   0.00190  1.000  S
OB13   0.00240  0.500  P
OB13   0.00400  0.500  S
PSB9   0.00390  0.500  P
PSB9   0.00600  0.500  S
# 2018   5  24  22  41  55.69901   44.339976602  -103.741576049   0.89281  0  0  0  0.000101  1136
PB05   0.00140  0.700  P
PB05   0.00220  0.700  S
OT08   0.00070  0.600  P
OT08   0.00120  0.600  S
OT10   0.00070  0.600  P
OT10   0.00130  0.600  S
PB04   0.00130  0.700  P
PB04   0.00210  0.700  S
 PB4   0.00140  1.000  P
 PB4   0.00240  1.000  S
PB03   0.00150  0.700  P
PB03   0.00230  0.700  S
PB02   0.00170  0.700  P
PB02   0.00240  0.700  S
OT05   0.00150  0.600  P
OT05   0.00240  0.600  S
OT16   0.00150  0.900  P
OT16   0.00240  0.900  S
PB01   0.00210  0.700  P
PB01   0.00270  0.700  S
PDT1   0.00230  0.500  P
PDT1   0.00390  0.500  S
PT12   0.00320  0.500  P
PT12   0.00460  0.500  S
# 2018   5  22  21  57  40.58102   44.339969421  -103.741435075   0.89094  0  0  0  0.000074  1137
PB01   0.00090  0.700  P
PB03   0.00200  0.700  P
PB04   0.00200  0.700  P
PB05   0.00790  0.700  P
OT12   0.00200  0.600  P
OB13   0.00400  0.500  P
PB07   0.00300  0.700  P
PB10   0.00300  0.700  P
# 2018   5  23  17   9  17.12524   44.339954533  -103.741615736   0.89406  0  0  0  0.000634  1138
PB09   0.00150  0.700  P
PB10   0.00180  0.700  P
OT08   0.00230  0.600  P
PB11   0.00310  0.700  P
OT05   0.00260  0.600  P
PB12   0.00350  0.700  P
OT04   0.00170  0.600  P
 PB3   0.00250  0.500  P
OB13   0.00430  0.500  P
 PB4   0.00170  1.000  P
PDT1   0.00210  0.500  P
PT10   0.00230  0.500  P
OT16   0.00220  0.900  P
# 2018   5  22  22   2  23.59801   44.339043726  -103.740917828   0.98813  0  0  0  0.000050  1139
PSB9   0.03000  0.500  P
PT10   0.02600  0.500  P
 PB4   0.02500  1.000  P
PB05   0.02500  0.700  P
PB06   0.02500  0.700  P
PB08   0.02500  0.700  P
PB09   0.02500  0.700  P
 PB3   0.02600  0.500  P
OT16   0.02700  0.900  P
PDT1   0.02600  0.500  P
# 2018   5  23  16   5  39.56541   44.341046051  -103.741353242   0.99875  0  0  0  0.000056  1140
OT16   0.02680  0.900  P
 PB4   0.02660  1.000  P
PB04   0.02650  0.700  P
PB05   0.02670  0.700  P
PB06   0.02580  0.700  P
PDT1   0.02810  0.500  P
PSB9   0.03120  0.500  P
PSB7   0.03000  0.500  P
# 2018   5  24  22  40  33.00290   44.340004643  -103.741567609   0.90219  0  0  0  0.000064  1141
PB05   0.00070  0.700  P
PB05   0.00100  0.700  S
PB06   0.00060  0.700  P
PB06   0.00090  0.700  S
PB04   0.00070  0.700  P
PB04   0.00130  0.700  S
PB03   0.00070  0.700  P
PB03   0.00160  0.700  S
PB07   0.00070  0.700  P
PB07   0.00120  0.700  S
 PB4   0.00110  1.000  P
 PB4   0.00180  1.000  S
PB08   0.00100  0.700  P
PB08   0.00160  0.700  S
# 2018   5  23  19  51  42.54804   44.339973915  -103.741587873   0.89062  0  0  0  0.001012  1142
OT09   0.00050  0.600  P
PB05   0.00400  0.700  P
OT10   0.00050  0.600  P
PB04   0.00400  0.700  P
 PB4   0.00360  1.000  P
OT16   0.00140  0.900  P
PT10   0.00250  0.500  P
PT12   0.00300  0.500  P
PSB9   0.00540  0.500  P
# 2018   5  25  15  24  29.59633   44.339987594  -103.741552293   0.88906  0  0  0  0.000212  1143
OT10  -0.00030  0.600  P
OT10   0.00030  0.600  S
OT09  -0.00020  0.600  P
OT09   0.00040  0.600  S
 PB4   0.00200  1.000  P
 PB4   0.00300  1.000  S
OT07   0.00110  0.600  P
OT07   0.00140  0.600  S
OT16   0.00110  0.900  P
OT16   0.00180  0.900  S
PT12   0.00300  0.500  P
PT12   0.00430  0.500  S
PSB9   0.00350  0.500  P
PSB9   0.00530  0.500  S
# 2018   5  23  15  58  57.55635   44.339954705  -103.741631413   0.89531  0  0  0  0.000209  1144
PB09   0.00120  0.700  P
PB08   0.00130  0.700  P
PB11   0.00180  0.700  P
OT07   0.00210  0.600  P
PB05   0.00140  0.700  P
 PB3   0.00220  0.500  P
PB04   0.00160  0.700  P
OT04   0.00170  0.600  P
OT11   0.00170  0.600  P
PDT1   0.00200  0.500  P
PT10   0.00240  0.500  P
 PB4   0.00180  1.000  P
PB03   0.00190  0.700  P
PB02   0.00210  0.700  P
OT16   0.00230  0.900  P
PB01   0.00240  0.700  P
PSB7   0.00440  0.500  P
PT12   0.00370  0.500  P
OB15   0.00630  0.500  P
# 2018   5  22  21  57  23.96418   44.341120997  -103.741516290   0.95688  0  0  0  0.000019  1145
OT12   0.02380  0.600  P
PB01   0.02380  0.700  P
PB04   0.02380  0.700  P
PB05   0.02880  0.700  P
PB07   0.02580  0.700  P
PB10   0.02390  0.700  P
# 2018   5  24  22  43  49.47806   44.340163531  -103.741689656   0.90094  0  0  0  0.000061  1146
OT16   0.00340  0.900  P
OT16   0.00430  0.900  S
PDT1   0.00400  0.500  P
PDT1   0.00480  0.500  S
PB03   0.00630  0.700  P
PB03   0.00660  0.700  S
 PB4   0.00540  1.000  P
 PB4   0.00630  1.000  S
PT12   0.00700  0.500  P
PT12   0.00730  0.500  S
PSB9   0.00770  0.500  P
PSB9   0.00810  0.500  S
# 2018   5  24  22  43  23.64075   44.339981882  -103.741544574   0.89156  0  0  0  0.000606  1147
OT09   0.00040  0.600  P
OT09   0.00080  0.600  S
PB05   0.00440  0.700  P
PB05   0.00490  0.700  S
OT08   0.00070  0.600  P
OT08   0.00110  0.600  S
PB06   0.00460  0.700  P
PB06   0.00500  0.700  S
 PB4   0.00160  1.000  P
 PB4   0.00210  1.000  S
PB01   0.00200  0.700  P
PB01   0.00240  0.700  S
OT16   0.00130  0.900  P
OT16   0.00180  0.900  S
PSB9   0.00480  0.500  P
PSB9   0.00530  0.500  S
# 2018   5  25  15  21  48.41258   44.339976948  -103.741607403   0.89781  0  0  0  0.000086  1148
PB07   0.00050  0.700  P
PB07   0.00120  0.700  S
PB08   0.00080  0.700  P
PB08   0.00150  0.700  S
PB06   0.00050  0.700  P
PB06   0.00120  0.700  S
PB05   0.00080  0.700  P
PB05   0.00140  0.700  S
OT08   0.00160  0.600  P
OT08   0.00290  0.600  S
OB13   0.00240  0.500  P
OB13   0.00400  0.500  S
 PB4   0.00140  1.000  P
 PB4   0.00270  1.000  S
OT16   0.00210  0.900  P
OT16   0.00340  0.900  S
