# 2018   5  24  22  48  38.20725   44.339998836  -103.741552052   0.89906  0  0  0  0.000081  1195
PB04   0.00030  0.700  P
PB04   0.00080  0.700  S
PB03   0.00040  0.700  P
PB03   0.00090  0.700  S
OB13   0.00220  0.500  P
OB13   0.00350  0.500  S
 PB4   0.00070  1.000  P
 PB4   0.00130  1.000  S
PB02   0.00070  0.700  P
PB02   0.00130  0.700  S
PSB9   0.00300  0.500  P
PSB9   0.00520  0.500  S
# 2018   5  24  22  42  58.92327   44.339981968  -103.741552413   0.89031  0  0  0  0.000206  1196
OT09   0.00020  0.600  P
OT09   0.00040  0.600  S
OT08   0.00050  0.600  P
OT08   0.00090  0.600  S
PB06   0.00280  0.700  P
PB06   0.00380  0.700  S
 PB4   0.00210  1.000  P
 PB4   0.00270  1.000  S
PB02   0.00120  0.700  P
PB02   0.00280  0.700  S
PB03   0.00230  0.700  P
PB03   0.00280  0.700  S
OT16   0.00140  0.900  P
OT16   0.00200  0.900  S
PB10   0.00240  0.700  P
PB10   0.00470  0.700  S
PDT1   0.00270  0.500  P
PDT1   0.00360  0.500  S
PT12   0.00320  0.500  P
PT12   0.00490  0.500  S
# 2018   5  23  17   9  15.44484   44.340167256  -103.741771907   0.89187  0  0  0  0.000045  1197
PDT1   0.00500  0.500  P
OT16   0.00650  0.900  P
PB10   0.00450  0.700  P
PB09   0.00460  0.700  P
PB08   0.00460  0.700  P
PB07   0.00470  0.700  P
PB05   0.00530  0.700  P
 PB4   0.00510  1.000  P
PT10   0.00560  0.500  P
PSB7   0.00580  0.500  P
PT12   0.00730  0.500  P
# 2018   5  22  22   3  16.90977   44.340095334  -103.741628404   0.88719  0  0  0  0.000055  1198
OT16   0.00420  0.900  P
PB06   0.00220  0.700  P
PB08   0.00330  0.700  P
PB05   0.00320  0.700  P
PB09   0.00420  0.700  P
PB04   0.00320  0.700  P
 PB4   0.00320  1.000  P
 PB3   0.00420  0.500  P
PT10   0.00420  0.500  P
PSB9   0.00530  0.500  P
# 2018   5  25  15  19   8.06929   44.339976602  -103.741576049   0.89656  0  0  0  0.000064  1199
OT09   0.00130  0.600  P
OT09   0.00220  0.600  S
OT08   0.00130  0.600  P
OT08   0.00240  0.600  S
 PB4   0.00110  1.000  P
 PB4   0.00180  1.000  S
PB10   0.00160  0.700  P
PB10   0.00340  0.700  S
OT16   0.00180  0.900  P
OT16   0.00300  0.900  S
PB11   0.00180  0.700  P
PB11   0.00350  0.700  S
# 2018   5  22  21  59   1.60837   44.339961972  -103.741525406   0.88438  0  0  0  0.000018  1200
PB04   0.00260  0.700  P
PB05   0.00470  0.700  P
PB01   0.00170  0.700  P
PB03   0.00260  0.700  P
PB07   0.00360  0.700  P
OT12   0.00160  0.600  P
OB13   0.00470  0.500  P
PB10   0.00170  0.700  P
# 2018   5  23  19  47  58.96052   44.340299769  -103.741286880   0.85031  0  0  0  0.000140  1201
OT16   0.00920  0.900  P
PB02   0.01220  0.700  P
 PB4   0.01060  1.000  P
PB06   0.01260  0.700  P
OT05   0.01050  0.600  P
OT04   0.01080  0.600  P
PDT1   0.00940  0.500  P
PT10   0.01150  0.500  P
# 2018   5  22  22   1  56.89203   44.339990186  -103.741532642   0.89375  0  0  0  0.000022  1202
PB04   0.00100  0.700  P
PB05   0.00600  0.700  P
PB03   0.00100  0.700  P
PB01   0.00090  0.700  P
OT12   0.00100  0.600  P
# 2018   5  24  22  38  58.64172   44.340007841  -103.741602828   0.89938  0  0  0  0.000117  1203
PB07   0.00010  0.700  P
PB07   0.00060  0.700  S
PB06   0.00070  0.700  P
PB06   0.00120  0.700  S
PB08   0.00070  0.700  P
PB08   0.00150  0.700  S
PB05   0.00080  0.700  P
PB05   0.00130  0.700  S
PB09   0.00080  0.700  P
PB09   0.00170  0.700  S
OT16   0.00180  0.900  P
OT16   0.00320  0.900  S
 PB4   0.00150  1.000  P
 PB4   0.00220  1.000  S
 PB3   0.00200  0.500  P
 PB3   0.00360  0.500  S
PSB7   0.00170  0.500  P
PSB7   0.00240  0.500  S
# 2018   5  25  15  23  15.47119   44.339987594  -103.741552293   0.89719  0  0  0  0.000051  1204
PB05   0.00050  0.700  P
PB05   0.00090  0.700  S
PB06   0.00070  0.700  P
PB06   0.00130  0.700  S
 PB4   0.00060  1.000  P
 PB4   0.00110  1.000  S
OB13   0.00290  0.500  P
OB13   0.00400  0.500  S
OT16   0.00160  0.900  P
OT16   0.00280  0.900  S
PSB9   0.00340  0.500  P
PSB9   0.00520  0.500  S
# 2018   5  25  15  22  46.29490   44.339959380  -103.741545056   0.90094  0  0  0  0.000074  1205
PB05   0.00050  0.700  P
PB05   0.00100  0.700  S
PB04   0.00050  0.700  P
PB04   0.00100  0.700  S
PB06   0.00060  0.700  P
PB06   0.00100  0.700  S
 PB4   0.00070  1.000  P
 PB4   0.00170  1.000  S
OB13   0.00260  0.500  P
OB13   0.00370  0.500  S
OT16   0.00250  0.900  P
OT16   0.00380  0.900  S
# 2018   5  22  22   4  55.01796   44.339893775  -103.741464142   0.91312  0  0  0  0.000042  1206
 PB4   0.00320  1.000  P
PB05   0.00320  0.700  P
PB06   0.00300  0.700  P
OT16   0.00500  0.900  P
OB15   0.00800  0.500  P
 PB3   0.00500  0.500  P
PSB7   0.00420  0.500  P
# 2018   5  24  22  41  28.13757   44.339993815  -103.741607042   0.89344  0  0  0  0.000787  1207
PB07   0.00140  0.700  P
PB07   0.00260  0.700  S
PB08   0.00270  0.700  P
PB08   0.00410  0.700  S
PB06   0.00120  0.700  P
PB06   0.00240  0.700  S
PB05   0.00130  0.700  P
PB05   0.00240  0.700  S
OB13   0.00420  0.500  P
OB13   0.00530  0.500  S
OT08   0.00300  0.600  P
OT08   0.00400  0.600  S
PB04   0.00140  0.700  P
PB04   0.00250  0.700  S
OT07   0.00320  0.600  P
OT07   0.00430  0.600  S
OT16   0.00130  0.900  P
OT16   0.00180  0.900  S
PB03   0.00230  0.700  P
PB03   0.00290  0.700  S
 PB4   0.00240  1.000  P
 PB4   0.00340  1.000  S
 PB3   0.00450  0.500  P
 PB3   0.00620  0.500  S
OB15   0.00800  0.500  P
OB15   0.00930  0.500  S
# 2018   5  25  15  18  48.32810   44.339954187  -103.741584381   0.90031  0  0  0  0.000096  1208
OT08   0.00200  0.600  P
OT08   0.00340  0.600  S
PB07   0.00060  0.700  P
PB07   0.00090  0.700  S
OT06   0.00230  0.600  P
OT06   0.00360  0.600  S
PB09   0.00080  0.700  P
PB09   0.00160  0.700  S
 PB4   0.00140  1.000  P
 PB4   0.00230  1.000  S
 PB3   0.00220  0.500  P
 PB3   0.00350  0.500  S
# 2018   5  22  21  57  29.33183   44.339868767  -103.741492124   0.88656  0  0  0  0.000027  1209
PB04   0.00320  0.700  P
PB07   0.00320  0.700  P
PB03   0.00420  0.700  P
PB10   0.00420  0.700  P
OT12   0.00320  0.600  P
OB13   0.00520  0.500  P
# 2018   5  22  22   2   9.77201   44.340571434  -103.741175226   0.99875  0  0  0  0.000011  1210
PB03   0.02200  0.700  P
OT12   0.02200  0.600  P
PB04   0.02100  0.700  P
PB05   0.02100  0.700  P
PB06   0.02100  0.700  P
PB08   0.02100  0.700  P
PB09   0.02100  0.700  P
# 2018   5  24  22  33  35.53355   44.340303477  -103.741878760   0.89687  0  0  0  0.000050  1211
OB13   0.01020  0.500  P
PB06   0.00680  0.700  P
PB05   0.00750  0.700  P
PB04   0.00780  0.700  P
 PB4   0.00790  1.000  P
OT07   0.00820  0.600  P
OT06   0.00840  0.600  P
PT10   0.00850  0.500  P
# 2018   5  24  22  41   2.37709   44.340179025  -103.741563878   0.88594  0  0  0  0.002004  1212
OT16   0.00410  0.900  P
OT16   0.00480  0.900  S
 PB4   0.00430  1.000  P
 PB4   0.00470  1.000  S
PB01   0.00420  0.700  P
PB01   0.00470  0.700  S
OT09   0.00380  0.600  P
OT09   0.00410  0.600  S
PT12   0.00580  0.500  P
PT12   0.00750  0.500  S
PSB9   0.00670  0.500  P
PSB9   0.00790  0.500  S
# 2018   5  23  19  46  12.85209   44.339893248  -103.741671917   0.92906  0  0  0  0.000105  1213
 PB3   0.00690  0.500  P
OT04   0.00720  0.600  P
OT07   0.00700  0.600  P
PB06   0.00540  0.700  P
PDT1   0.00730  0.500  P
PB05   0.00640  0.700  P
 PB4   0.00600  1.000  P
PB03   0.00580  0.700  P
OT16   0.00800  0.900  P
OB15   0.00860  0.500  P
PSB9   0.00810  0.500  P
# 2018   5  22  22   5   5.79016   44.339789051  -103.741662391   0.90125  0  0  0  0.000073  1214
PB06   0.00380  0.700  P
PB05   0.00370  0.700  P
PB04   0.00410  0.700  P
PT12   0.00800  0.500  P
 PB4   0.00320  1.000  P
OT16   0.00540  0.900  P
# 2018   5  23  16   0  16.01741   44.340025935  -103.741457400   0.91031  0  0  0  0.000088  1215
 PB4   0.00360  1.000  P
PB04   0.00310  0.700  P
OT16   0.00380  0.900  P
PB05   0.00300  0.700  P
OT09   0.00390  0.600  P
OT07   0.00420  0.600  P
PB08   0.00290  0.700  P
PB09   0.00290  0.700  P
OT04   0.00370  0.600  P
PB11   0.00340  0.700  P
PB12   0.00360  0.700  P
 PB3   0.00390  0.500  P
PT10   0.00410  0.500  P
PSB7   0.00470  0.500  P
OB15   0.00670  0.500  P
# 2018   5  23  19  43   6.76656   44.339920434  -103.741585104   0.88156  0  0  0  0.000077  1216
OT05   0.00120  0.600  P
OT04   0.00140  0.600  P
PB04   0.00330  0.700  P
 PB4   0.00200  1.000  P
PB02   0.00380  0.700  P
OT16   0.00110  0.900  P
PDT1   0.00270  0.500  P
PT12   0.00270  0.500  P
PSB9   0.00330  0.500  P
# 2018   5  23  16   0  15.49640   44.339961972  -103.741525406   0.98562  0  0  0  0.000054  1217
OT08   0.01660  0.600  P
 PB4   0.01680  1.000  P
OT10   0.01660  0.600  P
OT05   0.01670  0.600  P
OT04   0.01670  0.600  P
OT16   0.01720  0.900  P
 PB3   0.01710  0.500  P
PT10   0.01740  0.500  P
PDT1   0.01700  0.500  P
# 2018   5  22  22   4   0.30067   44.339452213  -103.741732319   0.85125  0  0  0  0.000011  1218
 PB3   0.01540  0.500  P
PB08   0.01330  0.700  P
PB06   0.01330  0.700  P
PB05   0.01330  0.700  P
PB04   0.01330  0.700  P
 PB4   0.01440  1.000  P
OT16   0.01340  0.900  P
# 2018   5  23  19  46  54.93065   44.339864870  -103.741649003   0.89281  0  0  0  0.000125  1219
OT08   0.00040  0.600  P
OT09   0.00030  0.600  P
PDT1   0.00280  0.500  P
 PB4   0.00320  1.000  P
PB02   0.00320  0.700  P
PB01   0.00340  0.700  P
PT12   0.00380  0.500  P
OT16   0.00090  0.900  P
PSB9   0.00540  0.500  P
# 2018   5  22  22   4  25.76932   44.339083883  -103.740987531   0.97375  0  0  0  0.000023  1220
PSB7   0.02370  0.500  P
 PB4   0.02270  1.000  P
OT09   0.02370  0.600  P
PB05   0.02270  0.700  P
PB06   0.02270  0.700  P
PB09   0.02270  0.700  P
 PB3   0.02270  0.500  P
# 2018   5  24  22  33  22.63086   44.340041153  -103.741817721   0.90031  0  0  0  0.000031  1221
PDT1   0.00350  0.500  P
 PB3   0.00400  0.500  P
PB08   0.00300  0.700  P
PB06   0.00350  0.700  P
OT16   0.00400  0.900  P
PB05   0.00420  0.700  P
OT08   0.00430  0.600  P
OT07   0.00440  0.600  P
 PB4   0.00440  1.000  P
PSB9   0.00610  0.500  P
# 2018   5  25  15  23  30.38484   44.339985166  -103.741587633   0.89312  0  0  0  0.000093  1222
PB05   0.00140  0.700  P
PB05   0.00210  0.700  S
OT08   0.00090  0.600  P
OT08   0.00160  0.600  S
PB04   0.00140  0.700  P
PB04   0.00230  0.700  S
PB03   0.00140  0.700  P
PB03   0.00240  0.700  S
 PB4   0.00150  1.000  P
 PB4   0.00240  1.000  S
OT16   0.00150  0.900  P
OT16   0.00210  0.900  S
PDT1   0.00220  0.500  P
PDT1   0.00350  0.500  S
# 2018   5  24  22  40  40.34601   44.339993297  -103.741560011   0.89406  0  0  0  0.000106  1223
OT10   0.00070  0.600  P
OT10   0.00130  0.600  S
PB03   0.00080  0.700  P
PB03   0.00160  0.700  S
 PB4   0.00100  1.000  P
 PB4   0.00180  1.000  S
PB02   0.00120  0.700  P
PB02   0.00200  0.700  S
OT16   0.00120  0.900  P
OT16   0.00200  0.900  S
# 2018   5  24  22  43  38.75603   44.339987680  -103.741560131   0.89094  0  0  0  0.000202  1224
OT10   0.00030  0.600  P
OT10   0.00060  0.600  S
OT08   0.00070  0.600  P
OT08   0.00090  0.600  S
 PB4   0.00180  1.000  P
 PB4   0.00240  1.000  S
PB03   0.00240  0.700  P
PB03   0.00270  0.700  S
PB02   0.00240  0.700  P
PB02   0.00260  0.700  S
OT16   0.00120  0.900  P
OT16   0.00180  0.900  S
# 2018   5  25  15  22  19.18057   44.339976948  -103.741607403   0.89969  0  0  0  0.000078  1225
PB07   0.00030  0.700  P
PB07   0.00050  0.700  S
PB06   0.00040  0.700  P
PB06   0.00100  0.700  S
PB05   0.00070  0.700  P
PB05   0.00130  0.700  S
 PB4   0.00140  1.000  P
 PB4   0.00260  1.000  S
OT16   0.00220  0.900  P
OT16   0.00380  0.900  S
 PB3   0.00200  0.500  P
 PB3   0.00350  0.500  S
PSB7   0.00290  0.500  P
PSB7   0.00520  0.500  S
# 2018   5  24  22  49  14.30937   44.339999527  -103.741614773   0.88656  0  0  0  0.000093  1226
PB06   0.00260  0.700  P
PB06   0.00450  0.700  S
OT16   0.00130  0.900  P
OT16   0.00240  0.900  S
OT07   0.00110  0.600  P
OT07   0.00240  0.600  S
 PB4   0.00370  1.000  P
 PB4   0.00430  1.000  S
PB02   0.00330  0.700  P
PB02   0.00440  0.700  S
PDT1   0.00170  0.500  P
PDT1   0.00290  0.500  S
# 2018   5  24  22  40  50.32189   44.340004384  -103.741544093   0.89469  0  0  0  0.000215  1227
PB03   0.00090  0.700  P
PB03   0.00140  0.700  S
PB04   0.00080  0.700  P
PB04   0.00190  0.700  S
 PB4   0.00080  1.000  P
 PB4   0.00140  1.000  S
PB02   0.00090  0.700  P
PB02   0.00150  0.700  S
OT16   0.00120  0.900  P
OT16   0.00190  0.900  S
PB01   0.00140  0.700  P
PB01   0.00180  0.700  S
PT12   0.00310  0.500  P
PT12   0.00440  0.500  S
PSB9   0.00380  0.500  P
PSB9   0.00450  0.500  S
# 2018   5  23  19  28  30.80510   44.339950548  -103.741509969   0.90312  0  0  0  0.000116  1228
 PB4   0.00050  1.000  P
PB02   0.00110  0.700  P
PB01   0.00130  0.700  P
PB05   0.00110  0.700  P
OT05   0.00240  0.600  P
OT04   0.00290  0.600  P
OT16   0.00060  0.900  P
PSB9   0.00490  0.500  P
PDT1   0.00410  0.500  P
# 2018   5  25  15  24  29.95257   44.339992951  -103.741528657   0.88906  0  0  0  0.000130  1229
 PB4   0.00210  1.000  P
 PB4   0.00280  1.000  S
PB03   0.00200  0.700  P
PB03   0.00300  0.700  S
PB01   0.00220  0.700  P
PB01   0.00280  0.700  S
OT16   0.00110  0.900  P
OT16   0.00190  0.900  S
PT12   0.00260  0.500  P
PT12   0.00470  0.500  S
PSB9   0.00320  0.500  P
PSB9   0.00520  0.500  S
# 2018   5  23  19  48  30.68439   44.339931425  -103.741561335   0.88406  0  0  0  0.000040  1230
OT07   0.00030  0.600  P
OT08   0.00000  0.600  P
 PB4   0.00290  1.000  P
PB02   0.00280  0.700  P
PB03   0.00300  0.700  P
OT16   0.00080  0.900  P
PT12   0.00420  0.500  P
PDT1   0.00280  0.500  P
