# 2018   5  24  22  33  33.04674   44.339303543  -103.739987111   0.94437  0  0  0  0.000083  1001
 PB4   0.02690  1.000  P
OT08   0.02670  0.600  P
PB05   0.02690  0.700  P
OT10   0.02690  0.600  P
PB06   0.02640  0.700  P
PB07   0.02690  0.700  P
OT16   0.02730  0.900  P
PB08   0.02640  0.700  P
PT10   0.02780  0.500  P
 PB3   0.02750  0.500  P
# 2018   5  24  22  43  28.20031   44.339998922  -103.741559891   0.88969  0  0  0  0.000216  1002
OT10  -0.00010  0.600  P
OT10   0.00020  0.600  S
PB04   0.00200  0.700  P
PB04   0.00290  0.700  S
OT09   0.00040  0.600  P
OT09   0.00070  0.600  S
 PB4   0.00260  1.000  P
 PB4   0.00280  1.000  S
PB02   0.00270  0.700  P
PB02   0.00310  0.700  S
OT16   0.00110  0.900  P
OT16   0.00160  0.900  S
# 2018   5  24  22  41   8.14131   44.340004557  -103.741559770   0.89844  0  0  0  0.000076  1003
PB05   0.00040  0.700  P
PB05   0.00100  0.700  S
PB04   0.00040  0.700  P
PB04   0.00090  0.700  S
PB06   0.00060  0.700  P
PB06   0.00130  0.700  S
PB03   0.00060  0.700  P
PB03   0.00120  0.700  S
PB07   0.00090  0.700  P
PB07   0.00170  0.700  S
 PB4   0.00090  1.000  P
 PB4   0.00150  1.000  S
PB02   0.00090  0.700  P
PB02   0.00150  0.700  S
# 2018   5  24  22  49  41.06456   44.340004643  -103.741567609   0.88844  0  0  0  0.000276  1004
OT11   0.00010  0.600  P
OT11   0.00040  0.600  S
OT10  -0.00020  0.600  P
OT10   0.00000  0.600  S
PB03   0.00180  0.700  P
PB03   0.00280  0.700  S
OT16   0.00090  0.900  P
OT16   0.00150  0.900  S
 PB4   0.00250  1.000  P
 PB4   0.00360  1.000  S
PB02   0.00250  0.700  P
PB02   0.00340  0.700  S
PSB9   0.00350  0.500  P
PSB9   0.00470  0.500  S
# 2018   5  22  21  59  10.33100   44.339871791  -103.741511654   0.88687  0  0  0  0.000071  1005
PT12   0.00700  0.500  P
PB04   0.00300  0.700  P
PB01   0.00300  0.700  P
PB09   0.00700  0.700  P
PB03   0.00300  0.700  P
PB10   0.00400  0.700  P
OT12   0.00300  0.600  P
OB13   0.00600  0.500  P
# 2018   5  23  19  39  23.96523   44.339856211  -103.741629593   0.87875  0  0  0  0.000121  1006
PT10   0.00470  0.500  P
OT04   0.00180  0.600  P
OT05   0.00160  0.600  P
PB04   0.00460  0.700  P
PDT1   0.00340  0.500  P
 PB4   0.00440  1.000  P
PB02   0.00460  0.700  P
PT12   0.00310  0.500  P
PSB9   0.00420  0.500  P
OT16   0.00140  0.900  P
# 2018   5  23  19  37  24.92496   44.339987940  -103.741583659   0.88594  0  0  0  0.000079  1007
PB05   0.00250  0.700  P
PB04   0.00250  0.700  P
OB13   0.00620  0.500  P
 PB4   0.00220  1.000  P
PB02   0.00250  0.700  P
OT16   0.00130  0.900  P
OT05   0.00140  0.600  P
OT04   0.00170  0.600  P
PDT1   0.00220  0.500  P
PT10   0.00320  0.500  P
PT12   0.00310  0.500  P
PSB9   0.00350  0.500  P
# 2018   5  24  22  39  21.93095   44.340021779  -103.741590763   0.90406  0  0  0  0.000133  1008
OT16   0.00330  0.900  P
OT16   0.00430  0.900  S
PB06   0.00090  0.700  P
PB06   0.00180  0.700  S
PB05   0.00120  0.700  P
PB05   0.00220  0.700  S
PB04   0.00100  0.700  P
PB04   0.00230  0.700  S
 PB4   0.00210  1.000  P
 PB4   0.00290  1.000  S
# 2018   5  24  22  43  48.57368   44.339996244  -103.741571715   0.89812  0  0  0  0.000111  1009
PB05   0.00050  0.700  P
PB05   0.00090  0.700  S
PB06  -0.00050  0.700  P
PB06   0.00060  0.700  S
PB04   0.00050  0.700  P
PB04   0.00090  0.700  S
OB13   0.00260  0.500  P
OB13   0.00410  0.500  S
PB03   0.00060  0.700  P
PB03   0.00140  0.700  S
PB08   0.00090  0.700  P
PB08   0.00190  0.700  S
 PB4   0.00090  1.000  P
 PB4   0.00180  1.000  S
OT16   0.00170  0.900  P
OT16   0.00290  0.900  S
# 2018   5  23  20  15  18.73878   44.339045707  -103.741352927   0.87344  0  0  0  0.000099  1010
OB15   0.01310  0.500  P
OT18   0.01370  0.300  P
PSB9   0.01640  0.500  P
PT12   0.01630  0.500  P
PT10   0.01590  0.500  P
OT08   0.01800  0.600  P
PB05   0.02050  0.700  P
PB02   0.01930  0.700  P
OT11   0.01890  0.600  P
# 2018   5  24  22  43  10.03934   44.339976257  -103.741544695   0.89594  0  0  0  0.000104  1011
OT09   0.00110  0.600  P
OT09   0.00180  0.600  S
PB05   0.00080  0.700  P
PB05   0.00130  0.700  S
OT08   0.00120  0.600  P
OT08   0.00220  0.600  S
PB06   0.00100  0.700  P
PB06   0.00150  0.700  S
 PB4   0.00070  1.000  P
 PB4   0.00120  1.000  S
PB02   0.00070  0.700  P
PB02   0.00140  0.700  S
PB07   0.00120  0.700  P
PB07   0.00220  0.700  S
PB03   0.00060  0.700  P
PB03   0.00100  0.700  S
PB01   0.00100  0.700  P
PB01   0.00180  0.700  S
PB08   0.00150  0.700  P
PB08   0.00260  0.700  S
OT16   0.00150  0.900  P
OT16   0.00280  0.900  S
PT10   0.00340  0.500  P
PT10   0.00500  0.500  S
PSB9   0.00330  0.500  P
PSB9   0.00510  0.500  S
OB15   0.00480  0.500  P
OB15   0.00770  0.500  S
# 2018   5  24  22  33  53.06007   44.340072745  -103.741621035   0.89781  0  0  0  0.000050  1012
OT16   0.00270  0.900  P
PB06   0.00180  0.700  P
PB08   0.00200  0.700  P
PB05   0.00210  0.700  P
PB04   0.00190  0.700  P
PDT1   0.00280  0.500  P
 PB4   0.00230  1.000  P
 PB3   0.00280  0.500  P
OT07   0.00300  0.600  P
OT04   0.00380  0.600  P
PT10   0.00300  0.500  P
PSB7   0.00500  0.500  P
# 2018   5  23  15  59  45.97622   44.340005680  -103.741661671   0.89219  0  0  0  0.000090  1013
PB10   0.00210  0.700  P
PB09   0.00180  0.700  P
PB08   0.00190  0.700  P
PB12   0.00240  0.700  P
PB07   0.00220  0.700  P
 PB3   0.00260  0.500  P
OT08   0.00170  0.600  P
OT16   0.00380  0.900  P
OT07   0.00190  0.600  P
 PB4   0.00240  1.000  P
OT05   0.00190  0.600  P
PT10   0.00260  0.500  P
OT03   0.00330  0.600  P
# 2018   5  24  22  33  34.88593   44.340035018  -103.741770809   0.89969  0  0  0  0.000043  1014
OB13   0.00530  0.500  P
PB06   0.00280  0.700  P
OT16   0.00330  0.900  P
OT10   0.00350  0.600  P
PT10   0.00380  0.500  P
PB05   0.00310  0.700  P
OT09   0.00350  0.600  P
PSB7   0.00440  0.500  P
# 2018   5  25  15  21   7.03042   44.339982141  -103.741568090   0.88969  0  0  0  0.000094  1015
OT08   0.00040  0.600  P
OT08   0.00070  0.600  S
OT11   0.00050  0.600  P
OT11   0.00100  0.600  S
OT07   0.00090  0.600  P
OT07   0.00110  0.600  S
 PB4   0.00220  1.000  P
 PB4   0.00300  1.000  S
OT16   0.00140  0.900  P
OT16   0.00200  0.900  S
OT05   0.00140  0.600  P
OT05   0.00220  0.600  S
# 2018   5  24  22  43  26.50328   44.339977121  -103.741623080   0.89531  0  0  0  0.000084  1016
PB08   0.00130  0.700  P
PB08   0.00210  0.700  S
PB09   0.00130  0.700  P
PB09   0.00240  0.700  S
PB10   0.00140  0.700  P
PB10   0.00260  0.700  S
PB06   0.00110  0.700  P
PB06   0.00210  0.700  S
PB05   0.00130  0.700  P
PB05   0.00210  0.700  S
OB13   0.00290  0.500  P
OB13   0.00470  0.500  S
PB04   0.00130  0.700  P
PB04   0.00220  0.700  S
OT16   0.00230  0.900  P
OT16   0.00310  0.900  S
 PB4   0.00180  1.000  P
 PB4   0.00300  1.000  S
PT10   0.00250  0.500  P
PT10   0.00380  0.500  S
# 2018   5  24  22  41  48.16963   44.339999009  -103.741567729   0.89531  0  0  0  0.000094  1017
PB05   0.00090  0.700  P
PB05   0.00160  0.700  S
PB07   0.00120  0.700  P
PB07   0.00220  0.700  S
OT08   0.00070  0.600  P
OT08   0.00130  0.600  S
PB03   0.00140  0.700  P
PB03   0.00170  0.700  S
 PB4   0.00110  1.000  P
 PB4   0.00170  1.000  S
OT16   0.00120  0.900  P
OT16   0.00190  0.900  S
PB02   0.00120  0.700  P
PB02   0.00170  0.700  S
# 2018   5  24  22  42  16.92522   44.339976862  -103.741599577   0.89594  0  0  0  0.000102  1018
PB07   0.00090  0.700  P
PB07   0.00160  0.700  S
PB06   0.00090  0.700  P
PB06   0.00160  0.700  S
PB05   0.00120  0.700  P
PB05   0.00170  0.700  S
OT08   0.00030  0.600  P
OT08   0.00050  0.600  S
PB04   0.00090  0.700  P
PB04   0.00180  0.700  S
 PB4   0.00130  1.000  P
 PB4   0.00220  1.000  S
OT16   0.00180  0.900  P
OT16   0.00290  0.900  S
PT12   0.00380  0.500  P
PT12   0.00510  0.500  S
# 2018   5  23  19  34  34.14984   44.339875689  -103.741609569   0.90594  0  0  0  0.000066  1019
PT10   0.00360  0.500  P
PSB7   0.00380  0.500  P
OT08   0.00340  0.600  P
PB06   0.00220  0.700  P
PB05   0.00250  0.700  P
 PB3   0.00340  0.500  P
PB04   0.00290  0.700  P
OT10   0.00360  0.600  P
 PB4   0.00290  1.000  P
OT11   0.00380  0.600  P
OT16   0.00320  0.900  P
# 2018   5  24  22  43  45.98811   44.339999095  -103.741575568   0.89281  0  0  0  0.000093  1020
PB03   0.00200  0.700  P
PB03   0.00240  0.700  S
OT16   0.00100  0.900  P
OT16   0.00180  0.900  S
 PB4   0.00130  1.000  P
 PB4   0.00230  1.000  S
PB01   0.00250  0.700  P
PB01   0.00290  0.700  S
PDT1   0.00120  0.500  P
PDT1   0.00220  0.500  S
# 2018   5  22  22   5  31.40577   44.339804458  -103.741528775   0.91438  0  0  0  0.000167  1021
PT10   0.00560  0.500  P
PB06   0.00390  0.700  P
PB05   0.00460  0.700  P
PB04   0.00520  0.700  P
PB08   0.00400  0.700  P
 PB4   0.00450  1.000  P
 PB3   0.00480  0.500  P
OT16   0.00610  0.900  P
# 2018   5  24  22  34   4.63824   44.340056569  -103.741684104   0.89781  0  0  0  0.000122  1022
PDT1   0.00210  0.500  P
OT16   0.00220  0.900  P
PB08   0.00150  0.700  P
 PB3   0.00240  0.500  P
PB07   0.00200  0.700  P
OT08   0.00240  0.600  P
 PB4   0.00270  1.000  P
OT02   0.00430  0.600  P
# 2018   5  24  22  40  37.68634   44.339968030  -103.741564478   0.90125  0  0  0  0.000096  1023
PB05  -0.00010  0.700  P
PB05   0.00060  0.700  S
PB06   0.00020  0.700  P
PB06   0.00060  0.700  S
PB04   0.00060  0.700  P
PB04   0.00110  0.700  S
 PB4   0.00050  1.000  P
 PB4   0.00180  1.000  S
 PB3   0.00220  0.500  P
 PB3   0.00390  0.500  S
# 2018   5  24  22  49  10.02282   44.339996762  -103.741618746   0.88562  0  0  0  0.000083  1024
OT07   0.00130  0.600  P
OT07   0.00240  0.600  S
OT16   0.00140  0.900  P
OT16   0.00270  0.900  S
PB02   0.00330  0.700  P
PB02   0.00470  0.700  S
PDT1   0.00190  0.500  P
PDT1   0.00300  0.500  S
OT03   0.00130  0.600  P
OT03   0.00380  0.600  S
PT12   0.00360  0.500  P
PT12   0.00570  0.500  S
# 2018   5  24  22  43  47.21644   44.340007495  -103.741571474   0.88813  0  0  0  0.000093  1025
OT09   0.00060  0.600  P
OT09   0.00120  0.600  S
OT16   0.00090  0.900  P
OT16   0.00140  0.900  S
OT08   0.00110  0.600  P
OT08   0.00150  0.600  S
 PB4   0.00250  1.000  P
 PB4   0.00350  1.000  S
PSB9   0.00350  0.500  P
PSB9   0.00570  0.500  S
# 2018   5  24  22  43  29.22990   44.339981882  -103.741544574   0.89094  0  0  0  0.000149  1026
OT10   0.00010  0.600  P
OT10   0.00080  0.600  S
OT08   0.00050  0.600  P
OT08   0.00090  0.600  S
 PB4   0.00150  1.000  P
 PB4   0.00230  1.000  S
PB03   0.00180  0.700  P
PB03   0.00230  0.700  S
OT07   0.00100  0.600  P
OT07   0.00140  0.600  S
PB01   0.00180  0.700  P
PB01   0.00240  0.700  S
OT16   0.00120  0.900  P
OT16   0.00200  0.900  S
OT05   0.00150  0.600  P
OT05   0.00230  0.600  S
PB10   0.00260  0.700  P
PB10   0.00410  0.700  S
PT12   0.00300  0.500  P
PT12   0.00490  0.500  S
PSB9   0.00330  0.500  P
PSB9   0.00530  0.500  S
# 2018   5  24  22  40  15.84599   44.339976429  -103.741560372   0.89344  0  0  0  0.000184  1027
PB05   0.00070  0.700  P
PB05   0.00170  0.700  S
OT08   0.00080  0.600  P
OT08   0.00130  0.600  S
PB06   0.00120  0.700  P
PB06   0.00200  0.700  S
PB04   0.00110  0.700  P
PB04   0.00190  0.700  S
OT10   0.00080  0.600  P
OT10   0.00110  0.600  S
 PB4   0.00090  1.000  P
 PB4   0.00160  1.000  S
PB02   0.00130  0.700  P
PB02   0.00180  0.700  S
PB03   0.00130  0.700  P
PB03   0.00210  0.700  S
PB01   0.00140  0.700  P
PB01   0.00240  0.700  S
OT16   0.00130  0.900  P
OT16   0.00220  0.900  S
PDT1   0.00270  0.500  P
PDT1   0.00400  0.500  S
PT12   0.00300  0.500  P
PT12   0.00520  0.500  S
PSB9   0.00320  0.500  P
PSB9   0.00530  0.500  S
# 2018   5  25  15  16  10.93026   44.339973915  -103.741587873   0.89687  0  0  0  0.000047  1028
PB06   0.00070  0.700  P
PB06   0.00120  0.700  S
PB05   0.00070  0.700  P
PB05   0.00120  0.700  S
PB04   0.00090  0.700  P
PB04   0.00140  0.700  S
OT11   0.00140  0.600  P
OT11   0.00250  0.600  S
 PB4   0.00120  1.000  P
 PB4   0.00210  1.000  S
OT16   0.00190  0.900  P
OT16   0.00320  0.900  S
# 2018   5  23  19  36  39.97873   44.339958516  -103.741466670   0.88406  0  0  0  0.000095  1029
 PB4   0.00270  1.000  P
PT12   0.00340  0.500  P
OT05   0.00160  0.600  P
OT04   0.00170  0.600  P
OT03   0.00210  0.600  P
OT16   0.00220  0.900  P
PB09   0.00520  0.700  P
PB10   0.00510  0.700  P
 PB3   0.00390  0.500  P
PT10   0.00370  0.500  P
PDT1   0.00200  0.500  P
# 2018   5  22  22   0   8.19146   44.340242567  -103.739927795   0.99125  0  0  0  0.000020  1030
PB01   0.02850  0.700  P
PB03   0.02950  0.700  P
PB04   0.02750  0.700  P
OT12   0.02850  0.600  P
PB05   0.03050  0.700  P
PB10   0.02850  0.700  P
# 2018   5  24  22  49   9.39989   44.339981709  -103.741528897   0.89344  0  0  0  0.000160  1031
 PB4   0.00120  1.000  P
 PB4   0.00160  1.000  S
PB02   0.00120  0.700  P
PB02   0.00160  0.700  S
PB01   0.00140  0.700  P
PB01   0.00180  0.700  S
OT16   0.00130  0.900  P
OT16   0.00230  0.900  S
OT03   0.00230  0.600  P
OT03   0.00370  0.600  S
PT12   0.00320  0.500  P
PT12   0.00500  0.500  S
PT10   0.00460  0.500  P
PT10   0.00490  0.500  S
# 2018   5  24  22  34  29.15347   44.341244413  -103.741482287   0.88062  0  0  0  0.000074  1032
OT16   0.02540  0.900  P
 PB4   0.02410  1.000  P
PB05   0.02450  0.700  P
PDT1   0.02420  0.500  P
PB06   0.02440  0.700  P
OT08   0.02460  0.600  P
OT07   0.02480  0.600  P
PT10   0.02480  0.500  P
# 2018   5  25  15  19  12.68953   44.339976862  -103.741599577   0.90031  0  0  0  0.000201  1033
PB07  -0.00040  0.700  P
PB07   0.00040  0.700  S
PB06  -0.00030  0.700  P
PB06   0.00030  0.700  S
PB05   0.00050  0.700  P
PB05   0.00110  0.700  S
OB13   0.00210  0.500  P
OB13   0.00350  0.500  S
OT16   0.00270  0.900  P
OT16   0.00380  0.900  S
# 2018   5  24  22  48   8.02464   44.339998922  -103.741559891   0.89969  0  0  0  0.000143  1034
PB04   0.00040  0.700  P
PB04   0.00080  0.700  S
OB13   0.00240  0.500  P
OB13   0.00340  0.500  S
PB03   0.00060  0.700  P
PB03   0.00110  0.700  S
 PB4   0.00070  1.000  P
 PB4   0.00140  1.000  S
PB02   0.00090  0.700  P
PB02   0.00160  0.700  S
OT16   0.00270  0.900  P
OT16   0.00350  0.900  S
 PB3   0.00350  0.500  P
 PB3   0.00440  0.500  S
PSB9   0.00320  0.500  P
PSB9   0.00550  0.500  S
# 2018   5  24  22  39  28.31046   44.339999182  -103.741583419   0.89219  0  0  0  0.000237  1035
OT08   0.00090  0.600  P
OT08   0.00150  0.600  S
PB03   0.00220  0.700  P
PB03   0.00260  0.700  S
OT16   0.00060  0.900  P
OT16   0.00170  0.900  S
 PB4   0.00200  1.000  P
 PB4   0.00260  1.000  S
PB02   0.00230  0.700  P
PB02   0.00270  0.700  S
PDT1   0.00280  0.500  P
PDT1   0.00390  0.500  S
PSB7   0.00390  0.500  P
PSB7   0.00620  0.500  S
# 2018   5  22  22   2   9.78473   44.340174185  -103.741379738   0.94063  0  0  0  0.000060  1036
OT16   0.00930  0.900  P
 PB4   0.00830  1.000  P
PB04   0.00920  0.700  P
PB05   0.00820  0.700  P
PB06   0.00820  0.700  P
PB08   0.00830  0.700  P
PDT1   0.00930  0.500  P
 PB3   0.00930  0.500  P
PT10   0.00920  0.500  P
PSB7   0.01030  0.500  P
# 2018   5  23  16   5  35.13520   44.339977380  -103.741646596   0.89469  0  0  0  0.000128  1037
PB10   0.00150  0.700  P
PB06   0.00140  0.700  P
PB05   0.00180  0.700  P
OT09   0.00150  0.600  P
PDT1   0.00220  0.500  P
OT16   0.00230  0.900  P
PB03   0.00200  0.700  P
 PB4   0.00200  1.000  P
PB02   0.00210  0.700  P
PT10   0.00240  0.500  P
PSB7   0.00300  0.500  P
# 2018   5  24  22  41  39.00883   44.339999009  -103.741567729   0.89969  0  0  0  0.000074  1038
PB05   0.00040  0.700  P
PB05   0.00070  0.700  S
PB06   0.00030  0.700  P
PB06   0.00080  0.700  S
PB04   0.00040  0.700  P
PB04   0.00070  0.700  S
OB13   0.00250  0.500  P
OB13   0.00340  0.500  S
PB07   0.00060  0.700  P
PB07   0.00120  0.700  S
PB03   0.00070  0.700  P
PB03   0.00130  0.700  S
 PB4   0.00090  1.000  P
 PB4   0.00170  1.000  S
 PB3   0.00240  0.500  P
 PB3   0.00420  0.500  S
# 2018   5  24  22  42  54.74747   44.339993383  -103.741567850   0.89906  0  0  0  0.000092  1039
PB05   0.00040  0.700  P
PB05   0.00060  0.700  S
PB04   0.00040  0.700  P
PB04   0.00070  0.700  S
PB07   0.00060  0.700  P
PB07   0.00110  0.700  S
OB13   0.00210  0.500  P
OB13   0.00360  0.500  S
PB03   0.00020  0.700  P
PB03   0.00070  0.700  S
 PB4   0.00070  1.000  P
 PB4   0.00150  1.000  S
PB02   0.00080  0.700  P
PB02   0.00180  0.700  S
OT16   0.00210  0.900  P
OT16   0.00310  0.900  S
# 2018   5  24  22  49  12.34818   44.339898364  -103.741624765   0.88469  0  0  0  0.000064  1040
OT08   0.00170  0.600  P
OT08   0.00320  0.600  S
PB04   0.00320  0.700  P
PB04   0.00580  0.700  S
PDT1   0.00340  0.500  P
PDT1   0.00430  0.500  S
PB02   0.00330  0.700  P
PB02   0.00580  0.700  S
OT16   0.00170  0.900  P
OT16   0.00320  0.900  S
PSB9   0.00360  0.500  P
PSB9   0.00640  0.500  S
# 2018   5  24  22  39  28.45343   44.339996244  -103.741571715   0.89563  0  0  0  0.000127  1041
PB05   0.00070  0.700  P
PB05   0.00150  0.700  S
PB04   0.00100  0.700  P
PB04   0.00140  0.700  S
PB07   0.00110  0.700  P
PB07   0.00210  0.700  S
PB03   0.00110  0.700  P
PB03   0.00170  0.700  S
 PB4   0.00120  1.000  P
 PB4   0.00180  1.000  S
PB02   0.00150  0.700  P
PB02   0.00200  0.700  S
PB01   0.00180  0.700  P
PB01   0.00220  0.700  S
PSB9   0.00350  0.500  P
PSB9   0.00500  0.500  S
# 2018   5  23  15  58  58.00404   44.339145856  -103.740739242   0.89531  0  0  0  0.000084  1042
OB15   0.02400  0.500  P
PSB9   0.02350  0.500  P
PSB7   0.02140  0.500  P
PB02   0.01930  0.700  P
 PB4   0.01890  1.000  P
OT08   0.01920  0.600  P
PT10   0.01940  0.500  P
PB06   0.01970  0.700  P
PB07   0.01970  0.700  P
PB10   0.01920  0.700  P
OT16   0.02040  0.900  P
PDT1   0.01930  0.500  P
# 2018   5  22  21  59  34.87751   44.339375371  -103.740887209   0.99875  0  0  0  0.000018  1043
PB01   0.02250  0.700  P
PB04   0.02250  0.700  P
PB07   0.02450  0.700  P
PB10   0.02250  0.700  P
# 2018   5  23  19  33  23.76059   44.339947783  -103.741513955   0.90844  0  0  0  0.000011  1044
 PB4   0.00190  1.000  P
PB04   0.00170  0.700  P
PB05   0.00170  0.700  P
PB03   0.00210  0.700  P
OT16   0.00440  0.900  P
 PB3   0.00280  0.500  P
PSB7   0.00370  0.500  P
OB15   0.00710  0.500  P
# 2018   5  24  22  41  40.84671   44.339984474  -103.741524924   0.91438  0  0  0  0.000034  1045
 PB4   0.00070  1.000  P
 PB4   0.00170  1.000  S
PB05   0.00250  0.700  P
PB05   0.00440  0.700  S
OT08  -0.00060  0.600  P
OT08  -0.00020  0.600  S
PB06   0.00250  0.700  P
PB06   0.00440  0.700  S
PT12   0.00140  0.500  P
PT12   0.00310  0.500  S
# 2018   5  24  22  33  32.05718   44.339791125  -103.741850516   0.90125  0  0  0  0.000052  1046
PT10   0.00620  0.500  P
PDT1   0.00470  0.500  P
PB08   0.00470  0.700  P
PB07   0.00580  0.700  P
OT07   0.00590  0.600  P
OT08   0.00560  0.600  P
PB06   0.00470  0.700  P
PB05   0.00540  0.700  P
 PB4   0.00430  1.000  P
OT16   0.00640  0.900  P
# 2018   5  24  22  41   4.54552   44.339993815  -103.741607042   0.88531  0  0  0  0.000081  1047
OT09   0.00100  0.600  P
OT09   0.00180  0.600  S
OT08   0.00110  0.600  P
OT08   0.00180  0.600  S
OT16   0.00140  0.900  P
OT16   0.00230  0.900  S
PB03   0.00430  0.700  P
PB03   0.00470  0.700  S
 PB4   0.00260  1.000  P
 PB4   0.00400  1.000  S
OT05   0.00180  0.600  P
OT05   0.00300  0.600  S
PDT1   0.00220  0.500  P
PDT1   0.00330  0.500  S
PT12   0.00340  0.500  P
PT12   0.00510  0.500  S
# 2018   5  22  22   5  24.68734   44.339747685  -103.741482948   0.88313  0  0  0  0.000082  1048
PT12   0.00940  0.500  P
PSB9   0.00910  0.500  P
PT10   0.00660  0.500  P
PB04   0.00580  0.700  P
PB05   0.00560  0.700  P
 PB4   0.00530  1.000  P
PB06   0.00450  0.700  P
PB07   0.00560  0.700  P
PB09   0.00590  0.700  P
 PB3   0.00590  0.500  P
OT16   0.00590  0.900  P
PDT1   0.00590  0.500  P
