# 2018   5  25  15  22  44.36391   44.339965524  -103.741591967   0.89719  0  0  0  0.000107  1149
PB05   0.00080  0.700  P
PB05   0.00120  0.700  S
OT06   0.00180  0.600  P
OT06   0.00280  0.600  S
PB04   0.00090  0.700  P
PB04   0.00150  0.700  S
 PB4   0.00120  1.000  P
 PB4   0.00240  1.000  S
OT16   0.00200  0.900  P
OT16   0.00330  0.900  S
PT12   0.00330  0.500  P
PT12   0.00470  0.500  S
# 2018   5  22  22   3  20.11790   44.339834062  -103.741151804   0.90187  0  0  0  0.000089  1150
 PB4   0.00710  1.000  P
PB04   0.00610  0.700  P
PB05   0.00610  0.700  P
PB06   0.00610  0.700  P
OT16   0.00710  0.900  P
OB13   0.00910  0.500  P
PT10   0.00810  0.500  P
 PB3   0.00810  0.500  P
# 2018   5  25  15  19  39.50375   44.339971495  -103.741623201   0.89531  0  0  0  0.000101  1151
PB08   0.00120  0.700  P
PB08   0.00210  0.700  S
PB10   0.00150  0.700  P
PB10   0.00350  0.700  S
PB04   0.00150  0.700  P
PB04   0.00230  0.700  S
PDT1   0.00200  0.500  P
PDT1   0.00300  0.500  S
OT16   0.00200  0.900  P
OT16   0.00290  0.900  S
PB02   0.00210  0.700  P
PB02   0.00310  0.700  S
# 2018   5  25  15  24   9.03337   44.339998490  -103.741520698   0.89531  0  0  0  0.000118  1152
 PB4   0.00060  1.000  P
 PB4   0.00090  1.000  S
PB03   0.00070  0.700  P
PB03   0.00120  0.700  S
PB02   0.00070  0.700  P
PB02   0.00100  0.700  S
PB01   0.00080  0.700  P
PB01   0.00110  0.700  S
OT16   0.00070  0.900  P
OT16   0.00230  0.900  S
PT12   0.00250  0.500  P
PT12   0.00420  0.500  S
# 2018   5  25  15  22  45.27583   44.339965438  -103.741584141   0.89719  0  0  0  0.000067  1153
PB06   0.00060  0.700  P
PB06   0.00120  0.700  S
PB05   0.00080  0.700  P
PB05   0.00120  0.700  S
OT10   0.00240  0.600  P
OT10   0.00520  0.600  S
PB04   0.00060  0.700  P
PB04   0.00140  0.700  S
OT16   0.00120  0.900  P
OT16   0.00340  0.900  S
PT12   0.00360  0.500  P
PT12   0.00630  0.500  S
# 2018   5  24  22  41  37.65879   44.339988113  -103.741599336   0.88844  0  0  0  0.000143  1154
PB06   0.00200  0.700  P
PB06   0.00370  0.700  S
PB05   0.00210  0.700  P
PB05   0.00360  0.700  S
OT11   0.00040  0.600  P
OT11   0.00120  0.600  S
OT08   0.00070  0.600  P
OT08   0.00130  0.600  S
PB04   0.00200  0.700  P
PB04   0.00380  0.700  S
OT07   0.00090  0.600  P
OT07   0.00170  0.600  S
PB03   0.00210  0.700  P
PB03   0.00380  0.700  S
OT16   0.00110  0.900  P
OT16   0.00190  0.900  S
 PB4   0.00220  1.000  P
 PB4   0.00350  1.000  S
PB02   0.00220  0.700  P
PB02   0.00370  0.700  S
OT04   0.00180  0.600  P
OT04   0.00290  0.600  S
PDT1   0.00200  0.500  P
PDT1   0.00320  0.500  S
OT03   0.00200  0.600  P
OT03   0.00330  0.600  S
OT02   0.00240  0.600  P
OT02   0.00380  0.600  S
PT10   0.00260  0.500  P
PT10   0.00460  0.500  S
OT01   0.00260  0.600  P
OT01   0.00420  0.600  S
PSB7   0.00490  0.500  P
PSB7   0.00660  0.500  S
 PB6   0.00400  0.500  P
 PB6   0.00670  0.500  S
OB15   0.00500  0.500  P
OB15   0.00820  0.500  S
# 2018   5  22  21  58  28.68325   44.339658878  -103.742104236   0.85625  0  0  0  0.000012  1155
PB10   0.01170  0.700  P
PB07   0.01370  0.700  P
PB05   0.01670  0.700  P
PB04   0.01080  0.700  P
OT12   0.01180  0.600  P
PB03   0.01270  0.700  P
PB01   0.01170  0.700  P
# 2018   5  23  16  10   4.78688   44.339897759  -103.741569895   0.90094  0  0  0  0.000062  1156
PB06   0.00130  0.700  P
PB05   0.00160  0.700  P
PB08   0.00170  0.700  P
PB04   0.00160  0.700  P
 PB4   0.00200  1.000  P
 PB3   0.00250  0.500  P
PSB9   0.00670  0.500  P
OT16   0.00330  0.900  P
PDT1   0.00360  0.500  P
# 2018   5  24  22  47  41.31141   44.339992519  -103.741489477   0.89406  0  0  0  0.000084  1157
 PB4   0.00100  1.000  P
 PB4   0.00140  1.000  S
PB03   0.00100  0.700  P
PB03   0.00160  0.700  S
PB04   0.00120  0.700  P
PB04   0.00200  0.700  S
OT16   0.00160  0.900  P
OT16   0.00270  0.900  S
PT12   0.00340  0.500  P
PT12   0.00480  0.500  S
PSB9   0.00340  0.500  P
PSB9   0.00480  0.500  S
# 2018   5  23  19  28  19.63470   44.340230095  -103.741601988   0.86281  0  0  0  0.000049  1158
OT16   0.00600  0.900  P
PB04   0.00790  0.700  P
 PB4   0.00670  1.000  P
PB01   0.00780  0.700  P
OT05   0.00740  0.600  P
OT04   0.00760  0.600  P
PT10   0.00790  0.500  P
PT12   0.00790  0.500  P
PSB9   0.00840  0.500  P
# 2018   5  24  22  38  54.47678   44.340004989  -103.741598975   0.88406  0  0  0  0.000233  1159
PB05   0.00270  0.700  P
PB05   0.00500  0.700  S
PB04   0.00270  0.700  P
PB04   0.00500  0.700  S
OT16   0.00140  0.900  P
OT16   0.00220  0.900  S
PB03   0.00270  0.700  P
PB03   0.00560  0.700  S
OT07   0.00120  0.600  P
OT07   0.00180  0.600  S
 PB4   0.00180  1.000  P
 PB4   0.00280  1.000  S
PDT1   0.00210  0.500  P
PDT1   0.00350  0.500  S
OT04   0.00230  0.600  P
OT04   0.00320  0.600  S
# 2018   5  24  22  48  42.48743   44.339973396  -103.741540842   0.88938  0  0  0  0.000066  1160
 PB4   0.00160  1.000  P
 PB4   0.00280  1.000  S
PB02   0.00160  0.700  P
PB02   0.00290  0.700  S
PB03   0.00180  0.700  P
PB03   0.00320  0.700  S
OT16   0.00050  0.900  P
OT16   0.00120  0.900  S
PT12   0.00250  0.500  P
PT12   0.00440  0.500  S
PSB9   0.00300  0.500  P
PSB9   0.00500  0.500  S
# 2018   5  24  22  34   3.38656   44.339983006  -103.741646476   0.89594  0  0  0  0.000114  1161
PB06   0.00120  0.700  P
PB05   0.00120  0.700  P
OT10   0.00190  0.600  P
OT07   0.00160  0.600  P
PB04   0.00170  0.700  P
OT16   0.00190  0.900  P
 PB4   0.00180  1.000  P
PT10   0.00260  0.500  P
PSB7   0.00300  0.500  P
PSB9   0.00360  0.500  P
# 2018   5  25  15  20  50.25778   44.339971495  -103.741623201   0.89656  0  0  0  0.000071  1162
PB08   0.00100  0.700  P
PB08   0.00170  0.700  S
PB09   0.00110  0.700  P
PB09   0.00180  0.700  S
OT09   0.00150  0.600  P
OT09   0.00260  0.600  S
OT11   0.00150  0.600  P
OT11   0.00290  0.600  S
 PB4   0.00220  1.000  P
 PB4   0.00290  1.000  S
OT16   0.00200  0.900  P
OT16   0.00280  0.900  S
# 2018   5  22  22   1   2.43338   44.339764475  -103.741474748   0.87625  0  0  0  0.000015  1163
PB04   0.00460  0.700  P
PB05   0.01060  0.700  P
PB01   0.00560  0.700  P
PB10   0.00660  0.700  P
OT12   0.00560  0.600  P
# 2018   5  25  15  22  27.10250   44.339965092  -103.741552774   0.89219  0  0  0  0.000119  1164
OT07   0.00060  0.600  P
OT07   0.00120  0.600  S
OT06   0.00120  0.600  P
OT06   0.00160  0.600  S
 PB4   0.00140  1.000  P
 PB4   0.00220  1.000  S
PB02   0.00170  0.700  P
PB02   0.00230  0.700  S
PB01   0.00210  0.700  P
PB01   0.00260  0.700  S
PDT1   0.00270  0.500  P
PDT1   0.00350  0.500  S
# 2018   5  24  22  43  45.10728   44.339959466  -103.741552894   0.90094  0  0  0  0.000075  1165
PB04   0.00050  0.700  P
PB04   0.00100  0.700  S
PB06   0.00050  0.700  P
PB06   0.00080  0.700  S
PB07   0.00070  0.700  P
PB07   0.00130  0.700  S
 PB4   0.00110  1.000  P
 PB4   0.00180  1.000  S
PB02   0.00100  0.700  P
PB02   0.00120  0.700  S
OB13   0.00230  0.500  P
OB13   0.00350  0.500  S
# 2018   5  24  22  43  51.93159   44.340004557  -103.741559770   0.89656  0  0  0  0.000107  1166
PB05   0.00050  0.700  P
PB05   0.00130  0.700  S
PB03   0.00140  0.700  P
PB03   0.00220  0.700  S
OT16   0.00150  0.900  P
OT16   0.00230  0.900  S
 PB4   0.00080  1.000  P
 PB4   0.00150  1.000  S
PDT1   0.00290  0.500  P
PDT1   0.00350  0.500  S
PSB9   0.00350  0.500  P
PSB9   0.00550  0.500  S
# 2018   5  24  22  41  13.32376   44.340001610  -103.741548079   0.88750  0  0  0  0.000357  1167
PB04   0.00320  0.700  P
PB04   0.00370  0.700  S
PB03   0.00330  0.700  P
PB03   0.00360  0.700  S
OT09   0.00050  0.600  P
OT09   0.00100  0.600  S
 PB4   0.00270  1.000  P
 PB4   0.00350  1.000  S
PB02   0.00320  0.700  P
PB02   0.00350  0.700  S
OT08   0.00080  0.600  P
OT08   0.00140  0.600  S
OT16   0.00110  0.900  P
OT16   0.00170  0.900  S
PB01   0.00320  0.700  P
PB01   0.00370  0.700  S
PT12   0.00350  0.500  P
PT12   0.00500  0.500  S
PSB9   0.00520  0.500  P
PSB9   0.00580  0.500  S
# 2018   5  23  16   5  35.75438   44.340224124  -103.741570754   0.89406  0  0  0  0.000232  1168
OT16   0.00610  0.900  P
PB04   0.00470  0.700  P
PB01   0.00520  0.700  P
PB05   0.00470  0.700  P
PB08   0.00370  0.700  P
PB09   0.00430  0.700  P
OT08   0.00500  0.600  P
PDT1   0.00500  0.500  P
PB12   0.00640  0.700  P
 PB3   0.00580  0.500  P
OT05   0.00570  0.600  P
PT10   0.00550  0.500  P
PSB7   0.00740  0.500  P
OB15   0.00960  0.500  P
# 2018   5  24  22  48  45.24334   44.339959380  -103.741545056   0.89781  0  0  0  0.000089  1169
OT09   0.00160  0.600  P
OT09   0.00270  0.600  S
PB04   0.00060  0.700  P
PB04   0.00090  0.700  S
OT06   0.00180  0.600  P
OT06   0.00290  0.600  S
 PB4   0.00090  1.000  P
 PB4   0.00150  1.000  S
PB07   0.00100  0.700  P
PB07   0.00180  0.700  S
OB13   0.00250  0.500  P
OB13   0.00380  0.500  S
OT16   0.00230  0.900  P
OT16   0.00360  0.900  S
PSB9   0.00310  0.500  P
PSB9   0.00520  0.500  S
# 2018   5  24  22  48  37.44007   44.339995725  -103.741524684   0.89563  0  0  0  0.000080  1170
 PB4   0.00060  1.000  P
 PB4   0.00090  1.000  S
PB02   0.00050  0.700  P
PB02   0.00080  0.700  S
PB03   0.00050  0.700  P
PB03   0.00110  0.700  S
PB01   0.00090  0.700  P
PB01   0.00120  0.700  S
OT16   0.00140  0.900  P
OT16   0.00250  0.900  S
PT12   0.00260  0.500  P
PT12   0.00450  0.500  S
# 2018   5  25  15  19  23.11747   44.339993643  -103.741591365   0.89781  0  0  0  0.000119  1171
PB06   0.00060  0.700  P
PB06   0.00120  0.700  S
OT10   0.00140  0.600  P
OT10   0.00250  0.600  S
PB05   0.00070  0.700  P
PB05   0.00120  0.700  S
OT11   0.00150  0.600  P
OT11   0.00260  0.600  S
OT16   0.00200  0.900  P
OT16   0.00310  0.900  S
 PB4   0.00130  1.000  P
 PB4   0.00190  1.000  S
# 2018   5  23  16   5  34.50778   44.339985684  -103.741634664   0.89438  0  0  0  0.000110  1172
PB09   0.00140  0.700  P
PB10   0.00150  0.700  P
PB06   0.00130  0.700  P
OT08   0.00150  0.600  P
PB04   0.00150  0.700  P
PDT1   0.00220  0.500  P
OT16   0.00230  0.900  P
PB03   0.00180  0.700  P
OT05   0.00190  0.600  P
OT04   0.00200  0.600  P
PB01   0.00240  0.700  P
PT10   0.00260  0.500  P
PSB7   0.00320  0.500  P
OB15   0.00520  0.500  P
# 2018   5  24  22  34  10.73306   44.340310753  -103.741517944   0.89187  0  0  0  0.000107  1173
OT16   0.00750  0.900  P
 PB4   0.00620  1.000  P
PB05   0.00660  0.700  P
PB06   0.00660  0.700  P
PB08   0.00670  0.700  P
OT08   0.00670  0.600  P
PDT1   0.00800  0.500  P
OT07   0.00700  0.600  P
 PB3   0.00840  0.500  P
PT10   0.00870  0.500  P
# 2018   5  23  17   9  16.12182   44.339977121  -103.741623080   0.89594  0  0  0  0.000056  1174
PB09   0.00120  0.700  P
PB10   0.00140  0.700  P
PB06   0.00100  0.700  P
OT08   0.00210  0.600  P
PB04   0.00150  0.700  P
 PB3   0.00220  0.500  P
PB03   0.00160  0.700  P
OT16   0.00180  0.900  P
PDT1   0.00200  0.500  P
PB02   0.00160  0.700  P
PSB9   0.00610  0.500  P
# 2018   5  24  22  39  10.15690   44.339973915  -103.741587873   0.89312  0  0  0  0.000126  1175
PB06   0.00140  0.700  P
PB06   0.00230  0.700  S
PB07   0.00160  0.700  P
PB07   0.00230  0.700  S
OT09   0.00080  0.600  P
OT09   0.00130  0.600  S
PB05   0.00140  0.700  P
PB05   0.00210  0.700  S
OT08   0.00080  0.600  P
OT08   0.00150  0.600  S
PB04   0.00130  0.700  P
PB04   0.00230  0.700  S
 PB4   0.00150  1.000  P
 PB4   0.00250  1.000  S
PB03   0.00140  0.700  P
PB03   0.00230  0.700  S
OT16   0.00150  0.900  P
OT16   0.00200  0.900  S
PB01   0.00190  0.700  P
PB01   0.00280  0.700  S
PDT1   0.00220  0.500  P
PDT1   0.00340  0.500  S
PT10   0.00280  0.500  P
PT10   0.00460  0.500  S
OB15   0.00480  0.500  P
OB15   0.00780  0.500  S
# 2018   5  24  22  49   8.39564   44.340001610  -103.741548079   0.90250  0  0  0  0.000061  1176
PB04   0.00070  0.700  P
PB04   0.00110  0.700  S
PB05   0.00060  0.700  P
PB05   0.00100  0.700  S
PB03   0.00090  0.700  P
PB03   0.00130  0.700  S
 PB4   0.00110  1.000  P
 PB4   0.00170  1.000  S
OT16   0.00220  0.900  P
OT16   0.00390  0.900  S
PSB9   0.00330  0.500  P
PSB9   0.00550  0.500  S
# 2018   5  24  22  40  25.82944   44.339965351  -103.741576290   0.89844  0  0  0  0.000069  1177
PB06   0.00050  0.700  P
PB06   0.00090  0.700  S
PB04   0.00070  0.700  P
PB04   0.00110  0.700  S
 PB4   0.00100  1.000  P
 PB4   0.00170  1.000  S
PSB9   0.00350  0.500  P
PSB9   0.00550  0.500  S
# 2018   5  23  16   5  38.83315   44.339741973  -103.741475230   0.91375  0  0  0  0.000156  1178
OB15   0.01100  0.500  P
PT10   0.00630  0.500  P
OT08   0.00620  0.600  P
PB04   0.00620  0.700  P
 PB4   0.00540  1.000  P
PB06   0.00460  0.700  P
PB08   0.00510  0.700  P
PB11   0.00550  0.700  P
PB03   0.00690  0.700  P
OT16   0.00540  0.900  P
PDT1   0.00740  0.500  P
# 2018   5  24  22  43  42.54037   44.339987767  -103.741567970   0.89906  0  0  0  0.000106  1179
PB05   0.00030  0.700  P
PB05   0.00050  0.700  S
PB06   0.00040  0.700  P
PB06   0.00060  0.700  S
PB04   0.00020  0.700  P
PB04   0.00070  0.700  S
PB07   0.00050  0.700  P
PB07   0.00120  0.700  S
OB13   0.00250  0.500  P
OB13   0.00360  0.500  S
PB08   0.00090  0.700  P
PB08   0.00170  0.700  S
PB03   0.00080  0.700  P
PB03   0.00160  0.700  S
 PB4   0.00080  1.000  P
 PB4   0.00170  1.000  S
PB02   0.00100  0.700  P
PB02   0.00180  0.700  S
 PB3   0.00260  0.500  P
 PB3   0.00410  0.500  S
PT10   0.00310  0.500  P
PT10   0.00470  0.500  S
# 2018   5  22  21  57  29.80602   44.339710820  -103.741201484   0.90187  0  0  0  0.000009  1180
PB04   0.00700  0.700  P
PB03   0.00800  0.700  P
PB07   0.00890  0.700  P
OT12   0.00800  0.600  P
PB09   0.01000  0.700  P
OB13   0.00800  0.500  P
PB10   0.00800  0.700  P
# 2018   5  25  15  14  16.58389   44.339987853  -103.741575808   0.90469  0  0  0  0.000088  1181
PB03   0.00170  0.700  P
PB03   0.00240  0.700  S
PB09   0.00100  0.700  P
PB09   0.00250  0.700  S
PB02   0.00160  0.700  P
PB02   0.00270  0.700  S
OT16  -0.00020  0.900  P
OT16   0.00230  0.900  S
PDT1   0.00000  0.500  P
PDT1   0.00230  0.500  S
PSB7   0.00340  0.500  P
PSB7   0.00510  0.500  S
# 2018   5  22  22   3  50.18059   44.339899487  -103.741471860   0.91625  0  0  0  0.000066  1182
 PB4   0.00350  1.000  P
PB04   0.00440  0.700  P
PB05   0.00340  0.700  P
PB06   0.00340  0.700  P
PB08   0.00350  0.700  P
OT16   0.00540  0.900  P
PT10   0.00450  0.500  P
 PB3   0.00540  0.500  P
OB15   0.00940  0.500  P
PSB7   0.00440  0.500  P
# 2018   5  24  22  41  36.22223   44.340123470  -103.741627802   0.88469  0  0  0  0.001268  1183
OT16   0.00540  0.900  P
OT16   0.00580  0.900  S
PB04   0.00640  0.700  P
PB04   0.00700  0.700  S
OT09   0.00480  0.600  P
OT09   0.00550  0.600  S
 PB4   0.00590  1.000  P
 PB4   0.00670  1.000  S
PB02   0.00620  0.700  P
PB02   0.00680  0.700  S
OT08   0.00540  0.600  P
OT08   0.00580  0.600  S
OT07   0.00580  0.600  P
OT07   0.00620  0.600  S
PT12   0.00760  0.500  P
PT12   0.00940  0.500  S
# 2018   5  25  15  13  59.54028   44.339985339  -103.741603310   0.89563  0  0  0  0.000094  1184
PB05   0.00140  0.700  P
PB05   0.00170  0.700  S
OT09   0.00130  0.600  P
OT09   0.00180  0.600  S
OT11   0.00120  0.600  P
OT11   0.00210  0.600  S
PB04   0.00100  0.700  P
PB04   0.00190  0.700  S
OT16   0.00170  0.900  P
OT16   0.00280  0.900  S
 PB4   0.00140  1.000  P
 PB4   0.00260  1.000  S
# 2018   5  25  15  21  22.84183   44.339976602  -103.741576049   0.89156  0  0  0  0.000148  1185
OT08   0.00060  0.600  P
OT08   0.00090  0.600  S
OT07   0.00080  0.600  P
OT07   0.00120  0.600  S
 PB4   0.00170  1.000  P
 PB4   0.00280  1.000  S
PB03   0.00230  0.700  P
PB03   0.00270  0.700  S
PB02   0.00200  0.700  P
PB02   0.00270  0.700  S
OT16   0.00130  0.900  P
OT16   0.00210  0.900  S
# 2018   5  23  19  50  25.00733   44.339057554  -103.742171976   0.89938  0  0  0  0.000111  1186
OT06   0.01700  0.600  P
PDT1   0.01890  0.500  P
OT07   0.01680  0.600  P
PSB9   0.02170  0.500  P
 PB4   0.01870  1.000  P
PB02   0.02010  0.700  P
PB01   0.02010  0.700  P
OT16   0.01790  0.900  P
# 2018   5  23  19  43   8.63531   44.339996590  -103.741603069   0.88313  0  0  0  0.000053  1187
OT10   0.00120  0.600  P
OT11   0.00130  0.600  P
OT16   0.00170  0.900  P
PB03   0.00290  0.700  P
 PB4   0.00300  1.000  P
OT05   0.00190  0.600  P
PB01   0.00260  0.700  P
PDT1   0.00200  0.500  P
OT04   0.00210  0.600  P
PSB9   0.00390  0.500  P
# 2018   5  24  22  43  15.06176   44.339996590  -103.741603069   0.88687  0  0  0  0.000604  1188
PB05   0.00360  0.700  P
PB05   0.00400  0.700  S
PB04   0.00380  0.700  P
PB04   0.00420  0.700  S
OT16   0.00130  0.900  P
OT16   0.00210  0.900  S
PB03   0.00410  0.700  P
PB03   0.00440  0.700  S
 PB4   0.00340  1.000  P
 PB4   0.00400  1.000  S
PB02   0.00400  0.700  P
PB02   0.00430  0.700  S
PDT1   0.00300  0.500  P
PDT1   0.00330  0.500  S
PT10   0.00380  0.500  P
PT10   0.00460  0.500  S
# 2018   5  25  15  21  13.37769   44.339987853  -103.741575808   0.88906  0  0  0  0.000169  1189
OT11   0.00050  0.600  P
OT11   0.00100  0.600  S
OT08   0.00040  0.600  P
OT08   0.00090  0.600  S
PB03   0.00260  0.700  P
PB03   0.00340  0.700  S
 PB4   0.00210  1.000  P
 PB4   0.00320  1.000  S
PB02   0.00260  0.700  P
PB02   0.00340  0.700  S
OT16   0.00120  0.900  P
OT16   0.00190  0.900  S
# 2018   5  24  22  42   9.89537   44.339953841  -103.741553015   0.90094  0  0  0  0.000134  1190
PB05   0.00050  0.700  P
PB05   0.00100  0.700  S
PB04   0.00080  0.700  P
PB04   0.00140  0.700  S
PB06   0.00050  0.700  P
PB06   0.00110  0.700  S
PB07   0.00130  0.700  P
PB07   0.00230  0.700  S
 PB4   0.00120  1.000  P
 PB4   0.00180  1.000  S
PB02   0.00120  0.700  P
PB02   0.00190  0.700  S
PB03   0.00100  0.700  P
PB03   0.00150  0.700  S
OB13   0.00260  0.500  P
OB13   0.00370  0.500  S
PSB9   0.00350  0.500  P
PSB9   0.00570  0.500  S
# 2018   5  24  22  41   3.92037   44.339987508  -103.741544454   0.89281  0  0  0  0.000148  1191
 PB4   0.00110  1.000  P
 PB4   0.00190  1.000  S
OT08   0.00040  0.600  P
OT08   0.00080  0.600  S
PB02   0.00110  0.700  P
PB02   0.00190  0.700  S
PB03   0.00120  0.700  P
PB03   0.00170  0.700  S
OT07   0.00110  0.600  P
OT07   0.00190  0.600  S
OT16   0.00120  0.900  P
OT16   0.00200  0.900  S
PSB9   0.00310  0.500  P
PSB9   0.00500  0.500  S
# 2018   5  24  22  41  11.01541   44.339993383  -103.741567850   0.89781  0  0  0  0.000113  1192
PB06   0.00040  0.700  P
PB06   0.00100  0.700  S
PB04   0.00050  0.700  P
PB04   0.00090  0.700  S
PB07   0.00080  0.700  P
PB07   0.00120  0.700  S
OB13   0.00250  0.500  P
OB13   0.00410  0.500  S
PB03   0.00070  0.700  P
PB03   0.00130  0.700  S
PB08   0.00120  0.700  P
PB08   0.00210  0.700  S
 PB4   0.00080  1.000  P
 PB4   0.00130  1.000  S
PB02   0.00100  0.700  P
PB02   0.00190  0.700  S
OB15   0.00670  0.500  P
OB15   0.00810  0.500  S
# 2018   5  24  22  34  23.20697   44.339986548  -103.741713049   0.89312  0  0  0  0.000085  1193
PDT1   0.00290  0.500  P
 PB3   0.00360  0.500  P
PB08   0.00200  0.700  P
PT10   0.00230  0.500  P
PB05   0.00180  0.700  P
OT06   0.00240  0.600  P
PB04   0.00230  0.700  P
OT16   0.00240  0.900  P
OT05   0.00270  0.600  P
 PB4   0.00290  1.000  P
# 2018   5  24  22  43  12.62468   44.339987421  -103.741536616   0.88969  0  0  0  0.000156  1194
PB04   0.00190  0.700  P
PB04   0.00260  0.700  S
OT10   0.00040  0.600  P
OT10   0.00070  0.600  S
OT09   0.00040  0.600  P
OT09   0.00070  0.600  S
 PB4   0.00180  1.000  P
 PB4   0.00260  1.000  S
PB03   0.00230  0.700  P
PB03   0.00280  0.700  S
OT08   0.00060  0.600  P
OT08   0.00090  0.600  S
PB01   0.00230  0.700  P
PB01   0.00280  0.700  S
OT16   0.00130  0.900  P
OT16   0.00190  0.900  S
PT12   0.00310  0.500  P
PT12   0.00470  0.500  S
PSB9   0.00390  0.500  P
PSB9   0.00520  0.500  S
