# 2018   5  23  16   0  15.87989   44.339926309  -103.741608486   0.89781  0  0  0  0.000082  1049
OT04   0.00180  0.600  P
PB08   0.00140  0.700  P
OT08   0.00220  0.600  P
PB10   0.00140  0.700  P
PB11   0.00170  0.700  P
PB12   0.00190  0.700  P
PB04   0.00150  0.700  P
PT10   0.00250  0.500  P
 PB4   0.00170  1.000  P
PB02   0.00200  0.700  P
PB01   0.00220  0.700  P
PDT1   0.00190  0.500  P
OT16   0.00260  0.900  P
# 2018   5  24  22  34   0.44085   44.339026940  -103.740416410   0.95437  0  0  0  0.000117  1050
OT07   0.02640  0.600  P
 PB4   0.02690  1.000  P
OT08   0.02620  0.600  P
PB05   0.02590  0.700  P
PT10   0.02670  0.500  P
PB06   0.02580  0.700  P
OT16   0.02710  0.900  P
 PB3   0.02650  0.500  P
# 2018   5  24  22  34   9.36413   44.340585271  -103.741919776   0.87187  0  0  0  0.000066  1051
PDT1   0.01430  0.500  P
 PB3   0.01360  0.500  P
PB06   0.01340  0.700  P
PB05   0.01340  0.700  P
 PB4   0.01310  1.000  P
OT05   0.01390  0.600  P
PT10   0.01390  0.500  P
OT04   0.01440  0.600  P
# 2018   5  24  22  40   0.28111   44.339982660  -103.741615134   0.89844  0  0  0  0.000147  1052
PB08   0.00020  0.700  P
PB08   0.00080  0.700  S
PB07   0.00060  0.700  P
PB07   0.00100  0.700  S
PB06   0.00060  0.700  P
PB06   0.00120  0.700  S
PB05   0.00090  0.700  P
PB05   0.00130  0.700  S
OB13   0.00280  0.500  P
OB13   0.00400  0.500  S
OT16   0.00290  0.900  P
OT16   0.00350  0.900  S
 PB4   0.00160  1.000  P
 PB4   0.00220  1.000  S
# 2018   5  24  22  33  33.37336   44.340294818  -103.742114158   0.92812  0  0  0  0.000029  1053
OB13   0.01320  0.500  P
OT16   0.01250  0.900  P
OT11   0.01100  0.600  P
PB06   0.01060  0.700  P
OT10   0.01160  0.600  P
PT10   0.01200  0.500  P
PB05   0.01080  0.700  P
 PB4   0.01140  1.000  P
# 2018   5  24  22  34   9.78624   44.340057520  -103.741770328   0.88844  0  0  0  0.000046  1054
PDT1   0.00370  0.500  P
PB07   0.00360  0.700  P
OT16   0.00300  0.900  P
PB05   0.00330  0.700  P
OT08   0.00340  0.600  P
PT10   0.00350  0.500  P
OT07   0.00360  0.600  P
 PB4   0.00430  1.000  P
# 2018   5  22  22   2  42.62469   44.339926050  -103.741584983   0.88844  0  0  0  0.000026  1055
PB06   0.00240  0.700  P
PB08   0.00130  0.700  P
PB05   0.00230  0.700  P
PB04   0.00230  0.700  P
 PB4   0.00230  1.000  P
PT10   0.00330  0.500  P
 PB3   0.00430  0.500  P
OT16   0.00230  0.900  P
PSB7   0.00330  0.500  P
# 2018   5  22  22   2   9.71520   44.339040954  -103.741176617   0.86875  0  0  0  0.000032  1056
PB04   0.01980  0.700  P
PB10   0.01980  0.700  P
PB03   0.01980  0.700  P
OT12   0.01980  0.600  P
# 2018   5  25  15  16  27.13074   44.339976775  -103.741591726   0.89594  0  0  0  0.000085  1057
PB06   0.00080  0.700  P
PB06   0.00140  0.700  S
PB05   0.00080  0.700  P
PB05   0.00150  0.700  S
OT09   0.00130  0.600  P
OT09   0.00220  0.600  S
OT08   0.00130  0.600  P
OT08   0.00210  0.600  S
OB13   0.00260  0.500  P
OB13   0.00420  0.500  S
 PB4   0.00130  1.000  P
 PB4   0.00220  1.000  S
OT16   0.00190  0.900  P
OT16   0.00290  0.900  S
# 2018   5  24  22  34  27.77668   44.339993470  -103.741575688   0.89469  0  0  0  0.000063  1058
PB06   0.00090  0.700  P
PB05   0.00100  0.700  P
OT08   0.00100  0.600  P
OT07   0.00140  0.600  P
 PB4   0.00120  1.000  P
OT16   0.00190  0.900  P
 PB3   0.00270  0.500  P
PDT1   0.00250  0.500  P
PT10   0.00310  0.500  P
# 2018   5  24  22  50  14.86985   44.339976170  -103.741536856   0.89531  0  0  0  0.000089  1059
 PB4   0.00070  1.000  P
 PB4   0.00130  1.000  S
PB02   0.00080  0.700  P
PB02   0.00110  0.700  S
PB03   0.00090  0.700  P
PB03   0.00160  0.700  S
OT05   0.00190  0.600  P
OT05   0.00300  0.600  S
OT16   0.00170  0.900  P
OT16   0.00270  0.900  S
PT12   0.00300  0.500  P
PT12   0.00470  0.500  S
# 2018   5  25  15  21  47.39376   44.339954533  -103.741615736   0.89531  0  0  0  0.000092  1060
PB07   0.00120  0.700  P
PB07   0.00210  0.700  S
PB06   0.00120  0.700  P
PB06   0.00210  0.700  S
PB05   0.00130  0.700  P
PB05   0.00220  0.700  S
PB04   0.00150  0.700  P
PB04   0.00240  0.700  S
 PB4   0.00160  1.000  P
 PB4   0.00270  1.000  S
OT16   0.00210  0.900  P
OT16   0.00320  0.900  S
PSB9   0.00400  0.500  P
PSB9   0.00660  0.500  S
# 2018   5  24  22  40  33.36789   44.339936792  -103.741537699   0.89906  0  0  0  0.000159  1061
OT07   0.00220  0.600  P
OT07   0.00310  0.600  S
PB04   0.00120  0.700  P
PB04   0.00180  0.700  S
PB05   0.00070  0.700  P
PB05   0.00180  0.700  S
PB06   0.00100  0.700  P
PB06   0.00180  0.700  S
 PB4   0.00110  1.000  P
 PB4   0.00190  1.000  S
OB13   0.00300  0.500  P
OB13   0.00460  0.500  S
OT16   0.00260  0.900  P
OT16   0.00370  0.900  S
# 2018   5  23  19  47  49.87195   44.340849591  -103.741396648   0.85062  0  0  0  0.000113  1062
OT16   0.01700  0.900  P
PB03   0.01990  0.700  P
OT11   0.01670  0.600  P
OT10   0.01670  0.600  P
PB02   0.01990  0.700  P
 PB4   0.01840  1.000  P
PDT1   0.01820  0.500  P
PT12   0.01900  0.500  P
PT10   0.01990  0.500  P
# 2018   5  24  22  40  55.52007   44.339976689  -103.741583900   0.89281  0  0  0  0.000214  1063
OT09   0.00070  0.600  P
OT09   0.00120  0.600  S
OT08   0.00090  0.600  P
OT08   0.00140  0.600  S
PB04   0.00100  0.700  P
PB04   0.00230  0.700  S
OT07   0.00080  0.600  P
OT07   0.00160  0.600  S
 PB4   0.00140  1.000  P
 PB4   0.00220  1.000  S
PB02   0.00200  0.700  P
PB02   0.00260  0.700  S
OT16   0.00170  0.900  P
OT16   0.00230  0.900  S
PB01   0.00270  0.700  P
PB01   0.00310  0.700  S
PDT1   0.00290  0.500  P
PDT1   0.00400  0.500  S
PSB9   0.00430  0.500  P
PSB9   0.00530  0.500  S
OB15   0.00560  0.500  P
OB15   0.00770  0.500  S
# 2018   5  24  22  33  31.63419   44.341247697  -103.741780158   0.86813  0  0  0  0.000031  1064
OT16   0.02530  0.900  P
 PB4   0.02480  1.000  P
PB05   0.02500  0.700  P
PB06   0.02440  0.700  P
 PB3   0.02530  0.500  P
OT05   0.02580  0.600  P
OT04   0.02610  0.600  P
PSB7   0.02770  0.500  P
# 2018   5  24  22  46  23.58110   44.339862787  -103.741715697   0.89938  0  0  0  0.000229  1065
PT10   0.00220  0.500  P
PT10   0.00280  0.500  S
PB10   0.00230  0.700  P
PB10   0.00410  0.700  S
PB09   0.00240  0.700  P
PB09   0.00440  0.700  S
OT07   0.00320  0.600  P
OT07   0.00590  0.600  S
OT08   0.00340  0.600  P
OT08   0.00380  0.600  S
OB15   0.00340  0.500  P
OB15   0.00400  0.500  S
OB13   0.00400  0.500  P
OB13   0.00440  0.500  S
OT16   0.00500  0.900  P
OT16   0.00780  0.900  S
PT12   0.00510  0.500  P
PT12   0.00580  0.500  S
# 2018   5  24  22  40  29.70270   44.339971063  -103.741584020   0.89781  0  0  0  0.000209  1066
PB06   0.00050  0.700  P
PB06   0.00100  0.700  S
PB05   0.00020  0.700  P
PB05   0.00060  0.700  S
PB08   0.00080  0.700  P
PB08   0.00160  0.700  S
PB04   0.00010  0.700  P
PB04   0.00080  0.700  S
OB13   0.00250  0.500  P
OB13   0.00390  0.500  S
PB10   0.00140  0.700  P
PB10   0.00250  0.700  S
 PB4   0.00110  1.000  P
 PB4   0.00200  1.000  S
OT16   0.00190  0.900  P
OT16   0.00270  0.900  S
PDT1   0.00270  0.500  P
PDT1   0.00430  0.500  S
# 2018   5  25  15  21  15.07467   44.339987940  -103.741583659   0.89281  0  0  0  0.000087  1067
PB05   0.00130  0.700  P
PB05   0.00200  0.700  S
OT11   0.00070  0.600  P
OT11   0.00130  0.600  S
OT08   0.00080  0.600  P
OT08   0.00140  0.600  S
PB04   0.00170  0.700  P
PB04   0.00230  0.700  S
 PB4   0.00150  1.000  P
 PB4   0.00250  1.000  S
OT16   0.00120  0.900  P
OT16   0.00200  0.900  S
PDT1   0.00220  0.500  P
PDT1   0.00340  0.500  S
# 2018   5  24  22  43  17.42600   44.339998922  -103.741559891   0.90156  0  0  0  0.000047  1068
PB05   0.00030  0.700  P
PB05   0.00070  0.700  S
PB04   0.00050  0.700  P
PB04   0.00100  0.700  S
PB06   0.00050  0.700  P
PB06   0.00090  0.700  S
PB03   0.00080  0.700  P
PB03   0.00140  0.700  S
PB07   0.00070  0.700  P
PB07   0.00120  0.700  S
 PB4   0.00100  1.000  P
 PB4   0.00180  1.000  S
# 2018   5  24  22  49  10.15254   44.339993297  -103.741560011   0.88594  0  0  0  0.000116  1069
PB03   0.00360  0.700  P
PB03   0.00410  0.700  S
OT07   0.00100  0.600  P
OT07   0.00180  0.600  S
OT16   0.00120  0.900  P
OT16   0.00180  0.900  S
OT06   0.00210  0.600  P
OT06   0.00220  0.600  S
PT12   0.00310  0.500  P
PT12   0.00510  0.500  S
PSB9   0.00490  0.500  P
PSB9   0.00590  0.500  S
# 2018   5  24  22  41  51.59276   44.339999355  -103.741599096   0.88719  0  0  0  0.000093  1070
OT08   0.00100  0.600  P
OT08   0.00180  0.600  S
OT16   0.00120  0.900  P
OT16   0.00210  0.900  S
 PB4   0.00280  1.000  P
 PB4   0.00410  1.000  S
PDT1   0.00200  0.500  P
PDT1   0.00330  0.500  S
PT12   0.00310  0.500  P
PT12   0.00470  0.500  S
PSB9   0.00380  0.500  P
PSB9   0.00570  0.500  S
# 2018   5  24  22  40  58.31273   44.339989409  -103.741716902   0.86719  0  0  0  0.000186  1071
PDT1   0.00560  0.500  P
PDT1   0.00630  0.500  S
PT10   0.00620  0.500  P
PT10   0.00700  0.500  S
OT16   0.00470  0.900  P
OT16   0.00550  0.900  S
 PB4   0.00600  1.000  P
 PB4   0.00670  1.000  S
PB02   0.00610  0.700  P
PB02   0.00730  0.700  S
# 2018   5  22  21  59   6.83228   44.339833364  -103.741598721   0.88875  0  0  0  0.000073  1072
PB10   0.00370  0.700  P
PB07   0.00570  0.700  P
PB05   0.00870  0.700  P
PB04   0.00170  0.700  P
PB01   0.00370  0.700  P
PB03   0.00370  0.700  P
OT12   0.00370  0.600  P
# 2018   5  22  22   2  12.68037   44.340428966  -103.742032885   0.85062  0  0  0  0.000037  1073
 PB3   0.01570  0.500  P
OB13   0.01570  0.500  P
PB10   0.01360  0.700  P
PB08   0.01360  0.700  P
PB06   0.01260  0.700  P
PB05   0.01370  0.700  P
 PB4   0.01460  1.000  P
PT10   0.01560  0.500  P
PSB7   0.01460  0.500  P
# 2018   5  25  15  19   9.96258   44.339982573  -103.741607283   0.89906  0  0  0  0.000085  1074
PB07   0.00030  0.700  P
PB07   0.00080  0.700  S
PB06   0.00040  0.700  P
PB06   0.00100  0.700  S
PB05   0.00080  0.700  P
PB05   0.00110  0.700  S
OB13   0.00240  0.500  P
OB13   0.00370  0.500  S
OT06   0.00210  0.600  P
OT06   0.00260  0.600  S
OT16   0.00210  0.900  P
OT16   0.00320  0.900  S
# 2018   5  23  19  40  47.00784   44.340041766  -103.741617783   0.87813  0  0  0  0.000199  1075
OT16   0.00230  0.900  P
PB05   0.00450  0.700  P
OT09   0.00180  0.600  P
OT08   0.00170  0.600  P
 PB4   0.00390  1.000  P
PB02   0.00430  0.700  P
PDT1   0.00260  0.500  P
PT10   0.00360  0.500  P
# 2018   5  24  22  40  57.79893   44.339998922  -103.741559891   0.89719  0  0  0  0.000071  1076
PB04   0.00050  0.700  P
PB04   0.00090  0.700  S
PB03   0.00070  0.700  P
PB03   0.00120  0.700  S
PB07   0.00100  0.700  P
PB07   0.00180  0.700  S
 PB4   0.00090  1.000  P
 PB4   0.00150  1.000  S
PB02   0.00080  0.700  P
PB02   0.00150  0.700  S
PSB9   0.00330  0.500  P
PSB9   0.00510  0.500  S
# 2018   5  22  22   2  50.52203   44.339838211  -103.741528053   0.89438  0  0  0  0.000024  1077
PT10   0.00290  0.500  P
PB05   0.00290  0.700  P
PB06   0.00300  0.700  P
PB08   0.00200  0.700  P
 PB3   0.00400  0.500  P
OT16   0.00400  0.900  P
# 2018   5  24  22  38  45.43421   44.340020396  -103.741465346   0.90031  0  0  0  0.000165  1078
PB01   0.00070  0.700  P
PB01   0.00190  0.700  S
PB03   0.00090  0.700  P
PB03   0.00140  0.700  S
PB02   0.00100  0.700  P
PB02   0.00160  0.700  S
 PB4   0.00150  1.000  P
 PB4   0.00200  1.000  S
PB04   0.00130  0.700  P
PB04   0.00160  0.700  S
OT16   0.00220  0.900  P
OT16   0.00350  0.900  S
PB05   0.00110  0.700  P
PB05   0.00160  0.700  S
PT12   0.00360  0.500  P
PT12   0.00390  0.500  S
PSB9   0.00560  0.500  P
PSB9   0.00600  0.500  S
# 2018   5  23  19  28  16.99876   44.339988458  -103.741630691   0.88094  0  0  0  0.000114  1079
PB07   0.00360  0.700  P
PB06   0.00350  0.700  P
PB05   0.00290  0.700  P
PDT1   0.00190  0.500  P
OT16   0.00050  0.900  P
OT05   0.00180  0.600  P
 PB4   0.00250  1.000  P
OT04   0.00220  0.600  P
OT03   0.00260  0.600  P
PT12   0.00360  0.500  P
PSB9   0.00440  0.500  P
# 2018   5  24  22  33  36.44035   44.339841331  -103.741555422   0.90281  0  0  0  0.000123  1080
OT04   0.00290  0.600  P
OT05   0.00280  0.600  P
PT10   0.00360  0.500  P
PB06   0.00200  0.700  P
PB05   0.00270  0.700  P
 PB4   0.00310  1.000  P
 PB3   0.00320  0.500  P
OB13   0.00370  0.500  P
PDT1   0.00360  0.500  P
OT16   0.00300  0.900  P
# 2018   5  23  16   5  36.13403   44.339993210  -103.741552172   0.88281  0  0  0  0.000162  1081
PB05   0.00150  0.700  P
OT09   0.00400  0.600  P
PB03   0.00400  0.700  P
OB13   0.00630  0.500  P
PB01   0.00270  0.700  P
PB09   0.00370  0.700  P
PB12   0.00430  0.700  P
 PB3   0.00460  0.500  P
PDT1   0.00270  0.500  P
PT10   0.00310  0.500  P
# 2018   5  24  22  42  37.26721   44.339998836  -103.741552052   0.88719  0  0  0  0.000127  1082
OT10   0.00040  0.600  P
OT10   0.00080  0.600  S
PB04   0.00310  0.700  P
PB04   0.00390  0.700  S
OT09   0.00050  0.600  P
OT09   0.00090  0.600  S
PB03   0.00220  0.700  P
PB03   0.00350  0.700  S
 PB4   0.00240  1.000  P
 PB4   0.00360  1.000  S
OT08   0.00080  0.600  P
OT08   0.00140  0.600  S
PB02   0.00250  0.700  P
PB02   0.00350  0.700  S
OT16   0.00110  0.900  P
OT16   0.00180  0.900  S
PB01   0.00270  0.700  P
PB01   0.00350  0.700  S
OT05   0.00170  0.600  P
OT05   0.00260  0.600  S
PDT1   0.00240  0.500  P
PDT1   0.00370  0.500  S
PT12   0.00330  0.500  P
PT12   0.00500  0.500  S
PT10   0.00320  0.500  P
PT10   0.00500  0.500  S
PSB9   0.00340  0.500  P
PSB9   0.00560  0.500  S
# 2018   5  24  22  43  44.55380   44.339940335  -103.741604273   0.89687  0  0  0  0.000065  1083
PB08   0.00120  0.700  P
PB08   0.00200  0.700  S
PB07   0.00110  0.700  P
PB07   0.00190  0.700  S
PB06   0.00110  0.700  P
PB06   0.00200  0.700  S
PB10   0.00160  0.700  P
PB10   0.00270  0.700  S
PB05   0.00120  0.700  P
PB05   0.00190  0.700  S
PB04   0.00120  0.700  P
PB04   0.00220  0.700  S
 PB4   0.00160  1.000  P
 PB4   0.00290  1.000  S
PT10   0.00260  0.500  P
PT10   0.00440  0.500  S
OT16   0.00240  0.900  P
OT16   0.00310  0.900  S
OB15   0.00480  0.500  P
OB15   0.00750  0.500  S
# 2018   5  22  21  57  16.34466   44.339932376  -103.741647559   0.88469  0  0  0  0.000011  1084
PB10   0.00330  0.700  P
PB09   0.00530  0.700  P
PB07   0.00440  0.700  P
PB05   0.00740  0.700  P
PB04   0.00240  0.700  P
OT12   0.00240  0.600  P
PB03   0.00330  0.700  P
PB01   0.00330  0.700  P
# 2018   5  24  22  39  36.30196   44.339985166  -103.741587633   0.89812  0  0  0  0.000077  1085
PB06   0.00050  0.700  P
PB06   0.00090  0.700  S
PB07   0.00050  0.700  P
PB07   0.00100  0.700  S
PB05   0.00040  0.700  P
PB05   0.00100  0.700  S
PB08   0.00090  0.700  P
PB08   0.00160  0.700  S
PB04   0.00070  0.700  P
PB04   0.00120  0.700  S
OB13   0.00230  0.500  P
OB13   0.00380  0.500  S
PB03   0.00110  0.700  P
PB03   0.00160  0.700  S
 PB4   0.00110  1.000  P
 PB4   0.00200  1.000  S
OT16   0.00190  0.900  P
OT16   0.00310  0.900  S
# 2018   5  24  22  39   4.35094   44.339999095  -103.741575568   0.89781  0  0  0  0.000102  1086
PB06   0.00060  0.700  P
PB06   0.00120  0.700  S
PB05   0.00060  0.700  P
PB05   0.00100  0.700  S
OB13   0.00260  0.500  P
OB13   0.00380  0.500  S
PB07   0.00070  0.700  P
PB07   0.00110  0.700  S
PB04   0.00060  0.700  P
PB04   0.00110  0.700  S
 PB4   0.00110  1.000  P
 PB4   0.00150  1.000  S
# 2018   5  24  22  33  52.94021   44.339949512  -103.741670713   0.90094  0  0  0  0.000065  1087
PDT1   0.00250  0.500  P
PB06   0.00200  0.700  P
PT10   0.00280  0.500  P
OT07   0.00270  0.600  P
OT05   0.00270  0.600  P
PB05   0.00160  0.700  P
PB04   0.00190  0.700  P
OB13   0.00360  0.500  P
 PB4   0.00220  1.000  P
# 2018   5  24  22  50  14.42305   44.339975738  -103.741497663   0.89531  0  0  0  0.000090  1088
PB02   0.00050  0.700  P
PB02   0.00100  0.700  S
 PB4   0.00070  1.000  P
 PB4   0.00100  1.000  S
PB01   0.00050  0.700  P
PB01   0.00100  0.700  S
OT09   0.00070  0.600  P
OT09   0.00140  0.600  S
OT16   0.00170  0.900  P
OT16   0.00280  0.900  S
PT12   0.00270  0.500  P
PT12   0.00480  0.500  S
PSB9   0.00310  0.500  P
PSB9   0.00450  0.500  S
# 2018   5  23  19  48  49.79407   44.340201190  -103.741532042   0.85031  0  0  0  0.000228  1089
OT16   0.00650  0.900  P
PB03   0.00910  0.700  P
OT11   0.00610  0.600  P
OT10   0.00660  0.600  P
PB02   0.00910  0.700  P
 PB4   0.00910  1.000  P
PDT1   0.00810  0.500  P
PT12   0.00840  0.500  P
PSB9   0.00920  0.500  P
PT10   0.00990  0.500  P
# 2018   5  25  15  22  47.57986   44.339976257  -103.741544695   0.89656  0  0  0  0.000098  1090
PB05   0.00080  0.700  P
PB05   0.00120  0.700  S
OT08   0.00130  0.600  P
OT08   0.00220  0.600  S
 PB4   0.00010  1.000  P
 PB4   0.00110  1.000  S
PB03   0.00090  0.700  P
PB03   0.00140  0.700  S
OT16   0.00160  0.900  P
OT16   0.00320  0.900  S
PSB9   0.00340  0.500  P
PSB9   0.00570  0.500  S
# 2018   5  24  22  43  52.58095   44.339943195  -103.741608125   0.89656  0  0  0  0.000102  1091
PB09   0.00140  0.700  P
PB09   0.00230  0.700  S
PB06   0.00120  0.700  P
PB06   0.00190  0.700  S
PB05   0.00150  0.700  P
PB05   0.00200  0.700  S
PB04   0.00150  0.700  P
PB04   0.00220  0.700  S
 PB4   0.00170  1.000  P
 PB4   0.00290  1.000  S
PT10   0.00260  0.500  P
PT10   0.00430  0.500  S
OB15   0.00680  0.500  P
OB15   0.00760  0.500  S
# 2018   5  25  15  20  49.03152   44.339971150  -103.741591846   0.89156  0  0  0  0.000168  1092
OT08   0.00050  0.600  P
OT08   0.00110  0.600  S
OT11   0.00110  0.600  P
OT11   0.00150  0.600  S
 PB4   0.00200  1.000  P
 PB4   0.00290  1.000  S
PB03   0.00280  0.700  P
PB03   0.00310  0.700  S
PB02   0.00250  0.700  P
PB02   0.00310  0.700  S
PDT1   0.00240  0.500  P
PDT1   0.00380  0.500  S
# 2018   5  25  15  22  42.35148   44.339971063  -103.741584020   0.89719  0  0  0  0.000105  1093
OT08   0.00140  0.600  P
OT08   0.00220  0.600  S
PB05   0.00060  0.700  P
PB05   0.00110  0.700  S
OT07   0.00150  0.600  P
OT07   0.00240  0.600  S
PB04   0.00070  0.700  P
PB04   0.00120  0.700  S
OB13   0.00260  0.500  P
OB13   0.00400  0.500  S
 PB4   0.00110  1.000  P
 PB4   0.00210  1.000  S
OT16   0.00180  0.900  P
OT16   0.00320  0.900  S
# 2018   5  24  22  49   8.86701   44.340004643  -103.741567609   0.89844  0  0  0  0.000078  1094
OB13   0.00210  0.500  P
OB13   0.00370  0.500  S
PB05   0.00050  0.700  P
PB05   0.00090  0.700  S
PB04   0.00050  0.700  P
PB04   0.00100  0.700  S
PB03   0.00080  0.700  P
PB03   0.00100  0.700  S
OT16   0.00050  0.900  P
OT16   0.00110  0.900  S
 PB4   0.00110  1.000  P
 PB4   0.00170  1.000  S
# 2018   5  24  22  43  12.00677   44.339992951  -103.741528657   0.89094  0  0  0  0.000070  1095
 PB4   0.00130  1.000  P
 PB4   0.00190  1.000  S
PB01   0.00190  0.700  P
PB01   0.00230  0.700  S
OT08   0.00090  0.600  P
OT08   0.00130  0.600  S
OT16   0.00110  0.900  P
OT16   0.00190  0.900  S
PT12   0.00270  0.500  P
PT12   0.00310  0.500  S
# 2018   5  25  15  19  13.12709   44.339971063  -103.741584020   0.89844  0  0  0  0.000178  1096
PB06   0.00010  0.700  P
PB06   0.00080  0.700  S
OT09   0.00180  0.600  P
OT09   0.00270  0.600  S
PB05   0.00050  0.700  P
PB05   0.00150  0.700  S
PB08   0.00080  0.700  P
PB08   0.00150  0.700  S
OT10   0.00210  0.600  P
OT10   0.00290  0.600  S
OT16   0.00280  0.900  P
OT16   0.00360  0.900  S
# 2018   5  25  15  18  16.83252   44.339993643  -103.741591365   0.90031  0  0  0  0.000132  1097
PB07   0.00000  0.700  P
PB07   0.00070  0.700  S
OT10   0.00180  0.600  P
OT10   0.00340  0.600  S
PB08  -0.00010  0.700  P
PB08   0.00060  0.700  S
OT11   0.00210  0.600  P
OT11   0.00340  0.600  S
 PB4   0.00120  1.000  P
 PB4   0.00200  1.000  S
 PB3   0.00200  0.500  P
 PB3   0.00360  0.500  S
# 2018   5  23  19  59  46.05461   44.340004816  -103.741583298   0.88656  0  0  0  0.000055  1098
OT10   0.00080  0.600  P
OT09   0.00070  0.600  P
OT16   0.00110  0.900  P
OT08   0.00100  0.600  P
 PB4   0.00220  1.000  P
PT12   0.00320  0.500  P
PSB9   0.00370  0.500  P
OB15   0.00560  0.500  P
