#  2018  8  23  3  44  6  -6.3765  103.5603  124.18  0  0  0  0.45  1001
MNAI  35  0.900  P                      
MNAI  62  0.900  S                      
PMBI  55  0.900  P                      
PMBI  97  0.900  S                      
BBJI  63  0.900  P                      
BBJI  107  0.700  S                      
SMRI  98  0.800  P                      
SMRI  202  0.700  S                      
UGM  104  0.700  P                      
UGM  179  0.700  S                      
#  2016  6  6  9  21  25  -6.0565  103.1473  214.14  0  0  0  0.73  1002
MNAI  37  0.900  P                      
MNAI  65  0.900  S                      
PMBI  66  0.900  P                      
PMBI  101  0.900  S                      
SMRI  105  0.800  P                      
SMRI  192  0.700  S                      
UGM  106  0.700  P                      
UGM  186  0.700  S                      
#  2020  5  3  7  6  47  -6.2128  104.5201  152.90  0  0  0  0.26  1003
MNAI  40  0.900  P                      
MNAI  71  0.900  S                      
PMBI  52  0.900  P                      
PMBI  110  0.900  S                      
BBJI  47  0.900  P                      
BBJI  84  0.700  S                      
SMRI  85  0.800  P                      
SMRI  164  0.700  S                      
UGM  90  0.700  P                      
UGM  144  0.700  S                      
#  2018  5  9  21  26  1  -6.4955  104.8549  35.34  0  0  0  0.74  1004
MNAI  43  0.900  P                      
MNAI  74  0.900  S                      
BBJI  44  0.900  P                      
BBJI  78  0.700  S                      
PMBI  53  0.900  P                      
PMBI  99  0.900  S                      
SMRI  82  0.800  P                      
SMRI  154  0.700  S                      
UGM  84  0.700  P                      
UGM  145  0.700  S                      
#  2019  7  28  14  25  3  -7.3289  106.1496  36.83  0  0  0  1.00  1005
BBJI  24  0.900  P                      
BBJI  42  0.700  S                      
SMRI  67  0.800  P                      
SMRI  116  0.700  S                      
MNAI  63  0.900  P                      
MNAI  108  0.900  S                      
UGM  64  0.700  P                      
UGM  113  0.700  S                      
PMBI  68  0.900  P                      
PMBI  130  0.900  S                      
#  2016  9  11  15  35  9  -5.9970  105.1563  297.47  0  0  0  0.51  1006
MNAI  53  0.900  P                      
MNAI  92  0.900  S                      
PMBI  57  0.900  P                      
PMBI  102  0.900  S                      
SMRI  98  0.800  P                      
SMRI  169  0.700  S                      
UGM  85  0.700  P                      
UGM  164  0.700  S                      
#  2015  8  5  15  41  51  -6.7113  105.1563  35.27  0  0  0  0.64  1007
CISI  41  0.300  P                      
CISI  74  0.300  S                      
PMBI  57  0.900  P                      
PMBI  100  0.900  S                      
SMRI  100  0.800  P                      
SMRI  238  0.700  S                      
UGM  79  0.700  P                      
UGM  192  0.700  S                      
#  2019  9  22  22  32  31  -6.6518  102.9688  35.27  0  0  0  0.48  1008
MNAI  35  0.900  P                      
MNAI  70  0.900  S                      
PMBI  61  0.900  P                      
PMBI  90  0.900  S                      
BBJI  69  0.900  P                      
BBJI  121  0.700  S                      
SMRI  68  0.800  P                      
SMRI  109  0.700  S                      
UGM  108  0.700  P                      
UGM  194  0.700  S                      
#  2015  4  11  12  44  41  -6.5774  104.5089  35.42  0  0  0  1.10  1009
CISI  51  0.300  P                      
CISI  89  0.300  S                      
PMBI  54  0.900  P                      
PMBI  98  0.900  S                      
SMRI  89  0.800  P                      
SMRI  184  0.700  S                      
UGM  89  0.700  P                      
UGM  157  0.700  S                      
#  2019  8  11  4  39  12  -6.4807  103.6272  70.91  0  0  0  0.40  1010
MNAI  35  0.900  P                      
MNAI  61  0.900  S                      
PMBI  55  0.900  P                      
PMBI  87  0.900  S                      
BBJI  60  0.900  P                      
BBJI  108  0.700  S                      
SMRI  101  0.800  P                      
SMRI  181  0.700  S                      
UGM  100  0.700  P                      
UGM  177  0.700  S                      
#  2016  8  7  14  4  1  -7.1429  110.7143  90.48  0  0  0  0.07  1011
SMRI  13  0.800  P                      
SMRI  76  0.700  S                      
UGM  18  0.700  P                      
UGM  63  0.700  S                      
PMBI  -32  0.900  P                      
PMBI  -11  0.900  S                      
MNAI  66414  0.900  P                      
MNAI  66444  0.900  S                      
#  2018  10  29  21  11  23  -5.9673  106.4509  199.26  0  0  0  0.13  1012
BBJI  37  0.900  P                      
BBJI  67  0.700  S                      
PMBI  56  0.900  P                      
PMBI  96  0.900  S                      
SMRI  63  0.800  P                      
SMRI  143  0.700  S                      
UGM  78  0.700  P                      
UGM  139  0.700  S                      
#  2016  3  6  11  51  13  -2.8943  104.7210  69.87  0  0  0  0.00  1013
PMBI  10  0.900  P                      
PMBI  18  0.900  S                      
MNAI  19  0.900  P                      
MNAI  63  0.900  S                      
SMRI  77  0.800  P                      
SMRI  137  0.700  S                      
UGM  26  0.700  P                      
UGM  78  0.700  S                      
#  2019  1  12  12  4  25  -6.7708  104.3080  6.99  0  0  0  0.90  1014
MNAI  45  0.900  P                      
MNAI  78  0.900  S                      
BBJI  53  0.900  P                      
BBJI  85  0.700  S                      
PMBI  60  0.900  P                      
PMBI  112  0.900  S                      
UGM  94  0.700  P                      
UGM  159  0.700  S                      
#  2018  1  23  6  34  56  -7.1280  106.3616  0.15  0  0  0  0.58  1015
BBJI  24  0.900  P                      
BBJI  42  0.700  S                      
SMRI  63  0.800  P                      
SMRI  129  0.700  S                      
UGM  65  0.700  P                      
UGM  115  0.700  S                      
PMBI  64  0.900  P                      
PMBI  123  0.900  S                      
#  2019  9  5  11  56  38  -5.1339  105.5134  36.76  0  0  0  0.08  1016
PMBI  36  0.900  P                      
PMBI  64  0.900  S                      
MNAI  16  0.900  P                      
MNAI  35  0.900  S                      
BBJI  42  0.900  P                      
BBJI  83  0.700  S                      
SMRI  -3  0.800  P                      
SMRI  66  0.700  S                      
UGM  82  0.700  P                      
UGM  154  0.700  S                      
#  2018  9  2  1  7  24  -6.8080  103.5156  34.15  0  0  0  0.42  1017
MNAI  38  0.900  P                      
MNAI  68  0.900  S                      
BBJI  61  0.900  P                      
BBJI  108  0.700  S                      
SMRI  99  0.800  P                      
SMRI  133  0.700  S                      
UGM  101  0.700  P                      
UGM  160  0.700  S                      
#  2017  4  24  21  28  59  -6.4658  105.1451  224.33  0  0  0  0.73  1018
BBJI  40  0.900  P                      
BBJI  84  0.700  S                      
MNAI  51  0.900  P                      
MNAI  93  0.900  S                      
PMBI  55  0.900  P                      
PMBI  103  0.900  S                      
SMRI  93  0.800  P                      
SMRI  176  0.700  S                      
UGM  82  0.700  P                      
UGM  149  0.700  S                      
#  2017  3  10  16  13  37  -6.3914  105.3460  25.37  0  0  0  0.43  1019
BBJI  39  0.900  P                      
BBJI  69  0.700  S                      
MNAI  48  0.900  P                      
MNAI  86  0.900  S                      
PMBI  54  0.900  P                      
PMBI  110  0.900  S                      
SMRI  59  0.800  P                      
SMRI  166  0.700  S                      
UGM  79  0.700  P                      
UGM  135  0.700  S                      
#  2019  2  13  23  41  55  -6.9568  105.8371  35.19  0  0  0  0.72  1020
BBJI  29  0.900  P                      
BBJI  52  0.700  S                      
MNAI  57  0.900  P                      
MNAI  98  0.900  S                      
PMBI  62  0.900  P                      
PMBI  127  0.900  S                      
SMRI  69  0.800  P                      
SMRI  121  0.700  S                      
UGM  70  0.700  P                      
UGM  124  0.700  S                      
#  2019  12  16  12  52  33  -7.1801  106.0603  35.19  0  0  0  0.47  1021
BBJI  26  0.900  P                      
BBJI  45  0.700  S                      
MNAI  62  0.900  P                      
MNAI  108  0.900  S                      
SMRI  57  0.800  P                      
SMRI  136  0.700  S                      
UGM  66  0.700  P                      
UGM  117  0.700  S                      
#  2015  2  2  21  29  31  -5.7292  105.0223  357.29  0  0  0  0.19  1022
MNAI  55  0.900  P                      
MNAI  100  0.900  S                      
PMBI  59  0.900  P                      
PMBI  111  0.900  S                      
CISI  51  0.300  P                      
CISI  83  0.300  S                      
SMRI  105  0.800  P                      
SMRI  184  0.700  S                      
UGM  90  0.700  P                      
UGM  162  0.700  S                      
#  2015  10  1  0  4  56  -6.3988  103.1696  35.42  0  0  0  1.30  1023
PMBI  56  0.900  P                      
PMBI  100  0.900  S                      
CISI  68  0.300  P                      
CISI  111  0.300  S                      
SMRI  105  0.800  P                      
SMRI  186  0.700  S                      
UGM  106  0.700  P                      
UGM  181  0.700  S                      
#  2015  4  13  10  29  41  -5.8780  104.4420  35.27  0  0  0  0.42  1024
MNAI  33  0.900  P                      
MNAI  58  0.900  S                      
PMBI  72  0.900  P                      
PMBI  95  0.900  S                      
CISI  56  0.300  P                      
CISI  96  0.300  S                      
UGM  92  0.700  P                      
UGM  162  0.700  S                      
#  2016  4  24  4  32  28  -4.3750  103.3482  322.92  0  0  0  0.17  1025
MNAI  41  0.900  P                      
MNAI  74  0.900  S                      
PMBI  82  0.900  P                      
PMBI  127  0.900  S                      
SMRI  115  0.800  P                      
SMRI  196  0.700  S                      
UGM  113  0.700  P                      
UGM  197  0.700  S                      
#  2017  3  21  13  13  20  -6.6964  103.4375  375.30  0  0  0  0.87  1026
MNAI  57  0.900  P                      
MNAI  85  0.900  S                      
PMBI  70  0.900  P                      
PMBI  128  0.900  S                      
BBJI  72  0.900  P                      
BBJI  110  0.700  S                      
SMRI  104  0.800  P                      
SMRI  212  0.700  S                      
UGM  115  0.700  P                      
UGM  223  0.700  S                      
#  2018  6  5  23  0  41  -4.8735  105.6585  174.63  0  0  0  0.04  1027
PMBI  39  0.900  P                      
PMBI  91  0.900  S                      
BBJI  51  0.900  P                      
BBJI  92  0.700  S                      
SMRI  77  0.800  P                      
SMRI  172  0.700  S                      
UGM  93  0.700  P                      
UGM  139  0.700  S                      
#  2020  2  17  12  11  50  -7.2396  106.4174  0.07  0  0  0  0.41  1028
BBJI  24  0.900  P                      
BBJI  40  0.700  S                      
SMRI  20  0.800  P                      
SMRI  82  0.700  S                      
UGM  65  0.700  P                      
UGM  114  0.700  S                      
MNAI  62  0.900  P                      
MNAI  104  0.900  S                      
#  2017  3  10  16  33  6  -6.2649  105.0670  45.09  0  0  0  0.58  1029
BBJI  43  0.900  P                      
BBJI  69  0.700  S                      
MNAI  43  0.900  P                      
MNAI  75  0.900  S                      
SMRI  87  0.800  P                      
SMRI  139  0.700  S                      
UGM  85  0.700  P                      
UGM  142  0.700  S                      
#  2018  7  8  19  47  28  -7.4033  106.7746  13.47  0  0  0  0.02  1030
BBJI  17  0.900  P                      
BBJI  63  0.700  S                      
SMRI  56  0.800  P                      
SMRI  99  0.700  S                      
UGM  57  0.700  P                      
UGM  129  0.700  S                      
MNAI  -24  0.900  P                      
MNAI  -10  0.900  S                      
PMBI  -1  0.900  P                      
PMBI  46  0.900  S                      
#  2018  4  14  18  3  12  -8.1696  108.3705  106.40  0  0  0  0.02  1031
BBJI  -11  0.900  P                      
BBJI  37  0.700  S                      
UGM  35  0.700  P                      
UGM  141  0.700  S                      
SMRI  37  0.800  P                      
SMRI  127  0.700  S                      
PMBI  4  0.900  P                      
PMBI  52  0.900  S                      
#  2016  6  28  3  32  51  -5.7589  105.2009  171.28  0  0  0  0.20  1032
MNAI  44  0.900  P                      
MNAI  87  0.900  S                      
PMBI  47  0.900  P                      
PMBI  84  0.900  S                      
SMRI  79  0.800  P                      
SMRI  167  0.700  S                      
UGM  79  0.700  P                      
UGM  164  0.700  S                      
#  2020  3  10  14  6  27  -5.9896  102.8460  35.19  0  0  0  0.62  1033
MNAI  26  0.900  P                      
MNAI  46  0.900  S                      
PMBI  53  0.900  P                      
PMBI  95  0.900  S                      
BBJI  72  0.900  P                      
BBJI  125  0.700  S                      
SMRI  110  0.800  P                      
SMRI  243  0.700  S                      
UGM  113  0.700  P                      
UGM  195  0.700  S                      
#  2017  5  5  11  25  11  -6.8601  105.0670  41.52  0  0  0  0.63  1034
BBJI  40  0.900  P                      
BBJI  70  0.700  S                      
MNAI  49  0.900  P                      
MNAI  84  0.900  S                      
PMBI  58  0.900  P                      
PMBI  108  0.900  S                      
UGM  82  0.700  P                      
UGM  136  0.700  S                      
#  2017  9  2  3  32  24  -6.0640  104.9442  35.34  0  0  0  0.45  1035
MNAI  40  0.900  P                      
MNAI  70  0.900  S                      
BBJI  45  0.900  P                      
BBJI  80  0.700  S                      
PMBI  47  0.900  P                      
PMBI  76  0.900  S                      
SMRI  81  0.800  P                      
SMRI  164  0.700  S                      
UGM  85  0.700  P                      
UGM  149  0.700  S                      
#  2018  12  1  22  36  9  -6.9717  105.0335  63.17  0  0  0  0.64  1036
BBJI  40  0.900  P                      
BBJI  72  0.700  S                      
MNAI  51  0.900  P                      
MNAI  88  0.900  S                      
PMBI  60  0.900  P                      
PMBI  118  0.900  S                      
SMRI  94  0.800  P                      
SMRI  182  0.700  S                      
UGM  85  0.700  P                      
UGM  142  0.700  S                      
#  2018  3  19  11  36  28  -7.2731  106.1328  35.23  0  0  0  0.78  1037
BBJI  25  0.900  P                      
BBJI  43  0.700  S                      
SMRI  67  0.800  P                      
SMRI  132  0.700  S                      
MNAI  63  0.900  P                      
MNAI  108  0.900  S                      
UGM  65  0.700  P                      
UGM  117  0.700  S                      
PMBI  67  0.900  P                      
PMBI  145  0.900  S                      
#  2016  3  21  2  25  20  -4.8661  105.0223  182.29  0  0  0  0.03  1038
PMBI  37  0.900  P                      
PMBI  66  0.900  S                      
MNAI  38  0.900  P                      
MNAI  77  0.900  S                      
SMRI  85  0.800  P                      
SMRI  176  0.700  S                      
UGM  68  0.700  P                      
UGM  153  0.700  S                      
#  2017  7  8  22  48  36  -7.7307  105.9263  29.99  0  0  0  0.79  1039
BBJI  28  0.900  P                      
BBJI  49  0.700  S                      
MNAI  66  0.900  P                      
MNAI  111  0.900  S                      
SMRI  70  0.800  P                      
SMRI  118  0.700  S                      
UGM  69  0.700  P                      
UGM  120  0.700  S                      
PMBI  73  0.900  P                      
PMBI  118  0.900  S                      
#  2017  4  3  19  55  14  -6.4137  103.4598  174.85  0  0  0  0.41  1040
MNAI  38  0.900  P                      
MNAI  67  0.900  S                      
PMBI  58  0.900  P                      
PMBI  99  0.900  S                      
BBJI  65  0.900  P                      
BBJI  102  0.700  S                      
UGM  107  0.700  P                      
UGM  182  0.700  S                      
#  2019  5  12  8  51  44  -6.6146  104.6317  41.59  0  0  0  0.31  1041
MNAI  42  0.900  P                      
MNAI  74  0.900  S                      
BBJI  47  0.900  P                      
BBJI  82  0.700  S                      
PMBI  55  0.900  P                      
PMBI  98  0.900  S                      
SMRI  77  0.800  P                      
SMRI  117  0.700  S                      
#  2015  1  20  14  34  50  -5.4241  102.3326  32.22  0  0  0  0.12  1042
MNAI  21  0.900  P                      
MNAI  37  0.900  S                      
PMBI  52  0.900  P                      
PMBI  106  0.900  S                      
CISI  84  0.300  P                      
CISI  142  0.300  S                      
UGM  121  0.700  P                      
UGM  196  0.700  S                      
#  2019  1  2  13  40  23  -6.5402  103.6496  126.71  0  0  0  0.78  1043
MNAI  36  0.900  P                      
MNAI  66  0.900  S                      
PMBI  57  0.900  P                      
PMBI  101  0.900  S                      
BBJI  61  0.900  P                      
BBJI  107  0.700  S                      
UGM  102  0.700  P                      
UGM  174  0.700  S                      
#  2019  8  11  2  11  18  -5.8408  103.9844  191.29  0  0  0  0.66  1044
MNAI  36  0.900  P                      
MNAI  64  0.900  S                      
PMBI  61  0.900  P                      
PMBI  88  0.900  S                      
BBJI  61  0.900  P                      
BBJI  109  0.700  S                      
SMRI  101  0.800  P                      
SMRI  187  0.700  S                      
UGM  101  0.700  P                      
UGM  177  0.700  S                      
