#  2020  5  3  7  6  47.06  -6.2128  104.5201  152.90  0  0  0  0.26  1001
MNAI  40  0.900  P                      
MNAI  71  0.900  S                      
PMBI  52  0.800  P                      
PMBI  110  0.800  S                      
BBJI  47  0.800  P                      
BBJI  84  0.800  S                      
SMRI  85  0.800  P                      
SMRI  164  0.700  S                      
UGM  90  0.700  P                      
UGM  144  0.700  S                      
#  2020  2  17  12  11  49.54  -7.2396  106.4174  0.07  0  0  0  0.41  1002
BBJI  24  0.800  P                      
BBJI  40  0.800  S                      
SMRI  20  0.800  P                      
SMRI  82  0.700  S                      
UGM  65  0.700  P                      
UGM  114  0.700  S                      
MNAI  62  0.900  P                      
MNAI  104  0.900  S                      
#  2020  3  10  14  6  27.04  -5.9896  102.8460  35.19  0  0  0  0.62  1003
MNAI  26  0.900  P                      
MNAI  46  0.900  S                      
PMBI  53  0.800  P                      
PMBI  95  0.800  S                      
BBJI  72  0.800  P                      
BBJI  125  0.800  S                      
SMRI  110  0.800  P                      
SMRI  243  0.700  S                      
UGM  113  0.700  P                      
UGM  195  0.700  S                      
#  2020  4  25  4  43  25.16  -6.1756  106.1384  154.32  0  0  0  0.60  1004
BBJI  35  0.800  P                      
BBJI  62  0.800  S                      
PMBI  55  0.800  P                      
PMBI  94  0.800  S                      
MNAI  56  0.900  P                      
MNAI  98  0.900  S                      
SMRI  66  0.800  P                      
SMRI  127  0.700  S                      
UGM  68  0.700  P                      
UGM  123  0.700  S                      
