# 2015  2  13  16  14  3.28  -6.2054  105.8705  248.96  0  0  0  0.27  10001
CISI  46  0.500  P                    
SMRI  50  0.800  P                    
UGMI  58  0.800  P                    
PMBI  75  -0.600  P                    
# 2015  4  11  12  44  40.83  -6.5774  104.5089  35.42  0  0  0  1.10  10002
CISI  51  0.500  P                    
PMBI  54  -0.600  P                    
SMRI  89  0.800  P                    
UGMI  89  0.800  P                    
# 2015  4  13  10  29  41.04  -5.8780  104.4420  35.27  0  0  0  0.42  10003
MNAI  33  -1.000  P                    
PMBI  72  -0.600  P                    
CISI  56  0.500  P                    
UGMI  92  0.800  P                    
# 2015  8  5  15  41  51.26  -6.7113  105.1563  35.27  0  0  0  0.64  10004
CISI  41  0.500  P                    
PMBI  57  -0.600  P                    
SMRI  100  0.800  P                    
UGMI  79  0.800  P                    
# 2015  9  23  16  19  41.29  -7.4256  107.7902  23.07  0  0  0  0.01  10005
CISI  5  0.500  p                    
SMRI  41  0.800  p                    
UGMI  43  0.800  p                    
PMBI  45  -0.600  p                    
# 2015  10  1  0  4  56.19  -6.3988  103.1696  35.42  0  0  0  1.30  10006
PMBI  56  -0.600  P                    
CISI  68  0.500  P                    
SMRI  105  0.800  P                    
UGMI  106  0.800  P                    
# 2015  10  1  2  49  39.87  -6.8304  102.5223  35.27  0  0  0  1.14  10007
PMBI  65  -0.600  P                    
CISI  77  0.500  P                    
SMRI  113  0.800  P                    
UGMI  114  0.800  P                    
# 2015  11  4  6  14  34.75  -6.9940  104.9554  29.46  0  0  0  0.83  10008
CISI  44  0.500  P                    
MNAI  50  -1.000  P                    
PMBI  61  -0.600  P                    
SMRI  84  0.800  P                    
UGMI  83  0.800  P                    
# 2015  11  7  5  56  31.47  -5.9673  104.7545  346.28  0  0  0  0.69  10009
MNAI  54  -1.000  P                    
PMBI  60  -0.600  P                    
CISI  50  0.500  P                    
SMRI  88  0.800  P                    
UGMI  89  0.800  P                    
# 2015  1  20  14  34  50.49  -5.4241  102.3326  32.22  0  0  0  0.12  100010
MNAI  21  -1.000  P                    
PMBI  52  -0.600  P                    
CISI  84  0.500  P                    
UGMI  121  0.800  P                    
# 2015  1  26  13  11  51.43  -6.6146  104.4754  109.60  0  0  0  0.31  100011
MNAI  42  -1.000  P                    
CISI  55  0.500  P                    
PMBI  56  -0.600  P                    
UGMI  94  0.800  P                    
# 2015  2  2  21  29  30.91  -5.7292  105.0223  357.29  0  0  0  0.19  100012
MNAI  55  -1.000  P                    
PMBI  59  -0.600  P                    
CISI  51  0.500  P                    
SMRI  105  0.800  P                    
UGMI  90  0.800  P                    
# 2020  2  17  12  11  49.54  -7.2396  106.4174  0.07  0  0  0  0.41  100013
BBJI  24  1.000  P                    
SMRI  20  0.800  P                    
UGMI  65  0.800  P                    
MNAI  62  -1.000  P                    
# 2020  3  10  14  6  27.04  -5.9896  102.8460  35.19  0  0  0  0.62  100014
MNAI  26  -1.000  P                    
PMBI  53  -0.600  P                    
BBJI  72  1.000  P                    
SMRI  110  0.800  P                    
UGMI  113  0.800  P                    
# 2020  4  25  4  43  25.16  -6.1756  106.1384  154.32  0  0  0  0.60  100015
BBJI  35  1.000  P                    
PMBI  55  -0.600  P                    
MNAI  56  -1.000  P                    
SMRI  66  0.800  P                    
UGMI  68  0.800  P                    
# 2020  5  3  7  6  47.06  -6.2128  104.5201  152.90  0  0  0  0.26  100016
MNAI  40  -1.000  P                    
PMBI  52  -0.600  P                    
BBJI  47  1.000  P                    
SMRI  85  0.800  P                    
UGMI  90  0.800  P                    
# 2019  1  2  13  40  22.68  -6.5402  103.6496  126.71  0  0  0  0.78  100017
MNAI  36  -1.000  P                    
PMBI  57  -0.600  P                    
BBJI  61  1.000  P                    
UGMI  102  0.800  P                    
# 2019  1  12  12  4  24.98  -6.7708  104.3080  6.99  0  0  0  0.90  100018
MNAI  45  -1.000  P                    
BBJI  53  1.000  P                    
PMBI  60  -0.600  P                    
UGMI  94  0.800  P                    
# 2019  2  13  23  41  55.00  -6.9568  105.8371  35.19  0  0  0  0.72  100019
BBJI  29  1.000  P                    
MNAI  57  -1.000  P                    
PMBI  62  -0.600  P                    
SMRI  69  0.800  P                    
UGMI  70  0.800  P                    
# 2019  5  12  8  51  44.31  -6.6146  104.6317  41.59  0  0  0  0.31  100020
MNAI  42  -1.000  P                    
BBJI  47  1.000  P                    
PMBI  55  -0.600  P                    
SMRI  77  0.800  P                    
# 2019  7  28  14  25  2.95  -7.3289  106.1496  36.83  0  0  0  1.00  100021
BBJI  24  1.000  P                    
SMRI  67  0.800  P                    
MNAI  63  -1.000  P                    
UGMI  64  0.800  P                    
# 2019  8  2  12  3  26.30  -7.4107  104.6875  36.61  0  0  0  0.77  100022
BBJI  44  1.000  P                    
MNAI  52  -1.000  P                    
PMBI  66  -0.600  P                    
SMRI  85  0.800  P                    
UGMI  84  0.800  P                    
# 2019  8  11  2  11  18.35  -5.8408  103.9844  191.29  0  0  0  0.66  100023
MNAI  36  -1.000  P                    
PMBI  61  -0.600  P                    
BBJI  61  1.000  P                    
SMRI  101  0.800  P                    
UGMI  101  0.800  P                    
# 2019  8  11  4  39  12.14  -6.4807  103.6272  70.91  0  0  0  0.40  100024
MNAI  35  -1.000  P                    
PMBI  55  -0.600  P                    
BBJI  60  1.000  P                    
SMRI  101  0.800  P                    
UGMI  100  0.800  P                    
# 2019  9  5  11  56  37.72  -5.1339  105.5134  36.76  0  0  0  0.08  100025
PMBI  36  -0.600  P                    
MNAI  16  -1.000  P                    
BBJI  42  1.000  P                    
SMRI  80  0.800  P                    
UGMI  82  0.800  P                    
# 2019  9  22  22  32  30.77  -6.6518  102.9688  35.27  0  0  0  0.48  100026
MNAI  35  -1.000  P                    
PMBI  61  -0.600  P                    
BBJI  69  1.000  P                    
SMRI  68  0.800  P                    
UGMI  108  0.800  P                    
# 2019  12  16  12  52  33.15  -7.1801  106.0603  35.19  0  0  0  0.47  100027
BBJI  26  1.000  P                    
MNAI  62  -1.000  P                    
SMRI  57  0.800  P                    
UGMI  66  0.800  P                    
# 2018  12  1  22  36  9.18  -6.9717  105.0335  63.17  0  0  0  0.64  100028
BBJI  40  1.000  P                    
MNAI  51  -1.000  P                    
PMBI  60  -0.600  P                    
SMRI  94  0.800  P                    
UGMI  85  0.800  P                    
# 2018  1  23  6  34  56.31  -7.1280  106.3616  0.15  0  0  0  0.58  100029
BBJI  24  1.000  P                    
SMRI  63  0.800  P                    
UGMI  65  0.800  P                    
PMBI  64  -0.600  P                    
# 2018  1  24  6  32  45.32  -6.7411  106.4063  0.15  0  0  0  0.39  100030
BBJI  27  1.000  P                    
SMRI  62  0.800  P                    
PMBI  65  -0.600  P                    
UGMI  67  0.800  P                    
# 2018  3  19  11  36  28.26  -7.2731  106.1328  35.23  0  0  0  0.78  100031
BBJI  25  1.000  P                    
SMRI  67  0.800  P                    
MNAI  63  -1.000  P                    
UGMI  65  0.800  P                    
PMBI  67  -0.600  P                    
# 2018  3  26  21  32  32.66  -6.1830  102.4888  35.34  0  0  0  0.42  100032
MNAI  30  -1.000  P                    
PMBI  59  -0.600  P                    
BBJI  76  1.000  P                    
UGMI  117  0.800  P                    
# 2018  4  8  16  4  21.90  -6.2426  104.2522  39.96  0  0  0  0.83  100033
MNAI  33  -1.000  P                    
PMBI  50  -0.600  P                    
BBJI  53  1.000  P                    
SMRI  92  0.800  P                    
UGMI  94  0.800  P                    
# 2018  4  9  11  46  34.52  -6.8676  105.6585  35.34  0  0  0  1.27  100034
BBJI  32  1.000  P                    
MNAI  56  -1.000  P                    
PMBI  62  -0.600  P                    
SMRI  72  0.800  P                    
UGMI  73  0.800  P                    
# 2018  4  14  18  3  11.75  -8.1696  108.3705  106.40  0  0  0  0.02  100035
BBJI  1  1.000  P                    
UGMI  35  0.800  P                    
SMRI  37  0.800  P                    
PMBI  4  -0.600  P                    
# 2018  5  9  21  26  0.91  -6.4955  104.8549  35.34  0  0  0  0.74  100036
MNAI  43  -1.000  P                    
BBJI  44  1.000  P                    
PMBI  53  -0.600  P                    
SMRI  82  0.800  P                    
UGMI  84  0.800  P                    
# 2018  6  5  23  0  41.29  -4.8735  105.6585  174.63  0  0  0  0.04  100037
PMBI  39  -0.600  P                    
BBJI  51  1.000  P                    
SMRI  77  0.800  P                    
UGMI  93  0.800  P                    
# 2018  7  8  19  47  27.99  -7.4033  106.7746  13.47  0  0  0  0.02  100038
BBJI  17  1.000  P                    
SMRI  56  0.800  P                    
UGMI  57  0.800  P                    
MNAI  14  -1.000  P                    
PMBI  13  -0.600  P                    
# 2018  8  23  3  44  5.91  -6.3765  103.5603  124.18  0  0  0  0.45  100039
MNAI  35  -1.000  P                    
PMBI  55  -0.600  P                    
BBJI  63  1.000  P                    
SMRI  98  0.800  P                    
UGMI  104  0.800  P                    
# 2018  9  2  1  7  23.55  -6.8080  103.5156  34.15  0  0  0  0.42  100040
MNAI  38  -1.000  P                    
BBJI  61  1.000  P                    
SMRI  99  0.800  P                    
UGMI  101  0.800  P                    
# 2018  10  25  5  48  42.66  -6.4211  105.9263  183.71  0  0  0  0.57  100041
BBJI  37  1.000  P                    
PMBI  58  -0.600  P                    
SMRI  68  0.800  P                    
UGMI  71  0.800  P                    
# 2018  10  29  21  11  22.97  -5.9673  106.4509  199.26  0  0  0  0.13  100042
BBJI  37  1.000  P                    
PMBI  56  -0.600  P                    
SMRI  63  0.800  P                    
UGMI  78  0.800  P                    
# 2016  3  6  11  51  12.57  -2.8943  104.7210  69.87  0  0  0  0.00  100043
PMBI  10  -0.600  P                    
MNAI  19  -1.000  P                    
SMRI  77  0.800  P                    
UGMI  26  0.800  P                    
# 2016  3  17  13  3  11.85  -6.5774  104.3304  49.70  0  0  0  0.43  100044
MNAI  40  -1.000  P                    
PMBI  55  -0.600  P                    
SMRI  88  0.800  P                    
UGMI  89  0.800  P                    
# 2016  3  21  2  25  20.26  -4.8661  105.0223  182.29  0  0  0  0.03  100045
PMBI  37  -0.600  P                    
MNAI  38  -1.000  P                    
SMRI  85  0.800  P                    
UGMI  68  0.800  P                    
# 2016  4  24  4  32  27.65  -4.3750  103.3482  322.92  0  0  0  0.17  100046
MNAI  41  -1.000  P                    
PMBI  82  -0.600  P                    
SMRI  115  0.800  P                    
UGMI  113  0.800  P                    
# 2016  5  6  2  4  9.86  -6.4063  104.1853  133.85  0  0  0  0.36  100047
MNAI  39  -1.000  P                    
PMBI  54  -0.600  P                    
SMRI  91  0.800  P                    
UGMI  92  0.800  P                    
# 2016  6  6  9  21  25.46  -6.0565  103.1473  214.14  0  0  0  0.73  100048
MNAI  37  -1.000  P                    
PMBI  66  -0.600  P                    
SMRI  105  0.800  P                    
UGMI  106  0.800  P                    
# 2016  6  28  3  32  51.12  -5.7589  105.2009  171.28  0  0  0  0.20  100049
MNAI  44  -1.000  P                    
PMBI  47  -0.600  P                    
SMRI  79  0.800  P                    
UGMI  79  0.800  P                    
# 2016  8  7  14  4  1.13  -7.1429  110.7143  90.48  0  0  0  0.07  100050
MNAI  44  -1.000  P                    
PMBI  47  -0.600  P                    
SMRI  79  0.800  P                    
UGMI  79  0.800  P                    
# 2016  9  11  15  35  9.41  -5.9970  105.1563  297.47  0  0  0  0.51  100051
MNAI  53  -1.000  P                    
PMBI  57  -0.600  P                    
SMRI  98  0.800  P                    
UGMI  85  0.800  P                    
# 2016  11  12  21  7  34.31  -6.3542  103.5938  35.27  0  0  0  0.41  100052
MNAI  32  -1.000  P                    
PMBI  54  -0.600  P                    
BBJI  61  1.000  P                    
UGMI  102  0.800  P                    
# 2017  1  18  10  51  41.81  -6.5774  105.4911  35.42  0  0  0  1.92  100053
BBJI  36  1.000  P                    
MNAI  55  -1.000  P                    
SMRI  78  0.800  P                    
UGMI  78  0.800  P                    
# 2017  2  19  15  14  22.77  -6.2351  105.6473  110.57  0  0  0  0.64  100054
BBJI  33  1.000  P                    
MNAI  29  -1.000  P                    
PMBI  41  -0.600  P                    
SMRI  72  0.800  P                    
UGMI  74  0.800  P                    
# 2017  3  10  16  13  37.43  -6.3914  105.3460  25.37  0  0  0  0.43  100055
BBJI  39  1.000  P                    
MNAI  48  -1.000  P                    
PMBI  54  -0.600  P                    
SMRI  59  0.800  P                    
UGMI  79  0.800  P                    
# 2017  4  24  21  29  4.00  -6.0193  105.5246  49.63  0  0  0  0.79  100056
BBJI  35  1.000  P                    
MNAI  46  -1.000  P                    
PMBI  50  -0.600  P                    
SMRI  87  0.800  P                    
UGMI  77  0.800  P                    
# 2017  7  8  22  48  35.60  -7.7307  105.9263  29.99  0  0  0  0.79  100057
BBJI  28  1.000  P                    
MNAI  66  -1.000  P                    
SMRI  70  0.800  P                    
UGMI  69  0.800  P                    
PMBI  73  -0.600  P                    
# 2017  9  2  3  32  24.34  -6.0640  104.9442  35.34  0  0  0  0.45  100058
MNAI  40  -1.000  P                    
BBJI  45  1.000  P                    
PMBI  47  -0.600  P                    
SMRI  81  0.800  P                    
UGMI  85  0.800  P                    
# 2017  3  21  13  13  20.17  -6.6964  103.4375  375.30  0  0  0  0.87  100059
MNAI  57  -1.000  P                    
PMBI  70  -0.600  P                    
BBJI  72  1.000  P                    
SMRI  104  0.800  P                    
UGMI  115  0.800  P                    
# 2017  11  8  19  17  8.83  -6.6146  104.6540  28.79  0  0  0  0.62  100060
MNAI  44  -1.000  P                    
BBJI  47  1.000  P                    
PMBI  55  -0.600  P                    
SMRI  88  0.800  P                    
UGMI  86  0.800  P                    
# 2017  11  26  19  6  32.07  -6.2054  105.6473  320.09  0  0  0  0.39  100061
BBJI  52  1.000  P                    
MNAI  60  -1.000  P                    
PMBI  61  -0.600  P                    
SMRI  111  0.800  P                    
# 2017  3  10  16  33  6.43  -6.2649  105.0670  45.09  0  0  0  0.58  100062
BBJI  43  1.000  P                    
MNAI  43  -1.000  P                    
SMRI  87  0.800  P                    
UGMI  85  0.800  P                    
# 2017  4  25  16  37  36.90  -7.3586  105.3460  34.30  0  0  0  0.50  100063
BBJI  35  1.000  P                    
MNAI  57  -1.000  P                    
PMBI  66  -0.600  P                    
SMRI  73  0.800  P                    
UGMI  76  0.800  P                    
# 2017  4  24  21  28  58.63  -6.4658  105.1451  224.33  0  0  0  0.73  100064
BBJI  41  1.000  P                    
MNAI  52  -1.000  P                    
PMBI  55  -0.600  P                    
SMRI  104  0.800  P                    
UGMI  82  0.800  P                    
# 2017  7  17  16  19  3.82  -5.2902  103.0246  109.30  0  0  0  0.35  100065
MNAI  20  -1.000  P                    
PMBI  45  -0.600  P                    
BBJI  73  1.000  P                    
UGMI  113  0.800  P                    
# 2017  4  3  19  55  13.62  -6.4137  103.4598  174.85  0  0  0  0.41  100066
MNAI  38  -1.000  P                    
PMBI  58  -0.600  P                    
BBJI  65  1.000  P                    
UGMI  107  0.800  P                    
BBJI  40  1.000  P                    
# 2017  5  5  11  25  11.06  -6.8601  105.0670  41.52  0  0  0  0.63  100067
BBJI  40  1.000  P                    
MNAI  49  -1.000  P                    
PMBI  58  -0.600  P                    
UGMI  82  0.800  P                    
# 2017  1  7  3  38  10.75  -6.0565  104.3080  35.27  0  0  0  0.37  100068
MNAI  34  -1.000  P                    
BBJI  53  1.000  P                    
SMRI  100  0.800  P                    
UGMI  94  0.800  P                    
