#  2018  3  26  21  32  33  -6.1830  102.4888  35.34  0  0  0  0.42  1045
MNAI  30  0.900  P                      
MNAI  52  0.900  S                      
PMBI  59  0.900  P                      
PMBI  133  0.900  S                      
BBJI  76  0.900  P                      
BBJI  126  0.700  S                      
UGM  117  0.700  P                      
UGM  204  0.700  S                      
#  2016  5  6  2  4  10  -6.4063  104.1853  133.85  0  0  0  0.36  1046
MNAI  39  0.900  P                      
MNAI  69  0.900  S                      
PMBI  54  0.900  P                      
PMBI  112  0.900  S                      
SMRI  91  0.800  P                      
SMRI  160  0.700  S                      
UGM  92  0.700  P                      
UGM  160  0.700  S                      
#  2019  8  2  12  3  26  -7.4107  104.6875  36.61  0  0  0  0.77  1047
BBJI  44  0.900  P                      
BBJI  74  0.700  S                      
MNAI  52  0.900  P                      
MNAI  92  0.900  S                      
PMBI  66  0.900  P                      
PMBI  126  0.900  S                      
SMRI  85  0.800  P                      
SMRI  138  0.700  S                      
UGM  84  0.700  P                      
UGM  146  0.700  S                      
#  2015  9  23  16  19  41  -7.4256  107.7902  23.07  0  0  0  0.01  1048
CISI  5  0.300  P                      
CISI  50  0.300  S                      
SMRI  41  0.800  P                      
SMRI  109  0.700  S                      
UGM  43  0.700  P                      
UGM  122  0.700  S                      
PMBI  -9  0.900  P                      
PMBI  35  0.900  S                      
#  2017  11  26  19  6  32  -6.2054  105.6473  320.09  0  0  0  0.39  1049
BBJI  52  0.900  P                      
BBJI  92  0.700  S                      
MNAI  60  0.900  P                      
MNAI  102  0.900  S                      
PMBI  61  0.900  P                      
PMBI  112  0.900  S                      
SMRI  111  0.800  P                      
SMRI  187  0.700  S                      
#  2020  4  25  4  43  25  -6.1756  106.1384  154.32  0  0  0  0.60  1050
BBJI  35  0.900  P                      
BBJI  62  0.700  S                      
PMBI  55  0.900  P                      
PMBI  94  0.900  S                      
MNAI  56  0.900  P                      
MNAI  98  0.900  S                      
SMRI  66  0.800  P                      
SMRI  127  0.700  S                      
UGM  68  0.700  P                      
UGM  123  0.700  S                      
#  2018  4  9  11  46  35  -6.8676  105.6585  35.34  0  0  0  1.27  1051
BBJI  32  0.900  P                      
BBJI  57  0.700  S                      
MNAI  56  0.900  P                      
MNAI  96  0.900  S                      
PMBI  62  0.900  P                      
PMBI  107  0.900  S                      
SMRI  72  0.800  P                      
SMRI  150  0.700  S                      
UGM  73  0.700  P                      
UGM  133  0.700  S                      
#  2018  10  25  5  48  43  -6.4211  105.9263  183.71  0  0  0  0.57  1052
BBJI  37  0.900  P                      
BBJI  66  0.700  S                      
PMBI  58  0.900  P                      
PMBI  97  0.900  S                      
SMRI  68  0.800  P                      
SMRI  129  0.700  S                      
UGM  71  0.700  P                      
UGM  118  0.700  S                      
#  2016  11  12  21  7  34  -6.3542  103.5938  35.27  0  0  0  0.41  1053
MNAI  32  0.900  P                      
MNAI  64  0.900  S                      
PMBI  54  0.900  P                      
PMBI  95  0.900  S                      
BBJI  61  0.900  P                      
BBJI  103  0.700  S                      
UGM  102  0.700  P                      
UGM  147  0.700  S                      
#  2017  1  7  3  38  11  -6.0565  104.3080  35.27  0  0  0  0.37  1054
MNAI  34  0.900  P                      
MNAI  59  0.900  S                      
BBJI  53  0.900  P                      
BBJI  95  0.700  S                      
SMRI  100  0.800  P                      
SMRI  152  0.700  S                      
UGM  94  0.700  P                      
UGM  164  0.700  S                      
#  2015  11  4  6  14  35  -6.9940  104.9554  29.46  0  0  0  0.83  1055
CISI  44  0.300  P                      
CISI  78  0.300  S                      
MNAI  50  0.900  P                      
MNAI  88  0.900  S                      
PMBI  61  0.900  P                      
PMBI  119  0.900  S                      
SMRI  84  0.800  P                      
SMRI  173  0.700  S                      
UGM  83  0.700  P                      
UGM  151  0.700  S                      
#  2017  7  17  16  19  4  -5.2902  103.0246  109.30  0  0  0  0.35  1056
MNAI  20  0.900  P                      
MNAI  36  0.900  S                      
PMBI  45  0.900  P                      
PMBI  66  0.900  S                      
BBJI  73  0.900  P                      
BBJI  126  0.700  S                      
UGM  113  0.700  P                      
UGM  202  0.700  S                      
#  2015  2  13  16  14  3  -6.2054  105.8705  248.96  0  0  0  0.27  1057
CISI  46  0.300  P                      
CISI  82  0.300  S                      
MNAI  50  0.900  P                      
MNAI  88  0.900  S                      
PMBI  58  0.900  P                      
PMBI  104  0.900  S                      
UGM  75  0.700  P                      
UGM  134  0.700  S                      
#  2015  10  1  2  49  40  -6.8304  102.5223  35.27  0  0  0  1.14  1058
PMBI  65  0.900  P                      
PMBI  117  0.900  S                      
CISI  77  0.300  P                      
CISI  122  0.300  S                      
SMRI  113  0.800  P                      
SMRI  198  0.700  S                      
UGM  114  0.700  P                      
UGM  183  0.700  S                      
#  2017  2  19  15  14  23  -6.2351  105.6473  110.57  0  0  0  0.64  1059
BBJI  33  0.900  P                      
BBJI  66  0.700  S                      
MNAI  29  0.900  P                      
MNAI  62  0.900  S                      
PMBI  41  0.900  P                      
PMBI  92  0.900  S                      
SMRI  72  0.800  P                      
SMRI  125  0.700  S                      
UGM  74  0.700  P                      
UGM  133  0.700  S                      
#  2016  3  17  13  3  12  -6.5774  104.3304  49.70  0  0  0  0.43  1060
MNAI  40  0.900  P                      
MNAI  70  0.900  S                      
PMBI  55  0.900  P                      
PMBI  97  0.900  S                      
SMRI  88  0.800  P                      
SMRI  164  0.700  S                      
UGM  89  0.700  P                      
UGM  156  0.700  S                      
#  2017  11  8  19  17  9  -6.6146  104.6540  28.79  0  0  0  0.62  1061
MNAI  44  0.900  P                      
MNAI  76  0.900  S                      
BBJI  47  0.900  P                      
BBJI  83  0.700  S                      
PMBI  55  0.900  P                      
PMBI  108  0.900  S                      
SMRI  88  0.800  P                      
SMRI  182  0.700  S                      
UGM  86  0.700  P                      
UGM  155  0.700  S                      
#  2018  4  8  16  4  22  -6.2426  104.2522  39.96  0  0  0  0.83  1062
MNAI  33  0.900  P                      
MNAI  62  0.900  S                      
PMBI  50  0.900  P                      
PMBI  100  0.900  S                      
BBJI  53  0.900  P                      
BBJI  94  0.700  S                      
SMRI  92  0.800  P                      
SMRI  200  0.700  S                      
UGM  94  0.700  P                      
UGM  163  0.700  S                      
#  2015  1  26  13  11  51  -6.6146  104.4754  109.60  0  0  0  0.31  1063
MNAI  42  0.900  P                      
MNAI  75  0.900  S                      
CISI  55  0.300  P                      
CISI  92  0.300  S                      
PMBI  56  0.900  P                      
PMBI  89  0.900  S                      
UGM  94  0.700  P                      
UGM  157  0.700  S                      
#  2017  4  25  16  37  37  -7.3586  105.3460  34.30  0  0  0  0.50  1064
BBJI  35  0.900  P                      
BBJI  62  0.700  S                      
MNAI  57  0.900  P                      
MNAI  100  0.900  S                      
PMBI  66  0.900  P                      
PMBI  132  0.900  S                      
SMRI  73  0.800  P                      
SMRI  223  0.700  S                      
UGM  76  0.700  P                      
UGM  134  0.700  S                      
#  2015  11  7  5  56  31  -5.9673  104.7545  346.28  0  0  0  0.69  1065
MNAI  54  0.900  P                      
MNAI  114  0.900  S                      
PMBI  60  0.900  P                      
PMBI  107  0.900  S                      
CISI  50  0.300  P                      
CISI  85  0.300  S                      
SMRI  88  0.800  P                      
SMRI  161  0.700  S                      
UGM  89  0.700  P                      
UGM  146  0.700  S                      
#  2017  4  24  21  29  4  -6.0193  105.5246  49.63  0  0  0  0.79  1066
BBJI  36  0.900  P                      
BBJI  69  0.700  S                      
MNAI  46  0.900  P                      
MNAI  80  0.900  S                      
PMBI  49  0.900  P                      
PMBI  85  0.900  S                      
SMRI  98  0.800  P                      
SMRI  170  0.700  S                      
UGM  76  0.700  P                      
UGM  145  0.700  S                      
#  2017  1  18  10  51  42  -6.5774  105.4911  35.42  0  0  0  1.92  1067
BBJI  36  0.900  P                      
BBJI  62  0.700  S                      
MNAI  55  0.900  P                      
MNAI  88  0.900  S                      
SMRI  78  0.800  P                      
SMRI  134  0.700  S                      
UGM  78  0.700  P                      
UGM  134  0.700  S                      
#  2018  1  24  6  32  45  -6.7411  106.4063  0.15  0  0  0  0.39  1068
BBJI  27  0.900  P                      
BBJI  46  0.700  S                      
SMRI  62  0.800  P                      
SMRI  98  0.700  S                      
PMBI  65  0.900  P                      
PMBI  133  0.900  S                      
UGM  67  0.700  P                      
UGM  117  0.700  S                      
