NLLOC "./loc/SEML.20230921.180409.grid0" "LOCATED" "Location completed."
PUBLIC_ID None
SIGNATURE "Arham Zakki Edelo - edelo.17034@mhs.its.ac.id   obs:./obs/2023_09.obs   NLLoc:v7.00.10(30Aug2020)   run:22Jan2024 21h55m41"
COMMENT "SEML"
GRID  2001 2001 1001  727 9811 -2  0.01 0.01 0.01 PROB_DENSITY
SEARCH OCTREE nInitial 4851 nEvaluated 20011 smallestNodeSide 0.014881/0.014881/0.014205 oct_tree_integral 1.579569e-02 scatter_volume 1.577617e-02
HYPOCENTER  x 738.525 y 9818.22 z 0.393466  OT 8.67352  ix -1 iy -1 iz -1 MAXIMUM_LIKELIHOOD
GEOGRAPHIC  OT 2023 09 21  18 04 8.673522  Lat 9818.224702 Long 738.525298 Depth 0.393466
QUALITY  Pmax 5.97934e+83 MFmin 86.7983 MFmax 104.031 RMS 0.0303931 Nphs 24 Gap 302.966 Dist 0.917904 Mamp -9.90 0 Mdur -9.90 0
VPVSRATIO  VpVsRatio 1.72202  Npair 12  Diff 0.568501
STATISTICS  ExpectX 738.535062 Y 9818.244328 Z 0.378939  CovXX 0.0178195 XY -0.00527223 XZ -0.00696537 YY 0.0159215 YZ -0.00258885 ZZ 0.0143144 EllAz1  230.912 Dip1  -40.1429 Len1  0.14515 Az2  0.579587 Dip2  -37.1218 Len2  0.250862 Len3  2.926347e-01
STAT_GEOG  ExpectLat 9818.244328 Long 738.535062 Depth 0.378939
TRANSFORM  NONE
QML_OriginQuality  assocPhCt 24  usedPhCt 24  assocStaCt -1  usedStaCt 12  depthPhCt -1  stdErr 0.0303931  azGap 302.966  secAzGap 302.966  gtLevel -  minDist 0.917904 maxDist 5.42006 medDist 3.2069
QML_OriginUncertainty  horUnc -1  minHorUnc 0.16273  maxHorUnc 0.226104  azMaxHorUnc 129.898
QML_ConfidenceEllipsoid  semiMajorAxisLength 0.292635  semiMinorAxisLength 0.14515  semiIntermediateAxisLength 0.250862  majorAxisPlunge -27.9818  majorAxisAzimuth 114.292  majorAxisRotation 297.653
FOCALMECH  Hyp  9818.224702 738.525298 0.393466 Mech  0 0 0 mf  0 nObs -1
PHASE ID Ins Cmp On Pha  FM Date     HrMn   Sec     Err  ErrMag    Coda      Amp       Per       PriorWt  >   TTpred    Res       Weight    StaLoc(X  Y         Z)        SDist    SAzim  RAz  RDip RQual    Tcorr       TTerr
ML06         ?    BHZ  i P      c 20230921 1804    9.3227 GAU  8.62e-04 -1.00e+00 -1.00e+00 -1.00e+00    1.0000 >    0.5356    0.1136    0.1546  738.3100 9819.1170   -1.3960    0.9179 346.43 346.4 152.1 10     0.0000    0.0107
ML06         ?    BHE  i S      ? 20230921 1804    9.8293 GAU  2.05e-03 -1.00e+00  3.61e+00 -1.00e+00    1.0000 >    0.9345    0.2213    0.0014  738.3100 9819.1170   -1.3960    0.9179 346.43 346.4 151.6 10     0.0000    0.0187
ML04         ?    BHZ  e P      c 20230921 1804    9.3613 GAU  2.55e-03 -1.00e+00 -1.00e+00 -1.00e+00    1.0000 >    0.6976   -0.0097    1.4848  737.1400 9819.2520   -1.5710    1.7246 306.56 306.6 137.3 10     0.0000    0.0140
ML04         ?    BHE  e S      ? 20230921 1804    9.8869 GAU  5.20e-04 -1.00e+00  3.00e+02 -1.00e+00    1.0000 >    1.2160   -0.0026    1.4433  737.1400 9819.2520   -1.5710    1.7246 306.56 306.6 136.5 10     0.0000    0.0243
ML14         ?    BHZ  i P      c 20230921 1804    9.4325 GAU  1.09e-03 -1.00e+00 -1.00e+00 -1.00e+00    1.0000 >    0.7211    0.0379    1.0515  737.5530 9820.0110   -1.3980    2.0338 331.44 331.4 129.4 10     0.0000    0.0144
ML14         ?    BHN  e S      ? 20230921 1804    9.9653 GAU  4.16e-04 -1.00e+00  4.07e+02 -1.00e+00    1.0000 >    1.2583    0.0336    1.1797  737.5530 9820.0110   -1.3980    2.0338 331.44 331.4 128.4 10     0.0000    0.0252
ML02         ?    BHZ  i P      c 20230921 1804    9.4591 GAU  4.99e-04 -1.00e+00 -1.00e+00 -1.00e+00    1.0000 >    0.7853    0.0003    1.5829  736.5970 9819.4060   -1.4960    2.2614 301.49 301.5 127.8 10     0.0000    0.0157
ML02         ?    BHN  e S      ? 20230921 1804   10.0549 GAU  2.46e-03 -1.00e+00 -1.00e+00 -1.00e+00    1.0000 >    1.3695    0.0118    1.4014  736.5970 9819.4060   -1.4960    2.2614 301.49 301.5 126.7 10     0.0000    0.0274
ML11         ?    BHZ  i P      c 20230921 1804    9.4316 GAU  3.09e-03 -1.00e+00 -1.00e+00 -1.00e+00    1.0000 >    0.7533    0.0047    1.5899  738.4670 9820.4900   -1.3120    2.2660 358.53 358.5 124.8 10     0.0000    0.0151
ML11         ?    BHN  e S      ? 20230921 1804    9.9943 GAU  5.92e-04 -1.00e+00 -1.00e+00 -1.00e+00    1.0000 >    1.3154    0.0054    1.4354  738.4670 9820.4900   -1.3120    2.2660 358.53 358.5 123.5 10     0.0000    0.0263
ML09         ?    BHZ  i P      c 20230921 1804    9.5269 GAU  1.69e-03 -1.00e+00  2.73e+02 -1.00e+00    1.0000 >    0.8720   -0.0187    1.2780  737.8820 9820.9850   -1.2700    2.8343 346.88 346.9 117.9 10     0.0000    0.0174
ML09         ?    BHE  e S      ? 20230921 1804   10.1343 GAU  1.08e-03 -1.00e+00  3.26e+02 -1.00e+00    1.0000 >    1.5231   -0.0623    0.5593  737.8820 9820.9850   -1.2700    2.8343 346.88 346.9 116.2 10     0.0000    0.0305
ML13         ?    BHZ  i P      c 20230921 1804    9.6515 GAU  1.59e-03 -1.00e+00 -1.00e+00 -1.00e+00    1.0000 >    1.0405   -0.0625    0.4518  737.1780 9821.5410   -1.2220    3.5795 337.89 337.9 111.5 10     0.0000    0.0208
ML13         ?    BHE  e S      ? 20230921 1804   10.3654 GAU  1.08e-03 -1.00e+00 -1.00e+00 -1.00e+00    1.0000 >    1.8179   -0.1260    0.1216  737.1780 9821.5410   -1.2220    3.5795 337.89 337.9 109.1 10     0.0000    0.0364
ML10         ?    BHZ  i P      d 20230921 1804    9.8169 GAU  1.39e-03 -1.00e+00  3.96e+02 -1.00e+00    1.0000 >    1.0718    0.0716    0.5052  736.5490 9821.3650   -1.2200    3.7104 327.82 327.8 110.6 10     0.0000    0.0214
ML10         ?    BHE  e S      ? 20230921 1804   10.6459 GAU  1.24e-03 -1.00e+00 -1.00e+00 -1.00e+00    1.0000 >    1.8726    0.0998    0.3831  736.5490 9821.3650   -1.2200    3.7104 327.82 327.8 108.2 10     0.0000    0.0375
ML05         ?    BHZ  i P      d 20230921 1804    9.9185 GAU  2.67e-03 -1.00e+00  3.22e+02 -1.00e+00    1.0000 >    1.2500   -0.0050    1.4141  736.2660 9822.0830   -1.1500    4.4711 329.65 329.6 106.0 10     0.0000    0.0250
ML05         ?    BHN  e S      ? 20230921 1804   10.7978 GAU  4.60e-04 -1.00e+00  2.30e+02 -1.00e+00    1.0000 >    2.1845   -0.0603    0.6672  736.2660 9822.0830   -1.1500    4.4711 329.65 329.6 103.0 10     0.0000    0.0437
ML07         ?    BHZ  i P      c 20230921 1804   10.0010 GAU  3.71e-03 -1.00e+00 -1.00e+00 -1.00e+00    1.0000 >    1.3038    0.0237    1.3157  737.4430 9822.8030   -1.1120    4.7045 346.70 346.7 104.8 10     0.0000    0.0261
ML07         ?    BHN  e S      ? 20230921 1804   10.9552 GAU  3.55e-04 -1.00e+00 -1.00e+00 -1.00e+00    1.0000 >    2.2788    0.0029    1.1570  737.4430 9822.8030   -1.1120    4.7045 346.70 346.7 101.6 10     0.0000    0.0456
ML01         ?    BHZ  e P      d 20230921 1804   10.0241 GAU  4.02e-03 -1.00e+00  1.17e+03 -1.00e+00    1.0000 >    1.3244    0.0262    1.2798  736.4090 9822.5140   -1.1200    4.7830 333.74 333.7 104.5 10     0.0000    0.0265
ML01         ?    BHN  e S      ? 20230921 1804   11.0172 GAU  9.75e-04 -1.00e+00  1.76e+03 -1.00e+00    1.0000 >    2.3145    0.0292    1.0761  736.4090 9822.5140   -1.1200    4.7830 333.74 333.7 101.3 10     0.0000    0.0463
ML12         ?    BHZ  i P      c 20230921 1804   10.1484 GAU  5.10e-03 -1.00e+00 -1.00e+00 -1.00e+00    1.0000 >    1.4707    0.0041    1.3789  736.8520 9823.3800   -0.9890    5.4201 342.02 342.0 101.6 10     0.0000    0.0294
ML12         ?    BHN  e S      ? 20230921 1804   11.2235 GAU  1.88e-03 -1.00e+00 -1.00e+00 -1.00e+00    1.0000 >    2.5516   -0.0016    1.0870  736.8520 9823.3800   -0.9890    5.4201 342.02 342.0  67.2 10     0.0000    0.0510
END_PHASE
END_NLLOC

