NLLOC "./loc/SEML.20230928.091718.grid0" "LOCATED" "Location completed."
PUBLIC_ID None
SIGNATURE "Arham Zakki Edelo - edelo.17034@mhs.its.ac.id   obs:./obs/2023_09.obs   NLLoc:v7.00.10(30Aug2020)   run:22Jan2024 21h56m46"
COMMENT "SEML"
GRID  2001 2001 1001  727 9811 -2  0.01 0.01 0.01 PROB_DENSITY
SEARCH OCTREE nInitial 4851 nEvaluated 20003 smallestNodeSide 0.014881/0.014881/0.014205 oct_tree_integral 2.791136e-02 scatter_volume 2.791136e-02
HYPOCENTER  x 737.171 y 9818.52 z 1.00426  OT 17.3586  ix -1 iy -1 iz -1 MAXIMUM_LIKELIHOOD
GEOGRAPHIC  OT 2023 09 28  09 17 17.358584  Lat 9818.522321 Long 737.171131 Depth 1.004261
QUALITY  Pmax 1.69298e+29 MFmin 37.442 MFmax 45.9298 RMS 0.0133455 Nphs 10 Gap 297.702 Dist 1.28478 Mamp -9.90 0 Mdur -9.90 0
VPVSRATIO  VpVsRatio 1.96762  Npair 5  Diff 0.197775
STATISTICS  ExpectX 737.140615 Y 9818.482442 Z 0.960953  CovXX 0.0398723 XY 0.013488 XZ 0.0257892 YY 0.0204478 YZ 0.00827657 ZZ 0.0373551 EllAz1  127.409 Dip1  -30.125 Len1  0.194505 Az2  13.2088 Dip2  -35.2391 Len2  0.24931 Len3  4.947786e-01
STAT_GEOG  ExpectLat 9818.482442 Long 737.140615 Depth 0.960953
TRANSFORM  NONE
QML_OriginQuality  assocPhCt 10  usedPhCt 10  assocStaCt -1  usedStaCt 5  depthPhCt -1  stdErr 0.0133455  azGap 297.702  secAzGap 297.702  gtLevel -  minDist 1.28478 maxDist 3.01869 medDist 2.35606
QML_OriginUncertainty  horUnc -1  minHorUnc 0.176465  maxHorUnc 0.328018  azMaxHorUnc 62.8782
QML_ConfidenceEllipsoid  semiMajorAxisLength 0.494779  semiMinorAxisLength 0.194505  semiIntermediateAxisLength 0.24931  majorAxisPlunge 40.1172  majorAxisAzimuth 66.6787  majorAxisRotation 281.034
FOCALMECH  Hyp  9818.522321 737.171131 1.004261 Mech  0 0 0 mf  0 nObs -1
PHASE ID Ins Cmp On Pha  FM Date     HrMn   Sec     Err  ErrMag    Coda      Amp       Per       PriorWt  >   TTpred    Res       Weight    StaLoc(X  Y         Z)        SDist    SAzim  RAz  RDip RQual    Tcorr       TTerr
ML06         ?    BHZ  i P      c 20230928 0917   18.0741 GAU  1.05e-03 -1.00e+00 -1.00e+00 -1.00e+00    1.0000 >    0.7179   -0.0024    1.4238  738.3100 9819.1170   -1.3960    1.2848  62.43  62.4 149.1  9     0.0000    0.0144
ML06         ?    BHE  e S      ? 20230928 0917   18.5840 GAU  1.50e-03 -1.00e+00  2.89e+01 -1.00e+00    1.0000 >    1.2307   -0.0053    1.1876  738.3100 9819.1170   -1.3960    1.2848  62.43  62.4 147.4  9     0.0000    0.0246
ML14         ?    BHZ  e P      d 20230928 0917   18.1110 GAU  4.05e-03 -1.00e+00  8.08e+02 -1.00e+00    1.0000 >    0.7519    0.0005    1.4124  737.5530 9820.0110   -1.3980    1.5369  14.39  14.4 144.1  9     0.0000    0.0150
ML14         ?    BHN  i S      ? 20230928 0917   18.6640 GAU  1.31e-03 -1.00e+00  3.34e+02 -1.00e+00    1.0000 >    1.2888    0.0166    1.0827  737.5530 9820.0110   -1.3980    1.5369  14.39  14.4 142.1  9     0.0000    0.0258
ML11         ?    BHZ  e P      d 20230928 0917   18.2366 GAU  8.38e-04 -1.00e+00  7.25e+01 -1.00e+00    1.0000 >    0.8692    0.0088    1.3099  738.4670 9820.4900   -1.3120    2.3561  33.37  33.4 129.0  9     0.0000    0.0174
ML11         ?    BHE  e S      ? 20230928 0917   18.8451 GAU  1.61e-04 -1.00e+00 -1.00e+00 -1.00e+00    1.0000 >    1.4884   -0.0019    1.1037  738.4670 9820.4900   -1.3120    2.3561  33.37  33.4 125.7  9     0.0000    0.0298
ML09         ?    BHZ  i P      c 20230928 0917   18.3227 GAU  6.14e-04 -1.00e+00  5.44e+01 -1.00e+00    1.0000 >    0.9007    0.0634    0.1949  737.8820 9820.9850   -1.2700    2.5632  16.10  16.1 125.3  9     0.0000    0.0180
ML09         ?    BHN  e S      ? 20230928 0917   19.0304 GAU  3.90e-04 -1.00e+00  4.91e+02 -1.00e+00    1.0000 >    1.5417    0.1302    0.0343  737.8820 9820.9850   -1.2700    2.5632  16.10  16.1 121.6  9     0.0000    0.0308
ML13         ?    BHZ  e P      d 20230928 0917   18.3368 GAU  1.05e-03 -1.00e+00  3.44e+01 -1.00e+00    1.0000 >    0.9850   -0.0068    1.2739  737.1780 9821.5410   -1.2220    3.0187   0.13   0.1 118.6  9     0.0000    0.0197
ML13         ?    BHE  e S      ? 20230928 0917   19.0314 GAU  2.30e-04 -1.00e+00 -1.00e+00 -1.00e+00    1.0000 >    1.6843   -0.0115    0.9769  737.1780 9821.5410   -1.2220    3.0187   0.13   0.1 114.1  9     0.0000    0.0337
END_PHASE
END_NLLOC

