NLLOC "./loc/SEML.20230928.075936.grid0" "LOCATED" "Location completed."
PUBLIC_ID None
SIGNATURE "Arham Zakki Edelo - edelo.17034@mhs.its.ac.id   obs:./obs/2023_09.obs   NLLoc:v7.00.10(30Aug2020)   run:22Jan2024 21h55m53"
COMMENT "SEML"
GRID  2001 2001 1001  727 9811 -2  0.01 0.01 0.01 PROB_DENSITY
SEARCH OCTREE nInitial 4851 nEvaluated 20011 smallestNodeSide 0.014881/0.014881/0.014205 oct_tree_integral 5.341327e-02 scatter_volume 5.341327e-02
HYPOCENTER  x 739.612 y 9818.15 z -1.02699  OT 35.8985  ix -1 iy -1 iz -1 MAXIMUM_LIKELIHOOD
GEOGRAPHIC  OT 2023 09 28  07 59 35.898457  Lat 9818.150298 Long 739.611607 Depth -1.026989
QUALITY  Pmax 7.22732e+62 MFmin 72.924 MFmax 85.4945 RMS 0.0360814 Nphs 20 Gap 317.604 Dist 1.62132 Mamp -9.90 0 Mdur -9.90 0
VPVSRATIO  VpVsRatio 1.74678  Npair 10  Diff 0.511677
STATISTICS  ExpectX 739.550191 Y 9818.155882 Z -1.079384  CovXX 0.0380415 XY 0.00826958 XZ -0.0784238 YY 0.0172756 YZ -0.0351295 ZZ 0.271319 EllAz1  33.9295 Dip1  15.6477 Len1  0.196869 Az2  306.572 Dip2  -9.3468 Len2  0.236415 Len3  1.028773e+00
STAT_GEOG  ExpectLat 9818.155882 Long 739.550191 Depth -1.079384
TRANSFORM  NONE
QML_OriginQuality  assocPhCt 20  usedPhCt 20  assocStaCt -1  usedStaCt 10  depthPhCt -1  stdErr 0.0360814  azGap 317.604  secAzGap 317.604  gtLevel -  minDist 1.62132 maxDist 5.16326 medDist 3.29319
QML_OriginUncertainty  horUnc -1  minHorUnc 0.181893  maxHorUnc 0.306829  azMaxHorUnc 70.7321
QML_ConfidenceEllipsoid  semiMajorAxisLength 1.02877  semiMinorAxisLength 0.196869  semiIntermediateAxisLength 0.236415  majorAxisPlunge -71.6486  majorAxisAzimuth 66.3206  majorAxisRotation 244.231
FOCALMECH  Hyp  9818.150298 739.611607 -1.026989 Mech  0 0 0 mf  0 nObs -1
PHASE ID Ins Cmp On Pha  FM Date     HrMn   Sec     Err  ErrMag    Coda      Amp       Per       PriorWt  >   TTpred    Res       Weight    StaLoc(X  Y         Z)        SDist    SAzim  RAz  RDip RQual    Tcorr       TTerr
ML06         ?    BHZ  i P      c 20230928 0759   36.6061 GAU  1.03e-03 -1.00e+00 -1.00e+00 -1.00e+00    1.0000 >    0.4571    0.2506    0.0369  738.3100 9819.1170   -1.3960    1.6213 306.60 306.6 102.9 10     0.0000    0.0091
ML06         ?    BHN  i S      ? 20230928 0759   37.1117 GAU  9.74e-04 -1.00e+00  1.39e+00 -1.00e+00    1.0000 >    0.7886    0.4246    0.0000  738.3100 9819.1170   -1.3960    1.6213 306.60 306.6 102.9 10     0.0000    0.0158
ML11         ?    BHZ  i P      c 20230928 0759   36.7193 GAU  7.19e-04 -1.00e+00 -1.00e+00 -1.00e+00    1.0000 >    0.7201    0.1008    0.1785  738.4670 9820.4900   -1.3120    2.6047 333.93 333.9  96.4 10     0.0000    0.0144
ML11         ?    BHN  e S      ? 20230928 0759   37.3394 GAU  6.43e-04 -1.00e+00 -1.00e+00 -1.00e+00    1.0000 >    1.2423    0.1987    0.0396  738.4670 9820.4900   -1.3120    2.6047 333.93 333.9  96.4 10     0.0000    0.0248
ML04         ?    BHZ  e P      c 20230928 0759   36.6588 GAU  1.40e-03 -1.00e+00 -1.00e+00 -1.00e+00    1.0000 >    0.7586    0.0017    1.8735  737.1400 9819.2520   -1.5710    2.7060 294.02 294.0 101.5 10     0.0000    0.0152
ML04         ?    BHN  e S      ? 20230928 0759   37.2102 GAU  4.16e-04 -1.00e+00  7.02e+02 -1.00e+00    1.0000 >    1.3087    0.0031    1.7019  737.1400 9819.2520   -1.5710    2.7060 294.02 294.0 101.5 10     0.0000    0.0262
ML14         ?    BHZ  e P      c 20230928 0759   36.6327 GAU  2.43e-03 -1.00e+00 -1.00e+00 -1.00e+00    1.0000 >    0.7694   -0.0352    1.2365  737.5530 9820.0110   -1.3980    2.7749 312.11 312.1  97.8 10     0.0000    0.0154
ML14         ?    BHN  e S      ? 20230928 0759   37.1484 GAU  1.30e-03 -1.00e+00  3.04e+02 -1.00e+00    1.0000 >    1.3273   -0.0774    0.5927  737.5530 9820.0110   -1.3980    2.7749 312.11 312.1  97.8 10     0.0000    0.0265
ML02         ?    BHZ  e P      c 20230928 0759   36.7994 GAU  6.24e-04 -1.00e+00 -1.00e+00 -1.00e+00    1.0000 >    0.9067   -0.0057    1.8507  736.5970 9819.4060   -1.4960    3.2657 292.61 292.6  98.3 10     0.0000    0.0181
ML02         ?    BHE  e S      ? 20230928 0759   37.4699 GAU  1.40e-03 -1.00e+00 -1.00e+00 -1.00e+00    1.0000 >    1.5641    0.0073    1.5849  736.5970 9819.4060   -1.4960    3.2657 292.61 292.6  98.3 10     0.0000    0.0313
ML09         ?    BHZ  i P      c 20230928 0759   36.8229 GAU  1.88e-04 -1.00e+00  1.59e+02 -1.00e+00    1.0000 >    0.9149    0.0095    1.7429  737.8820 9820.9850   -1.2700    3.3207 328.61 328.6  93.2  9     0.0000    0.0183
ML09         ?    BHE  e S      ? 20230928 0759   37.4656 GAU  3.61e-04 -1.00e+00  4.09e+02 -1.00e+00    1.0000 >    1.5784   -0.0113    1.6096  737.8820 9820.9850   -1.2700    3.3207 328.61 328.6  94.4 10     0.0000    0.0316
ML13         ?    BHZ  i P      c 20230928 0759   36.9426 GAU  1.20e-03 -1.00e+00 -1.00e+00 -1.00e+00    1.0000 >    1.1463   -0.1021    0.3052  737.1780 9821.5410   -1.2220    4.1736 324.33 324.3  82.7 10     0.0000    0.0229
ML13         ?    BHE  e S      ? 20230928 0759   37.6515 GAU  5.40e-04 -1.00e+00 -1.00e+00 -1.00e+00    1.0000 >    1.9804   -0.2274    0.0066  737.1780 9821.5410   -1.2220    4.1736 324.33 324.3  89.3  9     0.0000    0.0396
ML10         ?    BHZ  e P      c 20230928 0759   37.1714 GAU  2.55e-03 -1.00e+00  4.91e+02 -1.00e+00    1.0000 >    1.2188    0.0542    0.7255  736.5490 9821.3650   -1.2200    4.4400 316.39 316.4  82.7 10     0.0000    0.0244
ML10         ?    BHE  e S      ? 20230928 0759   38.0605 GAU  6.84e-04 -1.00e+00 -1.00e+00 -1.00e+00    1.0000 >    2.1062    0.0559    0.8926  736.5490 9821.3650   -1.2200    4.4400 316.39 316.4  86.6  9     0.0000    0.0421
ML07         ?    BHZ  i P      c 20230928 0759   37.3065 GAU  9.19e-04 -1.00e+00 -1.00e+00 -1.00e+00    1.0000 >    1.4039    0.0041    1.6615  737.4430 9822.8030   -1.1120    5.1333 335.01 335.0  82.7 10     0.0000    0.0281
ML07         ?    BHN  e S      ? 20230928 0759   38.3237 GAU  2.00e-04 -1.00e+00 -1.00e+00 -1.00e+00    1.0000 >    2.4282   -0.0030    1.3655  737.4430 9822.8030   -1.1120    5.1333 335.01 335.0  84.4 10     0.0000    0.0486
ML05         ?    BHZ  i P      c 20230928 0759   37.2864 GAU  3.61e-04 -1.00e+00 -1.00e+00 -1.00e+00    1.0000 >    1.4134   -0.0255    1.5070  736.2660 9822.0830   -1.1500    5.1633 319.61 319.6  82.7 10     0.0000    0.0283
ML05         ?    BHE  e S      ? 20230928 0759   38.2927 GAU  6.24e-04 -1.00e+00 -1.00e+00 -1.00e+00    1.0000 >    2.4441   -0.0499    1.0883  736.2660 9822.0830   -1.1500    5.1633 319.61 319.6  84.4 10     0.0000    0.0489
END_PHASE
END_NLLOC

