NLLOC "./loc/SEML.20230914.163448.grid0" "LOCATED" "Location completed."
PUBLIC_ID None
SIGNATURE "Arham Zakki Edelo - edelo.17034@mhs.its.ac.id   obs:./obs/2023_09.obs   NLLoc:v7.00.10(30Aug2020)   run:22Jan2024 21h54m46"
COMMENT "SEML"
GRID  2001 2001 1001  727 9811 -2  0.01 0.01 0.01 PROB_DENSITY
SEARCH OCTREE nInitial 4851 nEvaluated 20011 smallestNodeSide 0.014881/0.014881/0.014205 oct_tree_integral 3.592050e-02 scatter_volume 3.586009e-02
HYPOCENTER  x 738.317 y 9818.75 z 0.464489  OT 47.5667  ix -1 iy -1 iz -1 MAXIMUM_LIKELIHOOD
GEOGRAPHIC  OT 2023 09 14  16 34 47.566675  Lat 9818.745536 Long 738.316964 Depth 0.464489
QUALITY  Pmax 1.6281e+44 MFmin 53.6905 MFmax 68.5374 RMS 0.0204118 Nphs 14 Gap 323.965 Dist 0.37153 Mamp -9.90 0 Mdur -9.90 0
VPVSRATIO  VpVsRatio 1.77015  Npair 7  Diff 0.575291
STATISTICS  ExpectX 738.238387 Y 9818.744705 Z 0.558689  CovXX 0.0449443 XY 0.00158203 XZ 0.0071528 YY 0.0150246 YZ -0.00253682 ZZ 0.0184073 EllAz1  168.06 Dip1  -35.4539 Len1  0.212928 Az2  196.263 Dip2  51.0616 Len2  0.257314 Len3  4.063486e-01
STAT_GEOG  ExpectLat 9818.744705 Long 738.238387 Depth 0.558689
TRANSFORM  NONE
QML_OriginQuality  assocPhCt 14  usedPhCt 14  assocStaCt -1  usedStaCt 7  depthPhCt -1  stdErr 0.0204118  azGap 323.965  secAzGap 323.965  gtLevel -  minDist 0.37153 maxDist 4.86049 medDist 2.28131
QML_OriginUncertainty  horUnc -1  minHorUnc 0.185377  maxHorUnc 0.321813  azMaxHorUnc 86.9816
QML_ConfidenceEllipsoid  semiMajorAxisLength 0.406349  semiMinorAxisLength 0.212928  semiIntermediateAxisLength 0.257314  majorAxisPlunge 14.0014  majorAxisAzimuth 88.2877  majorAxisRotation 319.815
FOCALMECH  Hyp  9818.745536 738.316964 0.464489 Mech  0 0 0 mf  0 nObs -1
PHASE ID Ins Cmp On Pha  FM Date     HrMn   Sec     Err  ErrMag    Coda      Amp       Per       PriorWt  >   TTpred    Res       Weight    StaLoc(X  Y         Z)        SDist    SAzim  RAz  RDip RQual    Tcorr       TTerr
ML06         ?    BHZ  i P      c 20230914 1634   48.0678 GAU  7.76e-04 -1.00e+00 -1.00e+00 -1.00e+00    1.0000 >    0.5047   -0.0035    1.5221  738.3100 9819.1170   -1.3960    0.3715 358.93 358.9 168.3 10     0.0000    0.0101
ML06         ?    BHE  e S      ? 20230914 1634   48.5035 GAU  4.99e-04 -1.00e+00 -1.00e+00 -1.00e+00    1.0000 >    0.8801    0.0567    0.3154  738.3100 9819.1170   -1.3960    0.3715 358.93 358.9 168.1 10     0.0000    0.0176
ML14         ?    BHZ  e P      d 20230914 1634   48.2065 GAU  1.81e-03 -1.00e+00  9.05e+02 -1.00e+00    1.0000 >    0.6322    0.0077    1.4227  737.5530 9820.0110   -1.3980    1.4782 328.88 328.9 140.4 10     0.0000    0.0126
ML14         ?    BHE  e S      ? 20230914 1634   48.6705 GAU  8.98e-04 -1.00e+00  4.41e+02 -1.00e+00    1.0000 >    1.1025    0.0014    1.3311  737.5530 9820.0110   -1.3980    1.4782 328.88 328.9 139.8 10     0.0000    0.0220
ML11         ?    BHZ  e P      c 20230914 1634   48.2292 GAU  1.55e-03 -1.00e+00 -1.00e+00 -1.00e+00    1.0000 >    0.6618    0.0007    1.5015  738.4670 9820.4900   -1.3120    1.7509   4.92   4.9 134.0 10     0.0000    0.0132
ML11         ?    BHN  e S      ? 20230914 1634   48.7280 GAU  2.30e-04 -1.00e+00 -1.00e+00 -1.00e+00    1.0000 >    1.1549    0.0064    1.2802  738.4670 9820.4900   -1.3120    1.7509   4.92   4.9 133.2 10     0.0000    0.0231
ML09         ?    BHZ  i P      c 20230914 1634   48.2809 GAU  9.41e-04 -1.00e+00  1.72e+02 -1.00e+00    1.0000 >    0.7598   -0.0455    0.6053  737.8820 9820.9850   -1.2700    2.2813 349.01 349.0 125.3 10     0.0000    0.0152
ML09         ?    BHE  e S      ? 20230914 1634   48.8653 GAU  1.74e-04 -1.00e+00  3.49e+02 -1.00e+00    1.0000 >    1.3261   -0.0275    1.0357  737.8820 9820.9850   -1.2700    2.2813 349.01 349.0 124.1 10     0.0000    0.0265
ML13         ?    BHZ  e P      d 20230914 1634   48.4395 GAU  5.62e-04 -1.00e+00  1.06e+02 -1.00e+00    1.0000 >    0.9156   -0.0428    0.7001  737.1780 9821.5410   -1.2220    3.0186 337.83 337.8 116.8 10     0.0000    0.0183
ML13         ?    BHE  e S      ? 20230914 1634   49.0556 GAU  4.32e-04 -1.00e+00 -1.00e+00 -1.00e+00    1.0000 >    1.5986   -0.1097    0.0833  737.1780 9821.5410   -1.2220    3.0186 337.83 337.8 115.1 10     0.0000    0.0320
ML07         ?    BHZ  i P      c 20230914 1634   48.7381 GAU  1.78e-03 -1.00e+00 -1.00e+00 -1.00e+00    1.0000 >    1.1717   -0.0003    1.3093  737.4430 9822.8030   -1.1120    4.1505 347.84 347.8 108.1 10     0.0000    0.0234
ML07         ?    BHE  e S      ? 20230914 1634   49.6443 GAU  3.34e-04 -1.00e+00 -1.00e+00 -1.00e+00    1.0000 >    2.0466    0.0310    0.8408  737.4430 9822.8030   -1.1120    4.1505 347.84 347.8  93.5  8     0.0000    0.0409
ML12         ?    BHZ  i P      c 20230914 1634   48.8985 GAU  6.17e-04 -1.00e+00 -1.00e+00 -1.00e+00    1.0000 >    1.3339   -0.0021    1.2548  736.8520 9823.3800   -0.9890    4.8605 342.46 342.5 104.2 10     0.0000    0.0267
ML12         ?    BHE  e S      ? 20230914 1634   49.9094 GAU  3.90e-04 -1.00e+00  5.23e+01 -1.00e+00    1.0000 >    2.3101    0.0327    0.7976  736.8520 9823.3800   -0.9890    4.8605 342.46 342.5  67.2 10     0.0000    0.0462
END_PHASE
END_NLLOC

