NLLOC "./loc/SEML.20230928.081307.grid0" "LOCATED" "Location completed."
PUBLIC_ID None
SIGNATURE "Arham Zakki Edelo - edelo.17034@mhs.its.ac.id   obs:./obs/2023_09.obs   NLLoc:v7.00.10(30Aug2020)   run:22Jan2024 21h55m59"
COMMENT "SEML"
GRID  2001 2001 1001  727 9811 -2  0.01 0.01 0.01 PROB_DENSITY
SEARCH OCTREE nInitial 4851 nEvaluated 20019 smallestNodeSide 0.014881/0.014881/0.014205 oct_tree_integral 4.718987e-02 scatter_volume 4.718987e-02
HYPOCENTER  x 738.808 y 9818.17 z -0.00426136  OT 6.84071  ix -1 iy -1 iz -1 MAXIMUM_LIKELIHOOD
GEOGRAPHIC  OT 2023 09 28  08 13 6.840710  Lat 9818.165179 Long 738.808036 Depth -0.004261
QUALITY  Pmax 3.69467e+73 MFmin 81.3745 MFmax 100.501 RMS 0.0373609 Nphs 22 Gap 307.646 Dist 1.07425 Mamp -9.90 0 Mdur -9.90 0
VPVSRATIO  VpVsRatio 1.7618  Npair 11  Diff 0.57479
STATISTICS  ExpectX 738.895910 Y 9818.196286 Z -0.080116  CovXX 0.0397143 XY 0.00393254 XZ -0.0319185 YY 0.013469 YZ -0.00128828 ZZ 0.0675544 EllAz1  340.43 Dip1  -9.73369 Len1  0.208419 Az2  244.377 Dip2  -31.583 Len2  0.26462 Len3  5.592330e-01
STAT_GEOG  ExpectLat 9818.196286 Long 738.895910 Depth -0.080116
TRANSFORM  NONE
QML_OriginQuality  assocPhCt 22  usedPhCt 22  assocStaCt -1  usedStaCt 11  depthPhCt -1  stdErr 0.0373609  azGap 307.646  secAzGap 307.646  gtLevel -  minDist 1.07425 maxDist 4.96665 medDist 2.96799
QML_OriginUncertainty  horUnc -1  minHorUnc 0.172199  maxHorUnc 0.304416  azMaxHorUnc 81.6589
QML_ConfidenceEllipsoid  semiMajorAxisLength 0.559233  semiMinorAxisLength 0.208419  semiIntermediateAxisLength 0.26462  majorAxisPlunge -56.6092  majorAxisAzimuth 85.5148  majorAxisRotation 140.688
FOCALMECH  Hyp  9818.165179 738.808036 -0.004261 Mech  0 0 0 mf  0 nObs -1
PHASE ID Ins Cmp On Pha  FM Date     HrMn   Sec     Err  ErrMag    Coda      Amp       Per       PriorWt  >   TTpred    Res       Weight    StaLoc(X  Y         Z)        SDist    SAzim  RAz  RDip RQual    Tcorr       TTerr
ML06         ?    BHZ  i P      c 20230928 0813    7.4325 GAU  6.47e-04 -1.00e+00  2.79e+02 -1.00e+00    1.0000 >    0.4718    0.1200    0.0189  738.3100 9819.1170   -1.3960    1.0742 332.38 332.4 140.9 10     0.0000    0.0094
ML06         ?    BHE  e S      ? 20230928 0813    7.9093 GAU  8.63e-04 -1.00e+00 -1.00e+00 -1.00e+00    1.0000 >    0.8265    0.2421    0.0000  738.3100 9819.1170   -1.3960    1.0742 332.38 332.4 141.4  9     0.0000    0.0165
ML04         ?    BHZ  e P      c 20230928 0813    7.4833 GAU  2.24e-03 -1.00e+00 -1.00e+00 -1.00e+00    1.0000 >    0.6814   -0.0388    1.2782  737.1400 9819.2520   -1.5710    1.9909 303.09 303.1 125.3 10     0.0000    0.0136
ML04         ?    BHN  e S      ? 20230928 0813    7.9664 GAU  1.75e-03 -1.00e+00  5.90e+02 -1.00e+00    1.0000 >    1.1920   -0.0663    0.9659  737.1400 9819.2520   -1.5710    1.9909 303.09 303.1 126.3  9     0.0000    0.0238
ML14         ?    BHZ  i P      c 20230928 0813    7.5422 GAU  2.54e-03 -1.00e+00  2.13e+02 -1.00e+00    1.0000 >    0.7059   -0.0044    1.5303  737.5530 9820.0110   -1.3980    2.2321 325.79 325.8 118.7 10     0.0000    0.0141
ML14         ?    BHE  e S      ? 20230928 0813    8.0487 GAU  1.12e-03 -1.00e+00  6.63e+02 -1.00e+00    1.0000 >    1.2373   -0.0293    1.4127  737.5530 9820.0110   -1.3980    2.2321 325.79 325.8 119.6  9     0.0000    0.0247
ML11         ?    BHZ  i P      c 20230928 0813    7.5703 GAU  1.04e-03 -1.00e+00 -1.00e+00 -1.00e+00    1.0000 >    0.7201    0.0094    1.4058  738.4670 9820.4900   -1.3120    2.3497 351.65 351.7 115.7 10     0.0000    0.0144
ML11         ?    BHN  e S      ? 20230928 0813    8.1290 GAU  1.86e-03 -1.00e+00  1.19e+01 -1.00e+00    1.0000 >    1.2638    0.0245    1.0447  738.4670 9820.4900   -1.3120    2.3497 351.65 351.7 116.5  9     0.0000    0.0253
ML02         ?    BHZ  e P      d 20230928 0813    7.6289 GAU  6.79e-04 -1.00e+00 -1.00e+00 -1.00e+00    1.0000 >    0.7902   -0.0020    1.5216  736.5970 9819.4060   -1.4960    2.5354 299.30 299.3 116.9 10     0.0000    0.0158
ML02         ?    BHE  e S      ? 20230928 0813    8.2461 GAU  4.37e-04 -1.00e+00  2.01e+03 -1.00e+00    1.0000 >    1.3838    0.0216    1.0948  736.5970 9819.4060   -1.4960    2.5354 299.30 299.3 117.9  9     0.0000    0.0277
ML09         ?    BHZ  i P      c 20230928 0813    7.6506 GAU  1.33e-03 -1.00e+00  3.69e+01 -1.00e+00    1.0000 >    0.8628   -0.0529    1.1415  737.8820 9820.9850   -1.2700    2.9680 341.82 341.8 109.0 10     0.0000    0.0173
ML09         ?    BHE  e S      ? 20230928 0813    8.2981 GAU  1.81e-03 -1.00e+00  4.87e+02 -1.00e+00    1.0000 >    1.5161   -0.0586    1.0867  737.8820 9820.9850   -1.2700    2.9680 341.82 341.8 109.6  9     0.0000    0.0303
ML13         ?    BHZ  i P      c 20230928 0813    7.7852 GAU  1.08e-03 -1.00e+00 -1.00e+00 -1.00e+00    1.0000 >    1.0515   -0.1070    0.3613  737.1780 9821.5410   -1.2220    3.7488 334.23 334.2 103.5 10     0.0000    0.0210
ML13         ?    BHN  e S      ? 20230928 0813    8.4895 GAU  1.29e-03 -1.00e+00 -1.00e+00 -1.00e+00    1.0000 >    1.8510   -0.2022    0.0333  737.1780 9821.5410   -1.2220    3.7488 334.23 334.2 102.0  9     0.0000    0.0370
ML10         ?    BHZ  e P      d 20230928 0813    7.9448 GAU  6.63e-04 -1.00e+00  2.97e+03 -1.00e+00    1.0000 >    1.0937    0.0105    1.3323  736.5490 9821.3650   -1.2200    3.9169 324.78 324.8 102.7 10     0.0000    0.0219
ML10         ?    BHN  e S      ? 20230928 0813    8.7613 GAU  5.61e-04 -1.00e+00 -1.00e+00 -1.00e+00    1.0000 >    1.9256   -0.0050    1.2935  736.5490 9821.3650   -1.2200    3.9169 324.78 324.8  98.5  9     0.0000    0.0385
ML05         ?    BHZ  i P      d 20230928 0813    8.0877 GAU  2.41e-03 -1.00e+00  9.76e+01 -1.00e+00    1.0000 >    1.2780   -0.0310    1.3972  736.2660 9822.0830   -1.1500    4.6703 327.02 327.0  99.3  9     0.0000    0.0256
ML05         ?    BHE  e S      ? 20230928 0813    9.0669 GAU  8.74e-04 -1.00e+00 -1.00e+00 -1.00e+00    1.0000 >    2.2500   -0.0238    1.2451  736.2660 9822.0830   -1.1500    4.6703 327.02 327.0  77.9  8     0.0000    0.0450
ML07         ?    BHZ  i P      d 20230928 0813    8.0909 GAU  6.29e-04 -1.00e+00 -1.00e+00 -1.00e+00    1.0000 >    1.3163   -0.0661    0.9781  737.4430 9822.8030   -1.1120    4.8345 343.60 343.6  98.6  9     0.0000    0.0263
ML07         ?    BHE  e S      ? 20230928 0813    9.0528 GAU  5.42e-04 -1.00e+00 -1.00e+00 -1.00e+00    1.0000 >    2.3169   -0.1048    0.5739  737.4430 9822.8030   -1.1120    4.8345 343.60 343.6  77.9  8     0.0000    0.0463
ML01         ?    BHZ  i P      d 20230928 0813    8.1952 GAU  2.53e-04 -1.00e+00  1.23e+03 -1.00e+00    1.0000 >    1.3509    0.0036    1.3675  736.4090 9822.5140   -1.1200    4.9667 331.12 331.1  98.3  9     0.0000    0.0270
ML01         ?    BHE  e S      ? 20230928 0813    9.2467 GAU  1.47e-03 -1.00e+00  5.49e+02 -1.00e+00    1.0000 >    2.3769    0.0292    0.9167  736.4090 9822.5140   -1.1200    4.9667 331.12 331.1  77.9  8     0.0000    0.0475
END_PHASE
END_NLLOC

