NLLOC "./loc/SEML.20230928.081558.grid0" "LOCATED" "Location completed."
PUBLIC_ID None
SIGNATURE "Arham Zakki Edelo - edelo.17034@mhs.its.ac.id   obs:./obs/2023_09.obs   NLLoc:v7.00.10(30Aug2020)   run:22Jan2024 21h56m01"
COMMENT "SEML"
GRID  2001 2001 1001  727 9811 -2  0.01 0.01 0.01 PROB_DENSITY
SEARCH OCTREE nInitial 4851 nEvaluated 20003 smallestNodeSide 0.014881/0.014881/0.014205 oct_tree_integral 2.964996e-02 scatter_volume 2.948478e-02
HYPOCENTER  x 738.615 y 9817.87 z -0.629261  OT 58.1959  ix -1 iy -1 iz -1 MAXIMUM_LIKELIHOOD
GEOGRAPHIC  OT 2023 09 28  08 15 58.195898  Lat 9817.867560 Long 738.614583 Depth -0.629261
QUALITY  Pmax 1.64831e+56 MFmin 69.2462 MFmax 82.334 RMS 0.0324739 Nphs 18 Gap 310.547 Dist 1.28603 Mamp -9.90 0 Mdur -9.90 0
VPVSRATIO  VpVsRatio 1.68599  Npair 9  Diff 0.472153
STATISTICS  ExpectX 738.555783 Y 9818.063728 Z -0.266017  CovXX 0.145712 XY -0.0224549 XZ -0.0969975 YY 0.0474282 YZ 0.0831121 ZZ 0.220668 EllAz1  349.78 Dip1  -25.3296 Len1  0.201509 Az2  247.643 Dip2  -23.9507 Len2  0.5633 Len3  1.050158e+00
STAT_GEOG  ExpectLat 9818.063728 Long 738.555783 Depth -0.266017
TRANSFORM  NONE
QML_OriginQuality  assocPhCt 18  usedPhCt 18  assocStaCt -1  usedStaCt 9  depthPhCt -1  stdErr 0.0324739  azGap 310.547  secAzGap 310.547  gtLevel -  minDist 1.28603 maxDist 5.07259 medDist 2.62659
QML_OriginUncertainty  horUnc -1  minHorUnc 0.312801  maxHorUnc 0.58854  azMaxHorUnc 102.279
QML_ConfidenceEllipsoid  semiMajorAxisLength 1.05016  semiMinorAxisLength 0.201509  semiIntermediateAxisLength 0.5633  majorAxisPlunge -53.8593  majorAxisAzimuth 120.18  majorAxisRotation 106.108
FOCALMECH  Hyp  9817.867560 738.614583 -0.629261 Mech  0 0 0 mf  0 nObs -1
PHASE ID Ins Cmp On Pha  FM Date     HrMn   Sec     Err  ErrMag    Coda      Amp       Per       PriorWt  >   TTpred    Res       Weight    StaLoc(X  Y         Z)        SDist    SAzim  RAz  RDip RQual    Tcorr       TTerr
ML06         ?    BHZ  i P      c 20230928 0815   58.8692 GAU  7.76e-04 -1.00e+00 -1.00e+00 -1.00e+00    1.0000 >    0.4099    0.2634    0.0427  738.3100 9819.1170   -1.3960    1.2860 346.30 346.3 120.3 10     0.0000    0.0082
ML06         ?    BHN  e S      ? 20230928 0815   59.3521 GAU  7.19e-04 -1.00e+00 -1.00e+00 -1.00e+00    1.0000 >    0.7084    0.4478    0.0000  738.3100 9819.1170   -1.3960    1.2860 346.30 346.3 120.5 10     0.0000    0.0142
ML04         ?    BHZ  e P      d 20230928 0815   58.9318 GAU  7.18e-04 -1.00e+00  1.15e+03 -1.00e+00    1.0000 >    0.6113    0.1246    0.0041  737.1400 9819.2520   -1.5710    2.0226 313.19 313.2 114.3 10     0.0000    0.0122
ML04         ?    BHN  e S      ? 20230928 0815   59.4715 GAU  8.36e-04 -1.00e+00  7.56e+02 -1.00e+00    1.0000 >    1.0560    0.2196    0.0428  737.1400 9819.2520   -1.5710    2.0226 313.19 313.2 114.6 10     0.0000    0.0211
ML14         ?    BHZ  e P      d 20230928 0815   58.8943 GAU  2.55e-03 -1.00e+00  9.16e+02 -1.00e+00    1.0000 >    0.6879    0.0105    1.7383  737.5530 9820.0110   -1.3980    2.3919 333.65 333.7 107.1 10     0.0000    0.0138
ML14         ?    BHN  e S      ? 20230928 0815   59.4004 GAU  1.23e-03 -1.00e+00  3.31e+02 -1.00e+00    1.0000 >    1.1888    0.0157    1.4598  737.5530 9820.0110   -1.3980    2.3919 333.65 333.7 107.4 10     0.0000    0.0238
ML02         ?    BHZ  e P      d 20230928 0815   58.9202 GAU  6.19e-04 -1.00e+00  9.54e+02 -1.00e+00    1.0000 >    0.7344   -0.0101    1.8175  736.5970 9819.4060   -1.4960    2.5372 307.33 307.3 108.1 10     0.0000    0.0147
ML02         ?    BHN  e S      ? 20230928 0815   59.4356 GAU  1.56e-03 -1.00e+00 -1.00e+00 -1.00e+00    1.0000 >    1.2689   -0.0292    1.3235  736.5970 9819.4060   -1.4960    2.5372 307.33 307.3 108.4 10     0.0000    0.0254
ML11         ?    BHZ  i P      c 20230928 0815   58.9370 GAU  1.19e-03 -1.00e+00 -1.00e+00 -1.00e+00    1.0000 >    0.7427   -0.0016    1.9093  738.4670 9820.4900   -1.3120    2.6266 356.78 356.8 103.8 10     0.0000    0.0149
ML11         ?    BHE  e S      ? 20230928 0815   59.4648 GAU  1.37e-03 -1.00e+00 -1.00e+00 -1.00e+00    1.0000 >    1.2838   -0.0148    1.5756  738.4670 9820.4900   -1.3120    2.6266 356.78 356.8 104.2 10     0.0000    0.0257
ML09         ?    BHZ  i P      c 20230928 0815   59.0954 GAU  1.76e-03 -1.00e+00  2.27e+02 -1.00e+00    1.0000 >    0.8934    0.0062    1.7748  737.8820 9820.9850   -1.2700    3.2024 346.78 346.8 100.5 10     0.0000    0.0179
ML09         ?    BHE  e S      ? 20230928 0815   59.7355 GAU  7.81e-04 -1.00e+00  4.07e+02 -1.00e+00    1.0000 >    1.5444   -0.0048    1.5269  737.8820 9820.9850   -1.2700    3.2024 346.78 346.8 100.9 10     0.0000    0.0309
ML13         ?    BHZ  e P      c 20230928 0815   59.2130 GAU  1.37e-03 -1.00e+00 -1.00e+00 -1.00e+00    1.0000 >    1.0904   -0.0733    0.4336  737.1780 9821.5410   -1.2220    3.9444 338.64 338.6  97.7 10     0.0000    0.0218
ML13         ?    BHE  e S      ? 20230928 0815   59.9265 GAU  2.38e-04 -1.00e+00 -1.00e+00 -1.00e+00    1.0000 >    1.8855   -0.1549    0.1202  737.1780 9821.5410   -1.2220    3.9444 338.64 338.6  98.1 10     0.0000    0.0377
ML05         ?    BHZ  i P      c 20230928 0815   59.5314 GAU  5.39e-04 -1.00e+00 -1.00e+00 -1.00e+00    1.0000 >    1.3177    0.0178    1.3732  736.2660 9822.0830   -1.1500    4.8255 330.88 330.9  72.0 10     0.0000    0.0264
ML05         ?    BHN  e S      ? 20230928 0816    0.4864 GAU  6.17e-04 -1.00e+00  2.93e+02 -1.00e+00    1.0000 >    2.2931   -0.0026    1.2382  736.2660 9822.0830   -1.1500    4.8255 330.88 330.9  95.8 10     0.0000    0.0459
ML07         ?    BHZ  e P      d 20230928 0815   59.5422 GAU  2.52e-04 -1.00e+00 -1.00e+00 -1.00e+00    1.0000 >    1.3783   -0.0319    1.2647  737.4430 9822.8030   -1.1120    5.0726 346.65 346.6  72.0 10     0.0000    0.0276
ML07         ?    BHE  e S      ? 20230928 0816    0.4887 GAU  3.34e-04 -1.00e+00 -1.00e+00 -1.00e+00    1.0000 >    2.4067   -0.1139    0.3547  737.4430 9822.8030   -1.1120    5.0726 346.65 346.6  95.1 10     0.0000    0.0481
END_PHASE
END_NLLOC

