NLLOC "./loc/SEML.20230914.172304.grid0" "LOCATED" "Location completed."
PUBLIC_ID None
SIGNATURE "Arham Zakki Edelo - edelo.17034@mhs.its.ac.id   obs:./obs/2023_09.obs   NLLoc:v7.00.10(30Aug2020)   run:22Jan2024 21h55m03"
COMMENT "SEML"
GRID  2001 2001 1001  727 9811 -2  0.01 0.01 0.01 PROB_DENSITY
SEARCH OCTREE nInitial 4851 nEvaluated 20003 smallestNodeSide 0.014881/0.014881/0.014205 oct_tree_integral 3.869361e-02 scatter_volume 3.869361e-02
HYPOCENTER  x 738.235 y 9817.56 z 0.144886  OT 3.43222  ix -1 iy -1 iz -1 MAXIMUM_LIKELIHOOD
GEOGRAPHIC  OT 2023 09 14  17 23 3.432217  Lat 9817.562500 Long 738.235119 Depth 0.144886
QUALITY  Pmax 4.41207e+82 MFmin 83.1957 MFmax 99.2313 RMS 0.0282327 Nphs 24 Gap 313.847 Dist 1.5563 Mamp -9.90 0 Mdur -9.90 0
VPVSRATIO  VpVsRatio 1.83988  Npair 12  Diff 0.672129
STATISTICS  ExpectX 738.217926 Y 9817.563237 Z 0.282551  CovXX 0.0324478 XY 0.00035155 XZ -0.0076159 YY 0.0138623 YZ -0.00244582 ZZ 0.0479592 EllAz1  0.644199 Dip1  4.22393 Len1  0.219795 Az2  272.353 Dip2  -21.9817 Len2  0.321914 Len3  4.252434e-01
STAT_GEOG  ExpectLat 9817.563237 Long 738.217926 Depth 0.282551
TRANSFORM  NONE
QML_OriginQuality  assocPhCt 24  usedPhCt 24  assocStaCt -1  usedStaCt 12  depthPhCt -1  stdErr 0.0282327  azGap 313.847  secAzGap 313.847  gtLevel -  minDist 1.5563 maxDist 5.97966 medDist 3.77861
QML_OriginUncertainty  horUnc -1  minHorUnc 0.178516  maxHorUnc 0.273213  azMaxHorUnc 88.9168
QML_ConfidenceEllipsoid  semiMajorAxisLength 0.425243  semiMinorAxisLength 0.219795  semiIntermediateAxisLength 0.321914  majorAxisPlunge -67.5741  majorAxisAzimuth 80.3352  majorAxisRotation 195.513
FOCALMECH  Hyp  9817.562500 738.235119 0.144886 Mech  0 0 0 mf  0 nObs -1
PHASE ID Ins Cmp On Pha  FM Date     HrMn   Sec     Err  ErrMag    Coda      Amp       Per       PriorWt  >   TTpred    Res       Weight    StaLoc(X  Y         Z)        SDist    SAzim  RAz  RDip RQual    Tcorr       TTerr
ML06         ?    BHZ  i P      d 20230914 1723    4.1295 GAU  5.62e-04 -1.00e+00  8.53e+02 -1.00e+00    1.0000 >    0.5854    0.1119    0.1192  738.3100 9819.1170   -1.3960    1.5563   2.76   2.8 132.8 10     0.0000    0.0117
ML06         ?    BHE  e S      ? 20230914 1723    4.6316 GAU  1.12e-03 -1.00e+00 -1.00e+00 -1.00e+00    1.0000 >    1.0239    0.1756    0.0106  738.3100 9819.1170   -1.3960    1.5563   2.76   2.8 131.6 10     0.0000    0.0205
ML04         ?    BHZ  i P      c 20230914 1723    4.1895 GAU  1.16e-03 -1.00e+00 -1.00e+00 -1.00e+00    1.0000 >    0.7090    0.0482    0.8761  737.1400 9819.2520   -1.5710    2.0134 327.05 327.0 127.9 10     0.0000    0.0142
ML04         ?    BHE  e S      ? 20230914 1723    4.6342 GAU  2.44e-04 -1.00e+00  1.15e+01 -1.00e+00    1.0000 >    1.2385   -0.0365    1.0303  737.1400 9819.2520   -1.5710    2.0134 327.05 327.0 126.7 10     0.0000    0.0248
ML02         ?    BHZ  i P      d 20230914 1723    4.2138 GAU  9.36e-04 -1.00e+00  3.94e+03 -1.00e+00    1.0000 >    0.7930   -0.0114    1.5389  736.5970 9819.4060   -1.4960    2.4662 318.38 318.4 120.5 10     0.0000    0.0159
ML02         ?    BHN  e S      ? 20230914 1723    4.8242 GAU  1.31e-03 -1.00e+00 -1.00e+00 -1.00e+00    1.0000 >    1.3861    0.0058    1.4968  736.5970 9819.4060   -1.4960    2.4662 318.38 318.4 118.8 10     0.0000    0.0277
ML14         ?    BHZ  i P      c 20230914 1723    4.2464 GAU  1.40e-03 -1.00e+00 -1.00e+00 -1.00e+00    1.0000 >    0.7946    0.0195    1.4905  737.5530 9820.0110   -1.3980    2.5417 344.43 344.4 118.1 10     0.0000    0.0159
ML14         ?    BHN  e S      ? 20230914 1723    4.8938 GAU  1.51e-03 -1.00e+00  7.63e+02 -1.00e+00    1.0000 >    1.3903    0.0713    0.5977  737.5530 9820.0110   -1.3980    2.5417 344.43 344.4 116.1 10     0.0000    0.0278
ML11         ?    BHZ  e P      c 20230914 1723    4.3047 GAU  1.54e-03 -1.00e+00 -1.00e+00 -1.00e+00    1.0000 >    0.8744   -0.0019    1.6170  738.4670 9820.4900   -1.3120    2.9367   4.53   4.5 112.9 10     0.0000    0.0175
ML11         ?    BHE  e S      ? 20230914 1723    4.9810 GAU  1.51e-03 -1.00e+00 -1.00e+00 -1.00e+00    1.0000 >    1.5314    0.0174    1.4006  738.4670 9820.4900   -1.3120    2.9367   4.53   4.5 110.1 10     0.0000    0.0306
ML09         ?    BHZ  i P      c 20230914 1723    4.4042 GAU  1.51e-03 -1.00e+00 -1.00e+00 -1.00e+00    1.0000 >    0.9909   -0.0189    1.3941  737.8820 9820.9850   -1.2700    3.4407 354.11 354.1 108.5 10     0.0000    0.0198
ML09         ?    BHN  e S      ? 20230914 1723    5.1612 GAU  3.90e-03 -1.00e+00  3.49e+02 -1.00e+00    1.0000 >    1.7364   -0.0075    1.3561  737.8820 9820.9850   -1.2700    3.4407 354.11 354.1 104.7 10     0.0000    0.0347
ML13         ?    BHZ  i P      c 20230914 1723    4.5277 GAU  4.51e-04 -1.00e+00 -1.00e+00 -1.00e+00    1.0000 >    1.1529   -0.0574    0.5882  737.1780 9821.5410   -1.2220    4.1165 345.12 345.1 104.2 10     0.0000    0.0231
ML13         ?    BHE  e S      ? 20230914 1723    5.3231 GAU  1.45e-03 -1.00e+00 -1.00e+00 -1.00e+00    1.0000 >    2.0215   -0.1306    0.0887  737.1780 9821.5410   -1.2220    4.1165 345.12 345.1  99.2 10     0.0000    0.0404
ML10         ?    BHZ  e P      d 20230914 1723    4.6171 GAU  2.79e-03 -1.00e+00  4.81e+03 -1.00e+00    1.0000 >    1.1635    0.0214    1.4363  736.5490 9821.3650   -1.2200    4.1596 336.09 336.1 104.0 10     0.0000    0.0233
ML10         ?    BHN  e S      ? 20230914 1723    5.4841 GAU  1.70e-03 -1.00e+00  6.37e+01 -1.00e+00    1.0000 >    2.0400    0.0119    1.2917  736.5490 9821.3650   -1.2200    4.1596 336.09 336.1  98.9 10     0.0000    0.0408
ML05         ?    BHZ  i P      c 20230914 1723    4.7982 GAU  5.24e-04 -1.00e+00 -1.00e+00 -1.00e+00    1.0000 >    1.3509    0.0151    1.4640  736.2660 9822.0830   -1.1500    4.9308 336.46 336.5 100.5 10     0.0000    0.0270
ML05         ?    BHE  e S      ? 20230914 1723    5.8062 GAU  8.09e-04 -1.00e+00 -1.00e+00 -1.00e+00    1.0000 >    2.3685    0.0055    1.2130  736.2660 9822.0830   -1.1500    4.9308 336.46 336.5  95.1  9     0.0000    0.0474
ML01         ?    BHZ  i P      d 20230914 1723    4.8749 GAU  4.68e-04 -1.00e+00  3.43e+02 -1.00e+00    1.0000 >    1.4361    0.0066    1.4811  736.4090 9822.5140   -1.1200    5.2775 339.76 339.8  99.4 10     0.0000    0.0287
ML01         ?    BHN  e S      ? 20230914 1723    5.9918 GAU  6.81e-04 -1.00e+00  1.59e+03 -1.00e+00    1.0000 >    2.5171    0.0424    1.0075  736.4090 9822.5140   -1.1200    5.2775 339.76 339.8  94.3  9     0.0000    0.0503
ML07         ?    BHZ  i P      d 20230914 1723    4.8556 GAU  4.49e-04 -1.00e+00 -1.00e+00 -1.00e+00    1.0000 >    1.4410   -0.0177    1.3406  737.4430 9822.8030   -1.1120    5.3000 351.40 351.4  99.2 10     0.0000    0.0288
ML07         ?    BHE  e S      ? 20230914 1723    5.9525 GAU  1.68e-03 -1.00e+00 -1.00e+00 -1.00e+00    1.0000 >    2.5258   -0.0055    1.1573  737.4430 9822.8030   -1.1120    5.3000 351.40 351.4  94.2  9     0.0000    0.0505
ML12         ?    BHZ  e P      c 20230914 1723    4.7702 GAU  6.74e-04 -1.00e+00 -1.00e+00 -1.00e+00    1.0000 >    1.6029   -0.2649    0.0031  736.8520 9823.3800   -0.9890    5.9797 346.63 346.6  97.2 10     0.0000    0.0321
ML12         ?    BHN  e S      ? 20230914 1723    5.7649 GAU  1.55e-03 -1.00e+00 -1.00e+00 -1.00e+00    1.0000 >    2.8073   -0.4746    0.0003  736.8520 9823.3800   -0.9890    5.9797 346.63 346.6  92.9  9     0.0000    0.0561
END_PHASE
END_NLLOC

