NLLOC "./loc/SEML.20230914.162635.grid0" "LOCATED" "Location completed."
PUBLIC_ID None
SIGNATURE "Arham Zakki Edelo - edelo.17034@mhs.its.ac.id   obs:./obs/2023_09.obs   NLLoc:v7.00.10(30Aug2020)   run:22Jan2024 21h54m21"
COMMENT "SEML"
GRID  2001 2001 1001  727 9811 -2  0.01 0.01 0.01 PROB_DENSITY
SEARCH OCTREE nInitial 4851 nEvaluated 20003 smallestNodeSide 0.014881/0.014881/0.014205 oct_tree_integral 2.763457e-02 scatter_volume 2.763457e-02
HYPOCENTER  x 738.622 y 9818.69 z 1.56534  OT 34.9593  ix -1 iy -1 iz -1 MAXIMUM_LIKELIHOOD
GEOGRAPHIC  OT 2023 09 14  16 26 34.959325  Lat 9818.693452 Long 738.622024 Depth 1.565341
QUALITY  Pmax 6.18448e+41 MFmin 48.4459 MFmax 58.8864 RMS 0.0328523 Nphs 14 Gap 325.877 Dist 0.526072 Mamp -9.90 0 Mdur -9.90 0
VPVSRATIO  VpVsRatio 1.7985  Npair 7  Diff 0.706253
STATISTICS  ExpectX 738.644377 Y 9818.697785 Z 1.546310  CovXX 0.0477069 XY 0.0159956 XZ -0.00291866 YY 0.0162333 YZ -0.00302148 ZZ 0.0130369 EllAz1  339.336 Dip1  23.098 Len1  0.176482 Az2  324.929 Dip2  -66.2341 Len2  0.217388 Len3  4.396882e-01
STAT_GEOG  ExpectLat 9818.697785 Long 738.644377 Depth 1.546310
TRANSFORM  NONE
QML_OriginQuality  assocPhCt 14  usedPhCt 14  assocStaCt -1  usedStaCt 7  depthPhCt -1  stdErr 0.0328523  azGap 325.877  secAzGap 325.877  gtLevel -  minDist 0.526072 maxDist 5.00966 medDist 2.40808
QML_OriginUncertainty  horUnc -1  minHorUnc 0.14806  maxHorUnc 0.353752  azMaxHorUnc 67.2664
QML_ConfidenceEllipsoid  semiMajorAxisLength 0.439688  semiMinorAxisLength 0.176482  semiIntermediateAxisLength 0.217388  majorAxisPlunge -5.29188  majorAxisAzimuth 67.0718  majorAxisRotation 156.439
FOCALMECH  Hyp  9818.693452 738.622024 1.565341 Mech  0 0 0 mf  0 nObs -1
PHASE ID Ins Cmp On Pha  FM Date     HrMn   Sec     Err  ErrMag    Coda      Amp       Per       PriorWt  >   TTpred    Res       Weight    StaLoc(X  Y         Z)        SDist    SAzim  RAz  RDip RQual    Tcorr       TTerr
ML06         ?    BHZ  i P      c 20230914 1626   35.7339 GAU  8.94e-04 -1.00e+00 -1.00e+00 -1.00e+00    1.0000 >    0.7766   -0.0020    1.7149  738.3100 9819.1170   -1.3960    0.5261 323.62 323.6 168.6 10     0.0000    0.0155
ML06         ?    BHN  e S      ? 20230914 1626   36.2934 GAU  1.95e-03 -1.00e+00  3.01e+01 -1.00e+00    1.0000 >    1.3218    0.0123    1.4354  738.3100 9819.1170   -1.3960    0.5261 323.62 323.6 168.2 10     0.0000    0.0264
ML14         ?    BHZ  e P      d 20230914 1626   35.8982 GAU  1.62e-03 -1.00e+00  4.25e+02 -1.00e+00    1.0000 >    0.8814    0.0575    0.4020  737.5530 9820.0110   -1.3980    1.6967 320.95 320.9 146.3 10     0.0000    0.0176
ML14         ?    BHN  e S      ? 20230914 1626   36.4499 GAU  4.16e-04 -1.00e+00  3.67e+02 -1.00e+00    1.0000 >    1.4994   -0.0088    1.3270  737.5530 9820.0110   -1.3980    1.6967 320.95 320.9 145.1 10     0.0000    0.0300
ML11         ?    BHZ  i P      c 20230914 1626   35.8372 GAU  2.68e-03 -1.00e+00 -1.00e+00 -1.00e+00    1.0000 >    0.8747    0.0031    1.6829  738.4670 9820.4900   -1.3120    1.8032 355.07 355.1 143.8 10     0.0000    0.0175
ML11         ?    BHE  e S      ? 20230914 1626   36.4515 GAU  5.72e-04 -1.00e+00 -1.00e+00 -1.00e+00    1.0000 >    1.4873    0.0050    1.4052  738.4670 9820.4900   -1.3120    1.8032 355.07 355.1 142.5 10     0.0000    0.0297
ML09         ?    BHZ  e P      c 20230914 1626   35.9092 GAU  1.86e-03 -1.00e+00 -1.00e+00 -1.00e+00    1.0000 >    0.9566   -0.0067    1.5812  737.8820 9820.9850   -1.2700    2.4081 342.10 342.1 134.1 10     0.0000    0.0191
ML09         ?    BHN  e S      ? 20230914 1626   36.5914 GAU  3.03e-04 -1.00e+00  4.77e+02 -1.00e+00    1.0000 >    1.6251    0.0070    1.3436  737.8820 9820.9850   -1.2700    2.4081 342.10 342.1 132.3 10     0.0000    0.0325
ML13         ?    BHZ  e P      c 20230914 1626   36.0481 GAU  5.42e-04 -1.00e+00 -1.00e+00 -1.00e+00    1.0000 >    1.0876    0.0012    1.5903  737.1780 9821.5410   -1.2220    3.1928 333.11 333.1 123.3 10     0.0000    0.0218
ML13         ?    BHN  e S      ? 20230914 1626   36.8128 GAU  2.30e-04 -1.00e+00 -1.00e+00 -1.00e+00    1.0000 >    1.8450    0.0084    1.2542  737.1780 9821.5410   -1.2220    3.1928 333.11 333.1 121.3 10     0.0000    0.0369
ML07         ?    BHZ  e P      c 20230914 1626   36.3949 GAU  1.08e-03 -1.00e+00 -1.00e+00 -1.00e+00    1.0000 >    1.2890    0.1466    0.0142  737.4430 9822.8030   -1.1120    4.2753 343.99 344.0 111.2 10     0.0000    0.0258
ML07         ?    BHE  e S      ? 20230914 1626   37.4063 GAU  1.55e-04 -1.00e+00 -1.00e+00 -1.00e+00    1.0000 >    2.1798    0.2671    0.1282  737.4430 9822.8030   -1.1120    4.2753 343.99 344.0 108.7 10     0.0000    0.0436
ML12         ?    BHZ  e P      c 20230914 1626   36.6735 GAU  8.51e-04 -1.00e+00 -1.00e+00 -1.00e+00    1.0000 >    1.4297    0.2844    0.1208  736.8520 9823.3800   -0.9890    5.0097 339.31 339.3 104.1 10     0.0000    0.0286
ML12         ?    BHN  e S      ? 20230914 1626   37.9314 GAU  3.61e-04 -1.00e+00 -1.00e+00 -1.00e+00    1.0000 >    2.4103    0.5617    0.0000  736.8520 9823.3800   -0.9890    5.0097 339.31 339.3 101.6 10     0.0000    0.0482
END_PHASE
END_NLLOC

