NLLOC "./loc/SEML.20230914.162353.grid0" "LOCATED" "Location completed."
PUBLIC_ID None
SIGNATURE "Arham Zakki Edelo - edelo.17034@mhs.its.ac.id   obs:./obs/2023_09.obs   NLLoc:v7.00.10(30Aug2020)   run:22Jan2024 21h54m07"
COMMENT "SEML"
GRID  2001 2001 1001  727 9811 -2  0.01 0.01 0.01 PROB_DENSITY
SEARCH OCTREE nInitial 4851 nEvaluated 20011 smallestNodeSide 0.014881/0.014881/0.014205 oct_tree_integral 1.400247e-02 scatter_volume 1.382365e-02
HYPOCENTER  x 738.243 y 9818 z 0.464489  OT 52.7627  ix -1 iy -1 iz -1 MAXIMUM_LIKELIHOOD
GEOGRAPHIC  OT 2023 09 14  16 23 52.762674  Lat 9818.001488 Long 738.242560 Depth 0.464489
QUALITY  Pmax 3.99585e+57 MFmin 66.2484 MFmax 74.3738 RMS 0.0255285 Nphs 18 Gap 305.328 Dist 1.11755 Mamp -9.90 0 Mdur -9.90 0
VPVSRATIO  VpVsRatio 1.7393  Npair 9  Diff 0.755898
STATISTICS  ExpectX 738.153218 Y 9818.038961 Z 0.565935  CovXX 0.0347207 XY -0.0162537 XZ -0.0290035 YY 0.0145264 YZ 0.0139683 ZZ 0.0379968 EllAz1  42.6738 Dip1  15.8555 Len1  0.132023 Az2  328.179 Dip2  -43.2659 Len2  0.179616 Len3  5.082115e-01
STAT_GEOG  ExpectLat 9818.038961 Long 738.153218 Depth 0.565935
TRANSFORM  NONE
QML_OriginQuality  assocPhCt 18  usedPhCt 18  assocStaCt -1  usedStaCt 9  depthPhCt -1  stdErr 0.0255285  azGap 305.328  secAzGap 305.328  gtLevel -  minDist 1.11755 maxDist 5.55536 medDist 2.49861
QML_OriginUncertainty  horUnc -1  minHorUnc 0.112359  maxHorUnc 0.317244  azMaxHorUnc 119.075
QML_ConfidenceEllipsoid  semiMajorAxisLength 0.508212  semiMinorAxisLength 0.132023  semiIntermediateAxisLength 0.179616  majorAxisPlunge -42.4528  majorAxisAzimuth 117.614  majorAxisRotation 102.558
FOCALMECH  Hyp  9818.001488 738.242560 0.464489 Mech  0 0 0 mf  0 nObs -1
PHASE ID Ins Cmp On Pha  FM Date     HrMn   Sec     Err  ErrMag    Coda      Amp       Per       PriorWt  >   TTpred    Res       Weight    StaLoc(X  Y         Z)        SDist    SAzim  RAz  RDip RQual    Tcorr       TTerr
ML06         ?    BHZ  i P      c 20230914 1623   53.4269 GAU  4.16e-04 -1.00e+00 -1.00e+00 -1.00e+00    1.0000 >    0.5772    0.0870    0.0872  738.3100 9819.1170   -1.3960    1.1175   3.46   3.5 148.2 10     0.0000    0.0115
ML06         ?    BHN  e S      ? 20230914 1623   53.9483 GAU  9.88e-04 -1.00e+00  2.22e+02 -1.00e+00    1.0000 >    1.0066    0.1790    0.1150  738.3100 9819.1170   -1.3960    1.1175   3.46   3.5 147.7 10     0.0000    0.0201
ML04         ?    BHZ  e P      c 20230914 1623   53.4732 GAU  6.50e-04 -1.00e+00  3.05e+01 -1.00e+00    1.0000 >    0.7014    0.0091    1.7002  737.1400 9819.2520   -1.5710    1.6672 318.60 318.6 139.3 10     0.0000    0.0140
ML04         ?    BHN  e S      ? 20230914 1623   53.9736 GAU  7.50e-04 -1.00e+00  6.65e+02 -1.00e+00    1.0000 >    1.2221   -0.0111    1.5437  737.1400 9819.2520   -1.5710    1.6672 318.60 318.6 138.7 10     0.0000    0.0244
ML14         ?    BHZ  i P      c 20230914 1623   53.4837 GAU  1.86e-03 -1.00e+00 -1.00e+00 -1.00e+00    1.0000 >    0.7508   -0.0298    1.1166  737.5530 9820.0110   -1.3980    2.1245 341.06 341.1 129.3 10     0.0000    0.0150
ML14         ?    BHE  e S      ? 20230914 1623   54.0672 GAU  7.55e-04 -1.00e+00  4.47e+02 -1.00e+00    1.0000 >    1.3095   -0.0049    1.5467  737.5530 9820.0110   -1.3980    2.1245 341.06 341.1 128.3 10     0.0000    0.0262
ML02         ?    BHZ  e P      c 20230914 1623   53.5351 GAU  8.24e-04 -1.00e+00 -1.00e+00 -1.00e+00    1.0000 >    0.7772   -0.0047    1.8119  736.5970 9819.4060   -1.4960    2.1635 310.48 310.5 130.3 10     0.0000    0.0155
ML02         ?    BHE  e S      ? 20230914 1623   54.1357 GAU  9.88e-04 -1.00e+00 -1.00e+00 -1.00e+00    1.0000 >    1.3547    0.0184    1.3127  736.5970 9819.4060   -1.4960    2.1635 310.48 310.5 129.3 10     0.0000    0.0271
ML11         ?    BHZ  e P      c 20230914 1623   53.5803 GAU  4.64e-03 -1.00e+00 -1.00e+00 -1.00e+00    1.0000 >    0.8134    0.0042    1.7504  738.4670 9820.4900   -1.3120    2.4986   5.15   5.2 123.3 10     0.0000    0.0163
ML11         ?    BHN  e S      ? 20230914 1623   54.1979 GAU  4.77e-04 -1.00e+00 -1.00e+00 -1.00e+00    1.0000 >    1.4194    0.0158    1.3419  738.4670 9820.4900   -1.3120    2.4986   5.15   5.2 122.0 10     0.0000    0.0284
ML09         ?    BHZ  i P      c 20230914 1623   53.6733 GAU  9.88e-04 -1.00e+00 -1.00e+00 -1.00e+00    1.0000 >    0.9197   -0.0091    1.7087  737.8820 9820.9850   -1.2700    3.0052 353.11 353.1 117.6 10     0.0000    0.0184
ML09         ?    BHN  e S      ? 20230914 1623   54.3564 GAU  5.79e-04 -1.00e+00  3.87e+02 -1.00e+00    1.0000 >    1.6053   -0.0116    1.3635  737.8820 9820.9850   -1.2700    3.0052 353.11 353.1 115.9 10     0.0000    0.0321
ML13         ?    BHZ  e P      c 20230914 1623   53.5821 GAU  7.28e-04 -1.00e+00 -1.00e+00 -1.00e+00    1.0000 >    1.0753   -0.2559    0.0001  737.1780 9821.5410   -1.2220    3.6961 343.26 343.3 111.9 10     0.0000    0.0215
ML13         ?    BHN  e S      ? 20230914 1623   54.2244 GAU  3.44e-04 -1.00e+00 -1.00e+00 -1.00e+00    1.0000 >    1.8773   -0.4156    0.0001  737.1780 9821.5410   -1.2220    3.6961 343.26 343.3 109.7 10     0.0000    0.0375
ML07         ?    BHZ  e P      c 20230914 1623   54.1060 GAU  2.68e-03 -1.00e+00 -1.00e+00 -1.00e+00    1.0000 >    1.3493   -0.0060    1.5190  737.4430 9822.8030   -1.1120    4.8676 350.55 350.5 105.1 10     0.0000    0.0270
ML07         ?    BHE  e S      ? 20230914 1623   55.1358 GAU  8.97e-04 -1.00e+00 -1.00e+00 -1.00e+00    1.0000 >    2.3418    0.0313    0.9646  737.4430 9822.8030   -1.1120    4.8676 350.55 350.5  67.2 10     0.0000    0.0468
ML12         ?    BHZ  e P      d 20230914 1623   54.4775 GAU  1.83e-03 -1.00e+00  3.76e+02 -1.00e+00    1.0000 >    1.5087    0.2061    0.1156  736.8520 9823.3800   -0.9890    5.5554 345.50 345.5 102.2 10     0.0000    0.0302
ML12         ?    BHN  e S      ? 20230914 1623   55.7338 GAU  8.06e-04 -1.00e+00 -1.00e+00 -1.00e+00    1.0000 >    2.5949    0.3763    0.0018  736.8520 9823.3800   -0.9890    5.5554 345.50 345.5  67.2 10     0.0000    0.0519
END_PHASE
END_NLLOC

