NLLOC "./loc/SEML.20230914.162718.grid0" "LOCATED" "Location completed."
PUBLIC_ID None
SIGNATURE "Arham Zakki Edelo - edelo.17034@mhs.its.ac.id   obs:./obs/2023_09.obs   NLLoc:v7.00.10(30Aug2020)   run:22Jan2024 21h54m26"
COMMENT "SEML"
GRID  2001 2001 1001  727 9811 -2  0.01 0.01 0.01 PROB_DENSITY
SEARCH OCTREE nInitial 4851 nEvaluated 20011 smallestNodeSide 0.007440/0.007440/0.007102 oct_tree_integral 4.266284e-03 scatter_volume 4.256607e-03
HYPOCENTER  x 738.187 y 9818.91 z 0.31179  OT 17.6926  ix -1 iy -1 iz -1 MAXIMUM_LIKELIHOOD
GEOGRAPHIC  OT 2023 09 14  16 27 17.692638  Lat 9818.912946 Long 738.186756 Depth 0.311790
QUALITY  Pmax 9.4483e+95 MFmin 103.356 MFmax 126.361 RMS 0.0263134 Nphs 26 Gap 256.1 Dist 0.238384 Mamp -9.90 0 Mdur -9.90 0
VPVSRATIO  VpVsRatio 1.82691  Npair 13  Diff 0.538675
STATISTICS  ExpectX 738.185451 Y 9818.876098 Z 0.343592  CovXX 0.00771406 XY -0.000633749 XZ -0.00297045 YY 0.00648466 YZ -0.00442623 ZZ 0.0111664 EllAz1  30.1596 Dip1  32.5863 Len1  0.100201 Az2  302.06 Dip2  -2.97004 Len2  0.167302 Len3  2.269554e-01
STAT_GEOG  ExpectLat 9818.876098 Long 738.185451 Depth 0.343592
TRANSFORM  NONE
QML_OriginQuality  assocPhCt 26  usedPhCt 26  assocStaCt -1  usedStaCt 13  depthPhCt -1  stdErr 0.0263134  azGap 256.1  secAzGap 256.1  gtLevel -  minDist 0.238384 maxDist 4.6622 medDist 2.33994
QML_OriginUncertainty  horUnc -1  minHorUnc 0.119574  maxHorUnc 0.135496  azMaxHorUnc 112.937
QML_ConfidenceEllipsoid  semiMajorAxisLength 0.226955  semiMinorAxisLength 0.100201  semiIntermediateAxisLength 0.167302  majorAxisPlunge -57.2444  majorAxisAzimuth 36.6857  majorAxisRotation 267.716
FOCALMECH  Hyp  9818.912946 738.186756 0.311790 Mech  0 0 0 mf  0 nObs -1
PHASE ID Ins Cmp On Pha  FM Date     HrMn   Sec     Err  ErrMag    Coda      Amp       Per       PriorWt  >   TTpred    Res       Weight    StaLoc(X  Y         Z)        SDist    SAzim  RAz  RDip RQual    Tcorr       TTerr
ML06         ?    BHZ  i P      c 20230914 1627   18.1479 GAU  6.29e-04 -1.00e+00  2.23e+03 -1.00e+00    1.0000 >    0.4598   -0.0045    1.6167  738.3100 9819.1170   -1.3960    0.2384  31.13  31.1 171.7 10     0.0000    0.0092
ML06         ?    BHN  e S      ? 20230914 1627   18.5650 GAU  1.62e-03 -1.00e+00 -1.00e+00 -1.00e+00    1.0000 >    0.8028    0.0696    0.5231  738.3100 9819.1170   -1.3960    0.2384  31.13  31.1 171.5 10     0.0000    0.0161
ML04         ?    BHZ  i P      c 20230914 1627   18.2834 GAU  4.64e-03 -1.00e+00 -1.00e+00 -1.00e+00    1.0000 >    0.5830    0.0077    1.4954  737.1400 9819.2520   -1.5710    1.1003 287.95 287.9 148.6 10     0.0000    0.0117
ML04         ?    BHN  e S      ? 20230914 1627   18.7016 GAU  5.61e-04 -1.00e+00 -1.00e+00 -1.00e+00    1.0000 >    1.0168   -0.0079    1.3314  737.1400 9819.2520   -1.5710    1.1003 287.95 287.9 148.1 10     0.0000    0.0203
ML14         ?    BHZ  i P      c 20230914 1627   18.2670 GAU  1.12e-03 -1.00e+00  2.85e+02 -1.00e+00    1.0000 >    0.5674    0.0069    1.5314  737.5530 9820.0110   -1.3980    1.2678 330.01 330.0 142.3 10     0.0000    0.0113
ML14         ?    BHE  e S      ? 20230914 1627   18.6913 GAU  1.51e-03 -1.00e+00 -1.00e+00 -1.00e+00    1.0000 >    0.9907    0.0080    1.3501  737.5530 9820.0110   -1.3980    1.2678 330.01 330.0 141.6 10     0.0000    0.0198
ML11         ?    BHZ  i P      c 20230914 1627   18.3018 GAU  5.59e-04 -1.00e+00  6.39e+01 -1.00e+00    1.0000 >    0.6067    0.0024    1.5826  738.4670 9820.4900   -1.3120    1.6018  10.08  10.1 133.8 10     0.0000    0.0121
ML11         ?    BHE  e S      ? 20230914 1627   18.7340 GAU  1.72e-03 -1.00e+00 -1.00e+00 -1.00e+00    1.0000 >    1.0601   -0.0188    1.1289  738.4670 9820.4900   -1.3120    1.6018  10.08  10.1 132.9 10     0.0000    0.0212
ML02         ?    BHZ  i P      d 20230914 1627   18.3362 GAU  2.15e-03 -1.00e+00  2.83e+03 -1.00e+00    1.0000 >    0.6558   -0.0123    1.3794  736.5970 9819.4060   -1.4960    1.6645 287.23 287.2 135.8 10     0.0000    0.0131
ML02         ?    BHN  e S      ? 20230914 1627   18.8397 GAU  7.55e-04 -1.00e+00 -1.00e+00 -1.00e+00    1.0000 >    1.1445    0.0026    1.3180  736.5970 9819.4060   -1.4960    1.6645 287.23 287.2 134.9 10     0.0000    0.0229
ML09         ?    BHZ  i P      c 20230914 1627   18.4003 GAU  1.56e-03 -1.00e+00  6.46e+02 -1.00e+00    1.0000 >    0.6975    0.0102    1.4179  737.8820 9820.9850   -1.2700    2.0943 351.63 351.6 124.9 10     0.0000    0.0140
ML09         ?    BHE  e S      ? 20230914 1627   18.9786 GAU  1.71e-03 -1.00e+00  7.29e+01 -1.00e+00    1.0000 >    1.2193    0.0667    0.5669  737.8820 9820.9850   -1.2700    2.0943 351.63 351.6 123.5 10     0.0000    0.0244
ML03         ?    BHZ  e P      c 20230914 1627   18.5148 GAU  1.86e-03 -1.00e+00 -1.00e+00 -1.00e+00    1.0000 >    0.7614    0.0608    0.5649  736.8800 9820.8540   -1.3350    2.3399 326.05 326.1 122.7 10     0.0000    0.0152
ML03         ?    BHN  e S      ? 20230914 1627   19.1899 GAU  1.63e-03 -1.00e+00 -1.00e+00 -1.00e+00    1.0000 >    1.3303    0.1669    0.0485  736.8800 9820.8540   -1.3350    2.3399 326.05 326.1 121.2 10     0.0000    0.0266
ML13         ?    BHZ  i P      c 20230914 1627   18.5312 GAU  9.88e-04 -1.00e+00  3.40e+02 -1.00e+00    1.0000 >    0.8509   -0.0123    1.3253  737.1780 9821.5410   -1.2220    2.8150 339.00 339.0 115.9 10     0.0000    0.0170
ML13         ?    BHE  e S      ? 20230914 1627   19.1676 GAU  9.88e-04 -1.00e+00 -1.00e+00 -1.00e+00    1.0000 >    1.4881   -0.0132    1.0955  737.1780 9821.5410   -1.2220    2.8150 339.00 339.0 113.8 10     0.0000    0.0298
ML10         ?    BHZ  i P      c 20230914 1627   18.6157 GAU  4.51e-03 -1.00e+00  2.90e+02 -1.00e+00    1.0000 >    0.8819    0.0412    0.7403  736.5490 9821.3650   -1.2200    2.9487 326.26 326.3 114.6 10     0.0000    0.0176
ML10         ?    BHN  i S      ? 20230914 1627   19.3343 GAU  1.03e-03 -1.00e+00  9.20e+01 -1.00e+00    1.0000 >    1.5423    0.0994    0.3330  736.5490 9821.3650   -1.2200    2.9487 326.26 326.3 112.5 10     0.0000    0.0308
ML05         ?    BHZ  i P      d 20230914 1627   18.8234 GAU  2.38e-03 -1.00e+00 -1.00e+00 -1.00e+00    1.0000 >    1.0550    0.0758    0.4868  736.2660 9822.0830   -1.1500    3.7066 328.79 328.8 108.5 10     0.0000    0.0211
ML05         ?    BHN  e S      ? 20230914 1627   19.6505 GAU  3.37e-03 -1.00e+00  3.75e+02 -1.00e+00    1.0000 >    1.8460    0.1119    0.2806  736.2660 9822.0830   -1.1500    3.7066 328.79 328.8 105.4 10     0.0000    0.0369
ML07         ?    BHZ  i P      d 20230914 1627   18.8167 GAU  2.56e-03 -1.00e+00 -1.00e+00 -1.00e+00    1.0000 >    1.1130    0.0110    1.2733  737.4430 9822.8030   -1.1120    3.9605 349.18 349.2 106.7 10     0.0000    0.0223
ML07         ?    BHN  e S      ? 20230914 1627   19.6803 GAU  2.95e-03 -1.00e+00 -1.00e+00 -1.00e+00    1.0000 >    1.9480    0.0396    0.8750  737.4430 9822.8030   -1.1120    3.9605 349.18 349.2 103.4 10     0.0000    0.0390
ML01         ?    BHZ  i P      c 20230914 1627   18.7836 GAU  7.49e-04 -1.00e+00 -1.00e+00 -1.00e+00    1.0000 >    1.1277   -0.0367    0.7016  736.4090 9822.5140   -1.1200    4.0160 333.73 333.7 106.5 10     0.0000    0.0226
ML01         ?    BHN  e S      ? 20230914 1627   19.6514 GAU  8.27e-04 -1.00e+00  1.73e+03 -1.00e+00    1.0000 >    1.9735   -0.0147    0.9518  736.4090 9822.5140   -1.1200    4.0160 333.73 333.7 103.2 10     0.0000    0.0395
ML12         ?    BHZ  i P      d 20230914 1627   18.9554 GAU  1.74e-03 -1.00e+00 -1.00e+00 -1.00e+00    1.0000 >    1.2748   -0.0120    1.1781  736.8520 9823.3800   -0.9890    4.6622 343.36 343.4 102.7 10     0.0000    0.0255
ML12         ?    BHE  e S      ? 20230914 1627   19.9112 GAU  2.17e-03 -1.00e+00  1.13e+02 -1.00e+00    1.0000 >    2.2320   -0.0134    0.9034  736.8520 9823.3800   -0.9890    4.6622 343.36 343.4  98.9 10     0.0000    0.0446
END_PHASE
END_NLLOC

