NLLOC "./loc/SEML.20230928.090516.grid0" "LOCATED" "Location completed."
PUBLIC_ID None
SIGNATURE "Arham Zakki Edelo - edelo.17034@mhs.its.ac.id   obs:./obs/2023_09.obs   NLLoc:v7.00.10(30Aug2020)   run:22Jan2024 21h56m45"
COMMENT "SEML"
GRID  2001 2001 1001  727 9811 -2  0.01 0.01 0.01 PROB_DENSITY
SEARCH OCTREE nInitial 4851 nEvaluated 20011 smallestNodeSide 0.014881/0.014881/0.014205 oct_tree_integral 1.284621e-02 scatter_volume 1.271999e-02
HYPOCENTER  x 738.034 y 9818.54 z 0.890625  OT 15.8362  ix -1 iy -1 iz -1 MAXIMUM_LIKELIHOOD
GEOGRAPHIC  OT 2023 09 28  09 05 15.836161  Lat 9818.537202 Long 738.034226 Depth 0.890625
QUALITY  Pmax 2.01534e+43 MFmin 53.4645 MFmax 64.7563 RMS 0.0185791 Nphs 14 Gap 283.199 Dist 0.642041 Mamp -9.90 0 Mdur -9.90 0
VPVSRATIO  VpVsRatio 1.75745  Npair 7  Diff 0.544996
STATISTICS  ExpectX 737.993571 Y 9818.510308 Z 0.878316  CovXX 0.0335741 XY 0.00406779 XZ 0.0171153 YY 0.0120036 YZ -0.000520526 ZZ 0.0254331 EllAz1  146.335 Dip1  -30.9946 Len1  0.177434 Az2  209.582 Dip2  36.8452 Len2  0.22827 Len3  4.087520e-01
STAT_GEOG  ExpectLat 9818.510308 Long 737.993571 Depth 0.878316
TRANSFORM  NONE
QML_OriginQuality  assocPhCt 14  usedPhCt 14  assocStaCt -1  usedStaCt 7  depthPhCt -1  stdErr 0.0185791  azGap 283.199  secAzGap 283.199  gtLevel -  minDist 0.642041 maxDist 4.30657 medDist 2.00018
QML_OriginUncertainty  horUnc -1  minHorUnc 0.160943  maxHorUnc 0.280938  azMaxHorUnc 79.6677
QML_ConfidenceEllipsoid  semiMajorAxisLength 0.408752  semiMinorAxisLength 0.177434  semiIntermediateAxisLength 0.22827  majorAxisPlunge 37.775  majorAxisAzimuth 84.0815  majorAxisRotation 286.203
FOCALMECH  Hyp  9818.537202 738.034226 0.890625 Mech  0 0 0 mf  0 nObs -1
PHASE ID Ins Cmp On Pha  FM Date     HrMn   Sec     Err  ErrMag    Coda      Amp       Per       PriorWt  >   TTpred    Res       Weight    StaLoc(X  Y         Z)        SDist    SAzim  RAz  RDip RQual    Tcorr       TTerr
ML06         ?    BHZ  i P      c 20230928 0905   16.4633 GAU  6.07e-04 -1.00e+00  1.47e+02 -1.00e+00    1.0000 >    0.6274   -0.0002    1.6752  738.3100 9819.1170   -1.3960    0.6420  25.44  25.4 163.8 10     0.0000    0.0125
ML06         ?    BHN  e S      ? 20230928 0905   16.9218 GAU  2.47e-03 -1.00e+00 -1.00e+00 -1.00e+00    1.0000 >    1.0792    0.0065    1.4377  738.3100 9819.1170   -1.3960    0.6420  25.44  25.4 162.6 10     0.0000    0.0216
ML04         ?    BHZ  e P      c 20230928 0905   16.5588 GAU  7.94e-04 -1.00e+00 -1.00e+00 -1.00e+00    1.0000 >    0.7191    0.0035    1.6282  737.1400 9819.2520   -1.5710    1.1448 308.64 308.6 154.2 10     0.0000    0.0144
ML04         ?    BHN  e S      ? 20230928 0905   17.0717 GAU  9.10e-04 -1.00e+00  7.08e+02 -1.00e+00    1.0000 >    1.2370   -0.0014    1.4024  737.1400 9819.2520   -1.5710    1.1448 308.64 308.6 152.2 10     0.0000    0.0247
ML14         ?    BHZ  e P      c 20230928 0905   16.5145 GAU  2.70e-03 -1.00e+00 -1.00e+00 -1.00e+00    1.0000 >    0.7300   -0.0516    0.4085  737.5530 9820.0110   -1.3980    1.5504 341.92 341.9 144.8 10     0.0000    0.0146
ML14         ?    BHE  e S      ? 20230928 0905   17.0073 GAU  4.51e-04 -1.00e+00  3.58e+02 -1.00e+00    1.0000 >    1.2551   -0.0840    0.1822  737.5530 9820.0110   -1.3980    1.5504 341.92 341.9 141.9 10     0.0000    0.0251
ML11         ?    BHZ  i P      c 20230928 0905   16.6129 GAU  2.42e-03 -1.00e+00  4.23e+00 -1.00e+00    1.0000 >    0.7841   -0.0074    1.5457  738.4670 9820.4900   -1.3120    2.0002  12.50  12.5 136.4 10     0.0000    0.0157
ML11         ?    BHN  i S      ? 20230928 0905   17.1742 GAU  5.62e-04 -1.00e+00  5.80e+00 -1.00e+00    1.0000 >    1.3476   -0.0095    1.3210  738.4670 9820.4900   -1.3120    2.0002  12.50  12.5 132.5 10     0.0000    0.0270
ML09         ?    BHZ  i P      c 20230928 0905   16.7175 GAU  1.14e-03 -1.00e+00  1.77e+02 -1.00e+00    1.0000 >    0.8605    0.0208    1.1823  737.8820 9820.9850   -1.2700    2.4525 356.44 356.4 129.4 10     0.0000    0.0172
ML09         ?    BHE  e S      ? 20230928 0905   17.3647 GAU  5.56e-04 -1.00e+00  4.00e+02 -1.00e+00    1.0000 >    1.4779    0.0506    0.5453  737.8820 9820.9850   -1.2700    2.4525 356.44 356.4 124.6 10     0.0000    0.0296
ML13         ?    BHZ  i P      c 20230928 0905   16.8164 GAU  6.62e-04 -1.00e+00 -1.00e+00 -1.00e+00    1.0000 >    0.9918   -0.0116    1.4144  737.1780 9821.5410   -1.2220    3.1234 344.09 344.1 121.7 10     0.0000    0.0198
ML13         ?    BHE  e S      ? 20230928 0905   17.5308 GAU  3.85e-04 -1.00e+00 -1.00e+00 -1.00e+00    1.0000 >    1.7013   -0.0067    1.2085  737.1780 9821.5410   -1.2220    3.1234 344.09 344.1 115.5 10     0.0000    0.0340
ML07         ?    BHZ  e P      c 20230928 0905   17.1985 GAU  1.00e-04 -1.00e+00 -1.00e+00 -1.00e+00    1.0000 >    1.2457    0.1166    0.0429  737.4430 9822.8030   -1.1120    4.3066 352.11 352.1 112.0 10     0.0000    0.0249
ML07         ?    BHN  e S      ? 20230928 0905   18.2020 GAU  3.49e-04 -1.00e+00 -1.00e+00 -1.00e+00    1.0000 >    2.1285    0.2374    0.0057  737.4430 9822.8030   -1.1120    4.3066 352.11 352.1 104.1 10     0.0000    0.0426
END_PHASE
END_NLLOC

