NLLOC "./loc/SEML.20230928.073904.grid0" "LOCATED" "Location completed."
PUBLIC_ID None
SIGNATURE "Arham Zakki Edelo - edelo.17034@mhs.its.ac.id   obs:./obs/2023_09.obs   NLLoc:v7.00.10(30Aug2020)   run:22Jan2024 21h55m45"
COMMENT "SEML"
GRID  2001 2001 1001  727 9811 -2  0.01 0.01 0.01 PROB_DENSITY
SEARCH OCTREE nInitial 4851 nEvaluated 20011 smallestNodeSide 0.007440/0.007440/0.007102 oct_tree_integral 6.264475e-03 scatter_volume 6.259386e-03
HYPOCENTER  x 738.347 y 9819.19 z 1.08949  OT 3.83255  ix -1 iy -1 iz -1 MAXIMUM_LIKELIHOOD
GEOGRAPHIC  OT 2023 09 28  07 39 3.832552  Lat 9819.191964 Long 738.346726 Depth 1.089489
QUALITY  Pmax 3.74392e+58 MFmin 69.5146 MFmax 82.1612 RMS 0.0327129 Nphs 18 Gap 200.807 Dist 0.0834773 Mamp -9.90 0 Mdur -9.90 0
VPVSRATIO  VpVsRatio 1.68674  Npair 9  Diff 0.485357
STATISTICS  ExpectX 738.379442 Y 9819.139473 Z 1.034127  CovXX 0.0187087 XY -0.0217153 XZ -0.0281965 YY 0.0384924 YZ 0.0427353 ZZ 0.0664782 EllAz1  62.4703 Dip1  4.85755 Len1  0.12864 Az2  156.66 Dip2  40.6874 Len2  0.166422 Len3  6.263732e-01
STAT_GEOG  ExpectLat 9819.139473 Long 738.379442 Depth 1.034127
TRANSFORM  NONE
QML_OriginQuality  assocPhCt 18  usedPhCt 18  assocStaCt -1  usedStaCt 9  depthPhCt -1  stdErr 0.0327129  azGap 200.807  secAzGap 200.807  gtLevel -  minDist 0.0834773 maxDist 3.72241 medDist 1.76277
QML_OriginUncertainty  horUnc -1  minHorUnc 0.104395  maxHorUnc 0.347368  azMaxHorUnc 147.245
QML_ConfidenceEllipsoid  semiMajorAxisLength 0.626373  semiMinorAxisLength 0.12864  semiIntermediateAxisLength 0.166422  majorAxisPlunge -48.8975  majorAxisAzimuth 146.88  majorAxisRotation 223.762
FOCALMECH  Hyp  9819.191964 738.346726 1.089489 Mech  0 0 0 mf  0 nObs -1
PHASE ID Ins Cmp On Pha  FM Date     HrMn   Sec     Err  ErrMag    Coda      Amp       Per       PriorWt  >   TTpred    Res       Weight    StaLoc(X  Y         Z)        SDist    SAzim  RAz  RDip RQual    Tcorr       TTerr
ML06         ?    BHZ  i P      c 20230928 0739    4.4930 GAU  1.29e-03 -1.00e+00 -1.00e+00 -1.00e+00    1.0000 >    0.6531    0.0073    1.7256  738.3100 9819.1170   -1.3960    0.0835 206.10 206.1 177.6  9     0.0000    0.0131
ML06         ?    BHN  e S      ? 20230928 0739    4.9730 GAU  1.94e-03 -1.00e+00 -1.00e+00 -1.00e+00    1.0000 >    1.1185    0.0219    1.2321  738.3100 9819.1170   -1.3960    0.0835 206.10 206.1 177.5  9     0.0000    0.0224
ML14         ?    BHZ  e P      c 20230928 0739    4.5478 GAU  9.88e-04 -1.00e+00 -1.00e+00 -1.00e+00    1.0000 >    0.7190   -0.0038    1.7165  737.5530 9820.0110   -1.3980    1.1405 315.90 315.9 152.4 10     0.0000    0.0144
ML14         ?    BHN  e S      ? 20230928 0739    5.0487 GAU  7.04e-04 -1.00e+00  3.02e+02 -1.00e+00    1.0000 >    1.2311   -0.0149    1.2563  737.5530 9820.0110   -1.3980    1.1405 315.90 315.9 151.2 10     0.0000    0.0246
ML04         ?    BHZ  e P      c 20230928 0739    4.6020 GAU  3.53e-03 -1.00e+00 -1.00e+00 -1.00e+00    1.0000 >    0.7699   -0.0005    1.7096  737.1400 9819.2520   -1.5710    1.2082 272.85 272.8 152.5 10     0.0000    0.0154
ML04         ?    BHN  e S      ? 20230928 0739    5.1653 GAU  2.64e-03 -1.00e+00  7.53e+02 -1.00e+00    1.0000 >    1.3189    0.0139    1.3195  737.1400 9819.2520   -1.5710    1.2082 272.85 272.8 151.3 10     0.0000    0.0264
ML11         ?    BHZ  i P      c 20230928 0739    4.5420 GAU  2.26e-03 -1.00e+00 -1.00e+00 -1.00e+00    1.0000 >    0.7168   -0.0073    1.6450  738.4670 9820.4900   -1.3120    1.3036   5.29   5.3 148.0 10     0.0000    0.0143
ML11         ?    BHE  e S      ? 20230928 0739    5.0515 GAU  7.28e-04 -1.00e+00 -1.00e+00 -1.00e+00    1.0000 >    1.2267   -0.0078    1.3827  738.4670 9820.4900   -1.3120    1.3036   5.29   5.3 146.6 10     0.0000    0.0245
ML02         ?    BHZ  e P      c 20230928 0739    4.6448 GAU  6.05e-04 -1.00e+00 -1.00e+00 -1.00e+00    1.0000 >    0.8233   -0.0110    1.5065  736.5970 9819.4060   -1.4960    1.7628 276.97 277.0 141.2 10     0.0000    0.0165
ML02         ?    BHE  e S      ? 20230928 0739    5.2488 GAU  4.11e-04 -1.00e+00  8.51e+02 -1.00e+00    1.0000 >    1.4095    0.0068    1.3409  736.5970 9819.4060   -1.4960    1.7628 276.97 277.0 139.3 10     0.0000    0.0282
ML09         ?    BHZ  i P      c 20230928 0739    4.7096 GAU  6.24e-04 -1.00e+00 -1.00e+00 -1.00e+00    1.0000 >    0.7858    0.0912    0.0586  737.8820 9820.9850   -1.2700    1.8523 345.47 345.5 136.8 10     0.0000    0.0157
ML09         ?    BHN  e S      ? 20230928 0739    5.3416 GAU  2.11e-04 -1.00e+00  5.34e+02 -1.00e+00    1.0000 >    1.3440    0.1650    0.2103  737.8820 9820.9850   -1.2700    1.8523 345.47 345.5 134.8 10     0.0000    0.0269
ML13         ?    BHZ  i P      c 20230928 0739    4.7639 GAU  3.37e-03 -1.00e+00 -1.00e+00 -1.00e+00    1.0000 >    0.9144    0.0169    1.4041  737.1780 9821.5410   -1.2220    2.6237 333.55 333.5 123.6 10     0.0000    0.0183
ML13         ?    BHE  e S      ? 20230928 0739    5.4204 GAU  1.57e-03 -1.00e+00 -1.00e+00 -1.00e+00    1.0000 >    1.5623    0.0255    1.0758  737.1780 9821.5410   -1.2220    2.6237 333.55 333.5 120.7 10     0.0000    0.0312
ML05         ?    BHZ  e P      c 20230928 0739    5.0893 GAU  3.66e-04 -1.00e+00  1.73e+01 -1.00e+00    1.0000 >    1.0981    0.1587    0.1854  736.2660 9822.0830   -1.1500    3.5620 324.26 324.3 110.8 10     0.0000    0.0220
ML05         ?    BHE  e S      ? 20230928 0739    5.9667 GAU  4.23e-04 -1.00e+00 -1.00e+00 -1.00e+00    1.0000 >    1.8716    0.2626    0.0707  736.2660 9822.0830   -1.1500    3.5620 324.26 324.3 106.6 10     0.0000    0.0374
ML07         ?    BHZ  e P      c 20230928 0739    5.1675 GAU  4.65e-04 -1.00e+00 -1.00e+00 -1.00e+00    1.0000 >    1.1276    0.2074    0.1525  737.4430 9822.8030   -1.1120    3.7224 345.95 345.9 108.5 10     0.0000    0.0226
ML07         ?    BHE  e S      ? 20230928 0739    6.1329 GAU  4.61e-04 -1.00e+00 -1.00e+00 -1.00e+00    1.0000 >    1.9203    0.3800    0.0077  737.4430 9822.8030   -1.1120    3.7224 345.95 345.9 104.1 10     0.0000    0.0384
END_PHASE
END_NLLOC

