NLLOC "./loc/SEML.20230928.082643.grid0" "LOCATED" "Location completed."
PUBLIC_ID None
SIGNATURE "Arham Zakki Edelo - edelo.17034@mhs.its.ac.id   obs:./obs/2023_09.obs   NLLoc:v7.00.10(30Aug2020)   run:22Jan2024 21h56m05"
COMMENT "SEML"
GRID  2001 2001 1001  727 9811 -2  0.01 0.01 0.01 PROB_DENSITY
SEARCH OCTREE nInitial 4851 nEvaluated 20011 smallestNodeSide 0.014881/0.014881/0.014205 oct_tree_integral 2.130710e-02 scatter_volume 2.130710e-02
HYPOCENTER  x 738.689 y 9818.52 z 0.379261  OT 42.8813  ix -1 iy -1 iz -1 MAXIMUM_LIKELIHOOD
GEOGRAPHIC  OT 2023 09 28  08 26 42.881262  Lat 9818.522321 Long 738.688988 Depth 0.379261
QUALITY  Pmax 9.38755e+94 MFmin 96.2388 MFmax 113.405 RMS 0.0280885 Nphs 26 Gap 299.336 Dist 0.705177 Mamp -9.90 0 Mdur -9.90 0
VPVSRATIO  VpVsRatio 1.78648  Npair 13  Diff 0.602757
STATISTICS  ExpectX 738.692239 Y 9818.509441 Z 0.365712  CovXX 0.017648 XY 0.000131312 XZ -0.00878742 YY 0.0123069 YZ -0.00274685 ZZ 0.0168119 EllAz1  57.1004 Dip1  43.9994 Len1  0.164077 Az2  337.846 Dip2  -10.9284 Len2  0.212782 Len3  3.047780e-01
STAT_GEOG  ExpectLat 9818.509441 Long 738.692239 Depth 0.365712
TRANSFORM  NONE
QML_OriginQuality  assocPhCt 26  usedPhCt 26  assocStaCt -1  usedStaCt 13  depthPhCt -1  stdErr 0.0280885  azGap 299.336  secAzGap 299.336  gtLevel -  minDist 0.705177 maxDist 5.19342 medDist 2.95113
QML_OriginUncertainty  horUnc -1  minHorUnc 0.168221  maxHorUnc 0.201489  azMaxHorUnc 88.5925
QML_ConfidenceEllipsoid  semiMajorAxisLength 0.304778  semiMinorAxisLength 0.164077  semiIntermediateAxisLength 0.212782  majorAxisPlunge -43.9409  majorAxisAzimuth 78.5701  majorAxisRotation 90.578
FOCALMECH  Hyp  9818.522321 738.688988 0.379261 Mech  0 0 0 mf  0 nObs -1
PHASE ID Ins Cmp On Pha  FM Date     HrMn   Sec     Err  ErrMag    Coda      Amp       Per       PriorWt  >   TTpred    Res       Weight    StaLoc(X  Y         Z)        SDist    SAzim  RAz  RDip RQual    Tcorr       TTerr
ML06         ?    BHZ  i P      c 20230928 0826   43.4621 GAU  3.25e-04 -1.00e+00  1.27e+03 -1.00e+00    1.0000 >    0.5089    0.0720    0.3202  738.3100 9819.1170   -1.3960    0.7052 327.49 327.5 157.7 10     0.0000    0.0102
ML06         ?    BHN  i S      ? 20230928 0826   43.9373 GAU  1.40e-03 -1.00e+00 -1.00e+00 -1.00e+00    1.0000 >    0.8880    0.1681    0.0162  738.3100 9819.1170   -1.3960    0.7052 327.49 327.5 157.3 10     0.0000    0.0178
ML04         ?    BHZ  i P      c 20230928 0826   43.5244 GAU  2.97e-03 -1.00e+00 -1.00e+00 -1.00e+00    1.0000 >    0.6927   -0.0495    0.6901  737.1400 9819.2520   -1.5710    1.7122 295.22 295.2 137.2 10     0.0000    0.0139
ML04         ?    BHN  e S      ? 20230928 0826   44.0606 GAU  1.16e-03 -1.00e+00  7.13e+02 -1.00e+00    1.0000 >    1.2076   -0.0282    1.0972  737.1400 9819.2520   -1.5710    1.7122 295.22 295.2 136.5 10     0.0000    0.0242
ML14         ?    BHZ  i P      c 20230928 0826   43.5599 GAU  2.57e-03 -1.00e+00 -1.00e+00 -1.00e+00    1.0000 >    0.6870   -0.0084    1.3959  737.5530 9820.0110   -1.3980    1.8726 322.65 322.7 131.7 10     0.0000    0.0137
ML14         ?    BHE  e S      ? 20230928 0826   44.0737 GAU  4.68e-04 -1.00e+00  6.95e+02 -1.00e+00    1.0000 >    1.1990   -0.0065    1.3191  737.5530 9820.0110   -1.3980    1.8726 322.65 322.7 130.7 10     0.0000    0.0240
ML11         ?    BHZ  i P      c 20230928 0826   43.5772 GAU  1.29e-03 -1.00e+00  4.76e+01 -1.00e+00    1.0000 >    0.6919    0.0041    1.4400  738.4670 9820.4900   -1.3120    1.9802 353.56 353.6 128.6 10     0.0000    0.0138
ML11         ?    BHN  e S      ? 20230928 0826   44.1310 GAU  1.19e-03 -1.00e+00  2.50e+01 -1.00e+00    1.0000 >    1.2082    0.0416    0.8703  738.4670 9820.4900   -1.3120    1.9802 353.56 353.6 127.4 10     0.0000    0.0242
ML02         ?    BHZ  i P      d 20230928 0826   43.6886 GAU  1.30e-03 -1.00e+00 -1.00e+00 -1.00e+00    1.0000 >    0.7850    0.0223    1.1971  736.5970 9819.4060   -1.4960    2.2710 292.90 292.9 127.4 10     0.0000    0.0157
ML02         ?    BHN  e S      ? 20230928 0826   44.2774 GAU  1.08e-03 -1.00e+00 -1.00e+00 -1.00e+00    1.0000 >    1.3692    0.0270    1.0899  736.5970 9819.4060   -1.4960    2.2710 292.90 292.9 126.3 10     0.0000    0.0274
ML09         ?    BHZ  i P      c 20230928 0826   43.6950 GAU  6.66e-04 -1.00e+00  3.80e+02 -1.00e+00    1.0000 >    0.8154   -0.0017    1.4226  737.8820 9820.9850   -1.2700    2.5915 341.86 341.9 120.1 10     0.0000    0.0163
ML09         ?    BHN  e S      ? 20230928 0826   44.2818 GAU  1.86e-03 -1.00e+00  5.94e+02 -1.00e+00    1.0000 >    1.4244   -0.0238    1.1300  737.8820 9820.9850   -1.2700    2.5915 341.86 341.9 118.5 10     0.0000    0.0285
ML03         ?    BHZ  i P      c 20230928 0826   43.8097 GAU  9.31e-04 -1.00e+00 -1.00e+00 -1.00e+00    1.0000 >    0.9069    0.0215    1.2088  736.8800 9820.8540   -1.3350    2.9511 322.19 322.2 117.5 10     0.0000    0.0181
ML03         ?    BHE  e S      ? 20230928 0826   44.5033 GAU  3.64e-04 -1.00e+00 -1.00e+00 -1.00e+00    1.0000 >    1.5836    0.0384    0.9251  736.8800 9820.8540   -1.3350    2.9511 322.19 322.2 115.8 10     0.0000    0.0317
ML13         ?    BHZ  i P      c 20230928 0826   43.8158 GAU  2.17e-03 -1.00e+00 -1.00e+00 -1.00e+00    1.0000 >    0.9903   -0.0557    0.6177  737.1780 9821.5410   -1.2220    3.3757 333.41 333.4 112.6 10     0.0000    0.0198
ML13         ?    BHE  e S      ? 20230928 0826   44.5532 GAU  2.43e-03 -1.00e+00 -1.00e+00 -1.00e+00    1.0000 >    1.7305   -0.0585    0.6410  737.1780 9821.5410   -1.2220    3.3757 333.41 333.4 110.3 10     0.0000    0.0346
ML10         ?    BHZ  e P      c 20230928 0826   43.8927 GAU  6.11e-03 -1.00e+00  9.61e+02 -1.00e+00    1.0000 >    1.0337   -0.0223    1.1910  736.5490 9821.3650   -1.2200    3.5581 323.03 323.0 111.3 10     0.0000    0.0207
ML10         ?    BHN  e S      ? 20230928 0826   44.6733 GAU  1.51e-03 -1.00e+00 -1.00e+00 -1.00e+00    1.0000 >    1.8064   -0.0144    1.1309  736.5490 9821.3650   -1.2200    3.5581 323.03 323.0 108.9 10     0.0000    0.0361
ML05         ?    BHZ  e P      d 20230928 0826   44.1166 GAU  1.51e-03 -1.00e+00  3.82e+01 -1.00e+00    1.0000 >    1.2082    0.0271    1.1007  736.2660 9822.0830   -1.1500    4.3069 325.77 325.8 106.5 10     0.0000    0.0242
ML05         ?    BHE  e S      ? 20230928 0826   45.0839 GAU  1.31e-03 -1.00e+00 -1.00e+00 -1.00e+00    1.0000 >    2.1120    0.0907    0.3635  736.2660 9822.0830   -1.1500    4.3069 325.77 325.8 103.5 10     0.0000    0.0422
ML07         ?    BHZ  i P      d 20230928 0826   44.1199 GAU  1.29e-03 -1.00e+00 -1.00e+00 -1.00e+00    1.0000 >    1.2415   -0.0028    1.3190  737.4430 9822.8030   -1.1120    4.4583 343.77 343.8 105.5 10     0.0000    0.0248
ML07         ?    BHE  e S      ? 20230928 0826   45.0808 GAU  8.87e-04 -1.00e+00 -1.00e+00 -1.00e+00    1.0000 >    2.1704    0.0291    0.9621  737.4430 9822.8030   -1.1120    4.4583 343.77 343.8 102.4 10     0.0000    0.0434
ML01         ?    BHZ  e P      d 20230928 0826   44.1547 GAU  1.34e-04 -1.00e+00  3.12e+02 -1.00e+00    1.0000 >    1.2769   -0.0035    1.3088  736.4090 9822.5140   -1.1200    4.5969 330.27 330.3 105.0 10     0.0000    0.0255
ML01         ?    BHE  e S      ? 20230928 0826   45.1074 GAU  1.95e-03 -1.00e+00  4.76e+02 -1.00e+00    1.0000 >    2.2322   -0.0060    1.0584  736.4090 9822.5140   -1.1200    4.5969 330.27 330.3 101.8 10     0.0000    0.0446
ML12         ?    BHZ  e P      d 20230928 0826   44.2752 GAU  6.76e-04 -1.00e+00 -1.00e+00 -1.00e+00    1.0000 >    1.4126   -0.0187    1.1851  736.8520 9823.3800   -0.9890    5.1934 339.29 339.3 102.1 10     0.0000    0.0283
ML12         ?    BHE  e S      ? 20230928 0826   45.3531 GAU  1.60e-03 -1.00e+00  4.40e+02 -1.00e+00    1.0000 >    2.4612    0.0107    0.9992  736.8520 9823.3800   -0.9890    5.1934 339.29 339.3  67.2 10     0.0000    0.0492
END_PHASE
END_NLLOC

