NLLOC "./loc/SEML.20230911.021237.grid0" "REJECTED" "WARNING: max prob location on grid boundary 20, rejecting location."
PUBLIC_ID None
SIGNATURE "Arham Zakki Edelo - edelo.17034@mhs.its.ac.id   obs:./obs/2023_09.obs   NLLoc:v7.00.10(30Aug2020)   run:22Jan2024 21h53m50"
COMMENT "SEML"
GRID  2001 2001 1001  727 9811 -2  0.01 0.01 0.01 PROB_DENSITY
SEARCH OCTREE nInitial 4851 nEvaluated 20011 smallestNodeSide 0.119048/0.119048/0.113636 oct_tree_integral 7.690828e+00 scatter_volume 7.690828e+00
HYPOCENTER  x 741.94 y 9811.06 z 7.71591  OT 34.791  ix -1 iy -1 iz -1 MAXIMUM_LIKELIHOOD
GEOGRAPHIC  OT 2023 09 11  02 12 34.790987  Lat 9811.059524 Long 741.940476 Depth 7.715909
QUALITY  Pmax 1.17304e+48 MFmin 34.99 MFmax 40.1292 RMS 0.145862 Nphs 18 Gap 351.162 Dist 8.83761 Mamp -9.90 0 Mdur -9.90 0
VPVSRATIO  VpVsRatio 1.69665  Npair 9  Diff 0.706577
STATISTICS  ExpectX 743.570924 Y 9811.879400 Z 6.251673  CovXX 7.37697 XY 0.911904 XZ 1.81355 YY 0.5459 YZ 0.149308 ZZ 4.16018 EllAz1  172.13 Dip1  -1.53958 Len1  1.22326 Az2  258.634 Dip2  66.2133 Len2  3.44575 Len3  5.411429e+00
STAT_GEOG  ExpectLat 9811.879400 Long 743.570924 Depth 6.251673
TRANSFORM  NONE
QML_OriginQuality  assocPhCt 18  usedPhCt 18  assocStaCt -1  usedStaCt 9  depthPhCt -1  stdErr 0.145862  azGap 351.162  secAzGap 351.162  gtLevel -  minDist 8.83761 maxDist 13.3299 medDist 11.5127
QML_OriginUncertainty  horUnc -1  minHorUnc 0.990153  maxHorUnc 4.15237  azMaxHorUnc 82.5257
QML_ConfidenceEllipsoid  semiMajorAxisLength 5.41143  semiMinorAxisLength 1.22326  semiIntermediateAxisLength 3.44575  majorAxisPlunge 23.7306  majorAxisAzimuth 82.807  majorAxisRotation 357.513
FOCALMECH  Hyp  9811.059524 741.940476 7.715909 Mech  0 0 0 mf  0 nObs -1
PHASE ID Ins Cmp On Pha  FM Date     HrMn   Sec     Err  ErrMag    Coda      Amp       Per       PriorWt  >   TTpred    Res       Weight    StaLoc(X  Y         Z)        SDist    SAzim  RAz  RDip RQual    Tcorr       TTerr
ML06         ?    BHZ  e P      c 20230911 0212   37.7618 GAU  3.50e-03 -1.00e+00 -1.00e+00 -1.00e+00    1.0000 >    2.9777   -0.0068    1.4425  738.3100 9819.1170   -1.3960    8.8376 335.74 335.7 133.3 10     0.0000    0.0596
ML06         ?    BHE  e S      ? 20230911 0212   39.7398 GAU  1.94e-03 -1.00e+00 -1.00e+00 -1.00e+00    1.0000 >    4.9479    0.0009    1.2860  738.3100 9819.1170   -1.3960    8.8376 335.74 335.7 132.9 10     0.0000    0.0990
ML14         ?    BHZ  e P      d 20230911 0212   38.2079 GAU  2.02e-03 -1.00e+00  8.46e+02 -1.00e+00    1.0000 >    3.1667    0.2502    0.7228  737.5530 9820.0110   -1.3980    9.9689 333.89 333.9 129.6 10     0.0000    0.0633
ML14         ?    BHE  e S      ? 20230911 0212   40.5035 GAU  1.06e-03 -1.00e+00  3.36e+02 -1.00e+00    1.0000 >    5.2604    0.4521    0.3579  737.5530 9820.0110   -1.3980    9.9689 333.89 333.9 129.1 10     0.0000    0.1052
ML11         ?    BHZ  e P      c 20230911 0212   38.0736 GAU  1.12e-03 -1.00e+00 -1.00e+00 -1.00e+00    1.0000 >    3.1622    0.1204    1.0876  738.4670 9820.4900   -1.3120   10.0498 339.78 339.8 129.1 10     0.0000    0.0632
ML11         ?    BHE  e S      ? 20230911 0212   40.1968 GAU  1.44e-03 -1.00e+00 -1.00e+00 -1.00e+00    1.0000 >    5.2508    0.1550    1.0622  738.4670 9820.4900   -1.3120   10.0498 339.78 339.8 128.7 10     0.0000    0.1050
ML09         ?    BHZ  e P      c 20230911 0212   38.0173 GAU  6.47e-04 -1.00e+00  1.75e+01 -1.00e+00    1.0000 >    3.2712   -0.0449    1.2632  737.8820 9820.9850   -1.2700   10.7232 337.76 337.8 127.0 10     0.0000    0.0654
ML09         ?    BHN  e S      ? 20230911 0212   40.1376 GAU  8.24e-04 -1.00e+00  4.69e+02 -1.00e+00    1.0000 >    5.4297   -0.0831    0.9556  737.8820 9820.9850   -1.2700   10.7232 337.76 337.8 126.6 10     0.0000    0.1086
ML13         ?    BHZ  e P      c 20230911 0212   38.1843 GAU  2.42e-04 -1.00e+00 -1.00e+00 -1.00e+00    1.0000 >    3.4034   -0.0101    1.4011  737.1780 9821.5410   -1.2220   11.5127 335.56 335.6 124.7 10     0.0000    0.0681
ML13         ?    BHE  e S      ? 20230911 0212   40.5081 GAU  3.47e-04 -1.00e+00 -1.00e+00 -1.00e+00    1.0000 >    5.6467    0.0704    1.2411  737.1780 9821.5410   -1.2220   11.5127 335.56 335.6 124.4 10     0.0000    0.1129
ML08         ?    BHZ  e P      c 20230911 0212   38.4614 GAU  2.01e-04 -1.00e+00 -1.00e+00 -1.00e+00    1.0000 >    3.4230    0.2475    0.7401  738.2480 9822.1600   -1.1510   11.6985 341.60 341.6 124.1 10     0.0000    0.0685
ML08         ?    BHN  e S      ? 20230911 0212   40.9374 GAU  1.12e-03 -1.00e+00  2.89e+02 -1.00e+00    1.0000 >    5.6771    0.4694    0.3426  738.2480 9822.1600   -1.1510   11.6985 341.60 341.6 123.8 10     0.0000    0.1135
ML05         ?    BHZ  e P      c 20230911 0212   38.3750 GAU  6.64e-03 -1.00e+00  3.34e+01 -1.00e+00    1.0000 >    3.5528    0.0311    1.4111  736.2660 9822.0830   -1.1500   12.3983 332.76 332.8 122.4 10     0.0000    0.0711
ML05         ?    BHN  e S      ? 20230911 0212   40.7180 GAU  1.38e-03 -1.00e+00  2.38e+02 -1.00e+00    1.0000 >    5.8912    0.0358    1.2408  736.2660 9822.0830   -1.1500   12.3983 332.76 332.8 122.0 10     0.0000    0.1178
ML07         ?    BHZ  e P      c 20230911 0212   38.3615 GAU  1.32e-03 -1.00e+00 -1.00e+00 -1.00e+00    1.0000 >    3.5785   -0.0081    1.3907  737.4430 9822.8030   -1.1120   12.5752 339.04 339.0 121.9 10     0.0000    0.0716
ML07         ?    BHE  e S      ? 20230911 0212   40.7277 GAU  8.24e-04 -1.00e+00 -1.00e+00 -1.00e+00    1.0000 >    5.9325    0.0042    1.2102  737.4430 9822.8030   -1.1120   12.5752 339.04 339.0 121.5 10     0.0000    0.1187
ML12         ?    BHZ  e P      c 20230911 0212   38.7895 GAU  1.30e-03 -1.00e+00 -1.00e+00 -1.00e+00    1.0000 >    3.6982    0.3003    0.6202  736.8520 9823.3800   -0.9890   13.3299 337.56 337.6 120.0 10     0.0000    0.0740
ML12         ?    BHE  e S      ? 20230911 0212   41.4740 GAU  1.21e-03 -1.00e+00  1.00e+01 -1.00e+00    1.0000 >    6.1262    0.5569    0.2242  736.8520 9823.3800   -0.9890   13.3299 337.56 337.6 119.6 10     0.0000    0.1225
END_PHASE
END_NLLOC

