NLLOC "./loc/SEML.20230915.174842.grid0" "LOCATED" "Location completed."
PUBLIC_ID None
SIGNATURE "Arham Zakki Edelo - edelo.17034@mhs.its.ac.id   obs:./obs/2023_09.obs   NLLoc:v7.00.10(30Aug2020)   run:22Jan2024 21h55m08"
COMMENT "SEML"
GRID  2001 2001 1001  727 9811 -2  0.01 0.01 0.01 PROB_DENSITY
SEARCH OCTREE nInitial 4851 nEvaluated 20003 smallestNodeSide 0.014881/0.014881/0.014205 oct_tree_integral 3.665081e-02 scatter_volume 3.648230e-02
HYPOCENTER  x 737.067 y 9818.17 z 0.194602  OT 41.7822  ix -1 iy -1 iz -1 MAXIMUM_LIKELIHOOD
GEOGRAPHIC  OT 2023 09 15  17 48 41.782234  Lat 9818.165179 Long 737.066964 Depth 0.194602
QUALITY  Pmax 2.91296e+66 MFmin 74.7535 MFmax 91.0961 RMS 0.0241811 Nphs 20 Gap 295.888 Dist 1.08927 Mamp -9.90 0 Mdur -9.90 0
VPVSRATIO  VpVsRatio 1.82954  Npair 10  Diff 0.606346
STATISTICS  ExpectX 737.680612 Y 9818.269239 Z 0.234618  CovXX 0.218005 XY 0.0277022 XZ -0.00506442 YY 0.0258654 YZ 0.000856902 ZZ 0.0167801 EllAz1  166.968 Dip1  74.6968 Len1  0.239425 Az2  352.34 Dip2  15.2391 Len2  0.281043 Len3  8.853184e-01
STAT_GEOG  ExpectLat 9818.269239 Long 737.680612 Depth 0.234618
TRANSFORM  NONE
QML_OriginQuality  assocPhCt 20  usedPhCt 20  assocStaCt -1  usedStaCt 10  depthPhCt -1  stdErr 0.0241811  azGap 295.888  secAzGap 295.888  gtLevel -  minDist 1.08927 maxDist 5.21925 medDist 2.82454
QML_OriginUncertainty  horUnc -1  minHorUnc 0.224695  maxHorUnc 0.714434  azMaxHorUnc 81.9574
QML_ConfidenceEllipsoid  semiMajorAxisLength 0.885318  semiMinorAxisLength 0.239425  semiIntermediateAxisLength 0.281043  majorAxisPlunge -1.36615  majorAxisAzimuth 81.9681  majorAxisRotation 74.773
FOCALMECH  Hyp  9818.165179 737.066964 0.194602 Mech  0 0 0 mf  0 nObs -1
PHASE ID Ins Cmp On Pha  FM Date     HrMn   Sec     Err  ErrMag    Coda      Amp       Per       PriorWt  >   TTpred    Res       Weight    StaLoc(X  Y         Z)        SDist    SAzim  RAz  RDip RQual    Tcorr       TTerr
ML04         ?    BHZ  e P      c 20230915 1748   42.3373 GAU  1.52e-03 -1.00e+00 -1.00e+00 -1.00e+00    1.0000 >    0.5558   -0.0008    1.8542  737.1400 9819.2520   -1.5710    1.0893   3.84   3.8 147.2 10     0.0000    0.0111
ML04         ?    BHN  e S      ? 20230915 1748   42.8586 GAU  3.70e-04 -1.00e+00  7.33e+02 -1.00e+00    1.0000 >    0.9703    0.1061    0.0660  737.1400 9819.2520   -1.5710    1.0893   3.84   3.8 146.6 10     0.0000    0.0194
ML06         ?    BHZ  i P      d 20230915 1748   42.3745 GAU  2.98e-03 -1.00e+00  4.50e+02 -1.00e+00    1.0000 >    0.5959   -0.0037    1.8039  738.3100 9819.1170   -1.3960    1.5656  52.56  52.6 133.7 10     0.0000    0.0119
ML06         ?    BHN  e S      ? 20230915 1748   42.8541 GAU  2.24e-03 -1.00e+00 -1.00e+00 -1.00e+00    1.0000 >    1.0418    0.0301    1.1596  738.3100 9819.1170   -1.3960    1.5656  52.56  52.6 132.7 10     0.0000    0.0208
ML14         ?    BHZ  e P      c 20230915 1748   42.4490 GAU  1.51e-03 -1.00e+00 -1.00e+00 -1.00e+00    1.0000 >    0.6638    0.0030    1.8223  737.5530 9820.0110   -1.3980    1.9087  14.75  14.8 127.5 10     0.0000    0.0133
ML14         ?    BHN  e S      ? 20230915 1748   42.9312 GAU  1.65e-03 -1.00e+00  3.05e+02 -1.00e+00    1.0000 >    1.1605   -0.0115    1.4418  737.5530 9820.0110   -1.3980    1.9087  14.75  14.8 126.2 10     0.0000    0.0232
ML03         ?    BHZ  e P      c 20230915 1748   42.6384 GAU  8.98e-04 -1.00e+00 -1.00e+00 -1.00e+00    1.0000 >    0.8263    0.0298    1.1390  736.8800 9820.8540   -1.3350    2.6953 356.02 356.0 116.5 10     0.0000    0.0165
ML03         ?    BHN  e S      ? 20230915 1748   43.2149 GAU  1.42e-03 -1.00e+00 -1.00e+00 -1.00e+00    1.0000 >    1.4458   -0.0131    1.3130  736.8800 9820.8540   -1.3350    2.6953 356.02 356.0 114.3 10     0.0000    0.0289
ML11         ?    BHZ  e P      d 20230915 1748   42.4893 GAU  4.31e-03 -1.00e+00  6.41e+02 -1.00e+00    1.0000 >    0.8273   -0.1202    0.1531  738.4670 9820.4900   -1.3120    2.7138  31.06  31.1 116.0 10     0.0000    0.0165
ML11         ?    BHE  i S      ? 20230915 1748   43.0485 GAU  9.88e-04 -1.00e+00 -1.00e+00 -1.00e+00    1.0000 >    1.4477   -0.1814    0.0856  738.4670 9820.4900   -1.3120    2.7138  31.06  31.1 113.7 10     0.0000    0.0290
ML09         ?    BHZ  e P      c 20230915 1748   42.6306 GAU  1.29e-03 -1.00e+00 -1.00e+00 -1.00e+00    1.0000 >    0.8734   -0.0250    1.1006  737.8820 9820.9850   -1.2700    2.9352  16.12  16.1 113.2 10     0.0000    0.0175
ML09         ?    BHN  e S      ? 20230915 1748   43.1763 GAU  3.71e-03 -1.00e+00  4.73e+02 -1.00e+00    1.0000 >    1.5291   -0.1349    0.1891  737.8820 9820.9850   -1.2700    2.9352  16.12  16.1 110.6 10     0.0000    0.0306
ML13         ?    BHZ  i P      d 20230915 1748   42.7666 GAU  9.32e-04 -1.00e+00  1.46e+02 -1.00e+00    1.0000 >    0.9737    0.0107    1.6184  737.1780 9821.5410   -1.2220    3.3776   1.88   1.9 109.3 10     0.0000    0.0195
ML13         ?    BHN  e S      ? 20230915 1748   43.5125 GAU  5.12e-04 -1.00e+00 -1.00e+00 -1.00e+00    1.0000 >    1.7056    0.0247    1.1792  737.1780 9821.5410   -1.2220    3.3776   1.88   1.9 105.9 10     0.0000    0.0341
ML05         ?    BHZ  e P      d 20230915 1748   43.0801 GAU  1.46e-03 -1.00e+00  3.42e+02 -1.00e+00    1.0000 >    1.1187    0.1792    0.0094  736.2660 9822.0830   -1.1500    3.9989 348.45 348.4 104.9 10     0.0000    0.0224
ML05         ?    BHE  e S      ? 20230915 1748   44.0814 GAU  2.53e-04 -1.00e+00 -1.00e+00 -1.00e+00    1.0000 >    1.9609    0.3383    0.0002  736.2660 9822.0830   -1.1500    3.9989 348.45 348.4 100.5 10     0.0000    0.0392
ML07         ?    BHZ  i P      d 20230915 1748   43.0621 GAU  1.56e-03 -1.00e+00 -1.00e+00 -1.00e+00    1.0000 >    1.2790    0.0008    1.5153  737.4430 9822.8030   -1.1120    4.6530   4.64   4.6 101.9 10     0.0000    0.0256
ML07         ?    BHE  e S      ? 20230915 1748   44.0191 GAU  2.79e-04 -1.00e+00 -1.00e+00 -1.00e+00    1.0000 >    2.2417   -0.0049    1.1109  737.4430 9822.8030   -1.1120    4.6530   4.64   4.6  97.1 10     0.0000    0.0448
ML12         ?    BHZ  e P      c 20230915 1748   43.1948 GAU  1.31e-03 -1.00e+00 -1.00e+00 -1.00e+00    1.0000 >    1.4103    0.0023    1.4536  736.8520 9823.3800   -0.9890    5.2193 357.64 357.6  99.4 10     0.0000    0.0282
ML12         ?    BHE  e S      ? 20230915 1748   44.2808 GAU  5.75e-04 -1.00e+00 -1.00e+00 -1.00e+00    1.0000 >    2.4716    0.0269    0.9848  736.8520 9823.3800   -0.9890    5.2193 357.64 357.6  94.9  9     0.0000    0.0494
END_PHASE
END_NLLOC

