NLLOC "./loc/SEML.20230914.162507.grid0" "LOCATED" "Location completed."
PUBLIC_ID None
SIGNATURE "Arham Zakki Edelo - edelo.17034@mhs.its.ac.id   obs:./obs/2023_09.obs   NLLoc:v7.00.10(30Aug2020)   run:22Jan2024 21h54m14"
COMMENT "SEML"
GRID  2001 2001 1001  727 9811 -2  0.01 0.01 0.01 PROB_DENSITY
SEARCH OCTREE nInitial 4851 nEvaluated 20027 smallestNodeSide 0.014881/0.014881/0.014205 oct_tree_integral 2.213293e-02 scatter_volume 2.213293e-02
HYPOCENTER  x 737.394 y 9818.34 z 0.12358  OT 6.48229  ix -1 iy -1 iz -1 MAXIMUM_LIKELIHOOD
GEOGRAPHIC  OT 2023 09 14  16 25 6.482287  Lat 9818.343750 Long 737.394345 Depth 0.123580
QUALITY  Pmax 3.8821e+75 MFmin 86.1146 MFmax 97.065 RMS 0.0282397 Nphs 22 Gap 273.288 Dist 0.943191 Mamp -9.90 0 Mdur -9.90 0
VPVSRATIO  VpVsRatio 1.72798  Npair 11  Diff 0.703143
STATISTICS  ExpectX 737.792679 Y 9818.409630 Z 0.331449  CovXX 0.088101 XY 0.0145195 XZ 0.0579161 YY 0.0150186 YZ 0.00919833 ZZ 0.0523788 EllAz1  119.462 Dip1  -46.7475 Len1  0.180156 Az2  5.72104 Dip2  -20.7448 Len2  0.213987 Len3  6.860487e-01
STAT_GEOG  ExpectLat 9818.409630 Long 737.792679 Depth 0.331449
TRANSFORM  NONE
QML_OriginQuality  assocPhCt 22  usedPhCt 22  assocStaCt -1  usedStaCt 11  depthPhCt -1  stdErr 0.0282397  azGap 273.288  secAzGap 273.288  gtLevel -  minDist 0.943191 maxDist 5.06537 medDist 2.68589
QML_OriginUncertainty  horUnc -1  minHorUnc 0.167783  maxHorUnc 0.457191  azMaxHorUnc 79.1649
QML_ConfidenceEllipsoid  semiMajorAxisLength 0.686049  semiMinorAxisLength 0.180156  semiIntermediateAxisLength 0.213987  majorAxisPlunge 35.9135  majorAxisAzimuth 79.7999  majorAxisRotation 278.625
FOCALMECH  Hyp  9818.343750 737.394345 0.123580 Mech  0 0 0 mf  0 nObs -1
PHASE ID Ins Cmp On Pha  FM Date     HrMn   Sec     Err  ErrMag    Coda      Amp       Per       PriorWt  >   TTpred    Res       Weight    StaLoc(X  Y         Z)        SDist    SAzim  RAz  RDip RQual    Tcorr       TTerr
ML04         ?    BHZ  e P      c 20230914 1625    7.0011 GAU  2.19e-03 -1.00e+00 -1.00e+00 -1.00e+00    1.0000 >    0.5204   -0.0017    1.7323  737.1400 9819.2520   -1.5710    0.9432 344.36 344.4 149.8 10     0.0000    0.0104
ML04         ?    BHE  e S      ? 20230914 1625    7.3799 GAU  1.42e-03 -1.00e+00  4.02e+02 -1.00e+00    1.0000 >    0.9090   -0.0114    1.4951  737.1400 9819.2520   -1.5710    0.9432 344.36 344.4 149.3 10     0.0000    0.0182
ML06         ?    BHZ  i P      d 20230914 1625    7.0043 GAU  7.32e-04 -1.00e+00  2.66e+02 -1.00e+00    1.0000 >    0.5177    0.0043    1.7006  738.3100 9819.1170   -1.3960    1.1985  49.82  49.8 140.3 10     0.0000    0.0104
ML06         ?    BHN  i S      ? 20230914 1625    7.3893 GAU  2.24e-03 -1.00e+00 -1.00e+00 -1.00e+00    1.0000 >    0.9057    0.0013    1.5838  738.3100 9819.1170   -1.3960    1.1985  49.82  49.8 139.5 10     0.0000    0.0181
ML02         ?    BHZ  e P      c 20230914 1625    7.1597 GAU  7.49e-04 -1.00e+00 -1.00e+00 -1.00e+00    1.0000 >    0.5612    0.1162    0.1911  736.5970 9819.4060   -1.4960    1.3282 323.11 323.1 139.1 10     0.0000    0.0112
ML02         ?    BHN  e S      ? 20230914 1625    7.7413 GAU  1.36e-03 -1.00e+00 -1.00e+00 -1.00e+00    1.0000 >    0.9809    0.2781    0.0025  736.5970 9819.4060   -1.4960    1.3282 323.11 323.1 138.2 10     0.0000    0.0196
ML14         ?    BHZ  e P      c 20230914 1625    7.1258 GAU  2.79e-03 -1.00e+00 -1.00e+00 -1.00e+00    1.0000 >    0.6051    0.0384    0.7106  737.5530 9820.0110   -1.3980    1.6748   5.44   5.4 130.0 10     0.0000    0.0121
ML14         ?    BHN  e S      ? 20230914 1625    7.5548 GAU  1.15e-03 -1.00e+00  2.83e+02 -1.00e+00    1.0000 >    1.0587    0.0138    1.3975  737.5530 9820.0110   -1.3980    1.6748   5.44   5.4 128.7 10     0.0000    0.0212
ML11         ?    BHZ  e P      d 20230914 1625    7.1655 GAU  9.31e-04 -1.00e+00 -1.00e+00 -1.00e+00    1.0000 >    0.7464   -0.0633    0.4218  738.4670 9820.4900   -1.3120    2.3994  26.56  26.6 117.8 10     0.0000    0.0149
ML11         ?    BHN  i S      ? 20230914 1625    7.7111 GAU  1.35e-03 -1.00e+00 -1.00e+00 -1.00e+00    1.0000 >    1.3074   -0.0786    0.3328  738.4670 9820.4900   -1.3120    2.3994  26.56  26.6 115.6 10     0.0000    0.0261
ML09         ?    BHZ  i P      c 20230914 1625    7.2492 GAU  1.04e-03 -1.00e+00 -1.00e+00 -1.00e+00    1.0000 >    0.8069   -0.0400    0.8141  737.8820 9820.9850   -1.2700    2.6859  10.46  10.5 114.1 10     0.0000    0.0161
ML09         ?    BHN  e S      ? 20230914 1625    7.8952 GAU  7.32e-04 -1.00e+00  5.04e+02 -1.00e+00    1.0000 >    1.4142   -0.0013    1.3831  737.8820 9820.9850   -1.2700    2.6859  10.46  10.5 111.3 10     0.0000    0.0283
ML10         ?    BHZ  e P      c 20230914 1625    7.3830 GAU  2.61e-03 -1.00e+00 -1.00e+00 -1.00e+00    1.0000 >    0.9087   -0.0080    1.5396  736.5490 9821.3650   -1.2200    3.1373 344.37 344.4 109.5 10     0.0000    0.0182
ML10         ?    BHE  e S      ? 20230914 1625    8.0427 GAU  4.33e-04 -1.00e+00 -1.00e+00 -1.00e+00    1.0000 >    1.5938   -0.0334    1.0445  736.5490 9821.3650   -1.2200    3.1373 344.37 344.4 105.8 10     0.0000    0.0319
ML13         ?    BHZ  i P      c 20230914 1625    7.4020 GAU  5.20e-04 -1.00e+00 -1.00e+00 -1.00e+00    1.0000 >    0.9254   -0.0057    1.5601  737.1780 9821.5410   -1.2220    3.2046 356.13 356.1 109.0 10     0.0000    0.0185
ML13         ?    BHN  e S      ? 20230914 1625    8.1568 GAU  5.20e-04 -1.00e+00 -1.00e+00 -1.00e+00    1.0000 >    1.6230    0.0515    0.7222  737.1780 9821.5410   -1.2220    3.2046 356.13 356.1 105.2 10     0.0000    0.0325
ML05         ?    BHZ  e P      c 20230914 1625    7.5924 GAU  2.68e-03 -1.00e+00  2.63e+01 -1.00e+00    1.0000 >    1.0908    0.0194    1.2888  736.2660 9822.0830   -1.1500    3.9058 343.21 343.2 104.1 10     0.0000    0.0218
ML05         ?    BHE  e S      ? 20230914 1625    8.4195 GAU  3.19e-04 -1.00e+00 -1.00e+00 -1.00e+00    1.0000 >    1.9148    0.0224    1.0969  736.2660 9822.0830   -1.1500    3.9058 343.21 343.2  98.6  9     0.0000    0.0383
ML07         ?    BHZ  i P      d 20230914 1625    7.6940 GAU  7.19e-04 -1.00e+00 -1.00e+00 -1.00e+00    1.0000 >    1.2263   -0.0146    1.3666  737.4430 9822.8030   -1.1120    4.4595   0.63   0.6 101.4 10     0.0000    0.0245
ML07         ?    BHE  e S      ? 20230914 1625    8.6332 GAU  3.47e-04 -1.00e+00 -1.00e+00 -1.00e+00    1.0000 >    2.1527   -0.0018    1.1464  737.4430 9822.8030   -1.1120    4.4595   0.63   0.6  95.6  9     0.0000    0.0431
ML12         ?    BHZ  e P      d 20230914 1625    7.9443 GAU  3.05e-03 -1.00e+00 -1.00e+00 -1.00e+00    1.0000 >    1.3681    0.0940    0.2935  736.8520 9823.3800   -0.9890    5.0654 353.85 353.9  98.8 10     0.0000    0.0274
ML12         ?    BHE  e S      ? 20230914 1625    9.0263 GAU  1.68e-03 -1.00e+00  4.40e+01 -1.00e+00    1.0000 >    2.4011    0.1430    0.1763  736.8520 9823.3800   -0.9890    5.0654 353.85 353.9  93.5  9     0.0000    0.0480
END_PHASE
END_NLLOC

