NLLOC "./loc/SEML.20230914.162706.grid0" "LOCATED" "Location completed."
PUBLIC_ID None
SIGNATURE "Arham Zakki Edelo - edelo.17034@mhs.its.ac.id   obs:./obs/2023_09.obs   NLLoc:v7.00.10(30Aug2020)   run:22Jan2024 21h54m24"
COMMENT "SEML"
GRID  2001 2001 1001  727 9811 -2  0.01 0.01 0.01 PROB_DENSITY
SEARCH OCTREE nInitial 4851 nEvaluated 20011 smallestNodeSide 0.014881/0.014881/0.014205 oct_tree_integral 4.757858e-02 scatter_volume 4.705649e-02
HYPOCENTER  x 737.975 y 9817.94 z -1.60938  OT 6.15247  ix -1 iy -1 iz -1 MAXIMUM_LIKELIHOOD
GEOGRAPHIC  OT 2023 09 14  16 27 6.152468  Lat 9817.941964 Long 737.974702 Depth -1.609375
QUALITY  Pmax 1.47021e+49 MFmin 59.1562 MFmax 78.2196 RMS 0.0228135 Nphs 16 Gap 321.651 Dist 1.22194 Mamp -9.90 0 Mdur -9.90 0
VPVSRATIO  VpVsRatio 1.65641  Npair 8  Diff 0.687821
STATISTICS  ExpectX 737.995835 Y 9817.946593 Z -1.548814  CovXX 0.0157883 XY -0.000134435 XZ -0.00056673 YY 0.00784502 YZ -0.00375749 ZZ 0.0704302 EllAz1  1.18089 Dip1  3.43324 Len1  0.163973 Az2  271.212 Dip2  -0.510782 Len2  0.236061 Len3  4.994317e-01
STAT_GEOG  ExpectLat 9817.946593 Long 737.995835 Depth -1.548814
TRANSFORM  NONE
QML_OriginQuality  assocPhCt 16  usedPhCt 16  assocStaCt -1  usedStaCt 8  depthPhCt -1  stdErr 0.0228135  azGap 321.651  secAzGap 321.651  gtLevel -  minDist 1.22194 maxDist 5.55272 medDist 3.3653
QML_OriginUncertainty  horUnc -1  minHorUnc 0.134307  maxHorUnc 0.190574  azMaxHorUnc 90.9693
QML_ConfidenceEllipsoid  semiMajorAxisLength 0.499432  semiMinorAxisLength 0.163973  semiIntermediateAxisLength 0.236061  majorAxisPlunge -86.5289  majorAxisAzimuth 9.66326  majorAxisRotation 261.594
FOCALMECH  Hyp  9817.941964 737.974702 -1.609375 Mech  0 0 0 mf  0 nObs -1
PHASE ID Ins Cmp On Pha  FM Date     HrMn   Sec     Err  ErrMag    Coda      Amp       Per       PriorWt  >   TTpred    Res       Weight    StaLoc(X  Y         Z)        SDist    SAzim  RAz  RDip RQual    Tcorr       TTerr
ML06         ?    BHZ  i P      c 20230914 1627    6.7670 GAU  6.29e-04 -1.00e+00 -1.00e+00 -1.00e+00    1.0000 >    0.3410    0.2736    0.0000  738.3100 9819.1170   -1.3960    1.2219  15.93  15.9  79.9  9     0.0000    0.0068
ML06         ?    BHN  i S      ? 20230914 1627    7.2578 GAU  6.15e-04 -1.00e+00 -1.00e+00 -1.00e+00    1.0000 >    0.5882    0.5171    0.0000  738.3100 9819.1170   -1.3960    1.2219  15.93  15.9  79.9  9     0.0000    0.0118
ML14         ?    BHZ  e P      d 20230914 1627    6.7333 GAU  2.24e-03 -1.00e+00  1.12e+03 -1.00e+00    1.0000 >    0.5832   -0.0024    1.7552  737.5530 9820.0110   -1.3980    2.1116 348.48 348.5  84.1  9     0.0000    0.0117
ML14         ?    BHE  e S      ? 20230914 1627    7.1659 GAU  3.72e-03 -1.00e+00  4.34e+02 -1.00e+00    1.0000 >    1.0061    0.0073    1.6907  737.5530 9820.0110   -1.3980    2.1116 348.48 348.5  84.1  9     0.0000    0.0201
ML11         ?    BHZ  i P      c 20230914 1627    6.8932 GAU  1.30e-03 -1.00e+00 -1.00e+00 -1.00e+00    1.0000 >    0.7179    0.0228    1.4685  738.4670 9820.4900   -1.3120    2.5952  10.94  10.9  83.3 10     0.0000    0.0144
ML11         ?    BHE  e S      ? 20230914 1627    7.3970 GAU  7.67e-04 -1.00e+00 -1.00e+00 -1.00e+00    1.0000 >    1.2385    0.0060    1.6087  738.4670 9820.4900   -1.3120    2.5952  10.94  10.9  83.3 10     0.0000    0.0248
ML09         ?    BHZ  i P      c 20230914 1627    6.9786 GAU  6.07e-04 -1.00e+00  6.16e+01 -1.00e+00    1.0000 >    0.8419   -0.0158    1.4131  737.8820 9820.9850   -1.2700    3.0444 358.26 358.3  83.5 10     0.0000    0.0168
ML09         ?    BHE  e S      ? 20230914 1627    7.5797 GAU  5.31e-04 -1.00e+00  3.54e+02 -1.00e+00    1.0000 >    1.4524   -0.0251    1.1279  737.8820 9820.9850   -1.2700    3.0444 358.26 358.3  83.5 10     0.0000    0.0290
ML13         ?    BHZ  e P      c 20230914 1627    7.0655 GAU  1.67e-04 -1.00e+00 -1.00e+00 -1.00e+00    1.0000 >    1.0186   -0.1056    0.0692  737.1780 9821.5410   -1.2220    3.6862 347.52 347.5  83.8 10     0.0000    0.0204
ML13         ?    BHE  e S      ? 20230914 1627    7.7340 GAU  2.51e-04 -1.00e+00 -1.00e+00 -1.00e+00    1.0000 >    1.7572   -0.1757    0.0383  737.1780 9821.5410   -1.2220    3.6862 347.52 347.5  83.8 10     0.0000    0.0351
ML05         ?    BHZ  i P      d 20230914 1627    7.3883 GAU  5.42e-04 -1.00e+00  2.87e+02 -1.00e+00    1.0000 >    1.2376   -0.0017    1.5786  736.2660 9822.0830   -1.1500    4.4797 337.58 337.6  84.0 10     0.0000    0.0248
ML05         ?    BHN  e S      ? 20230914 1627    8.3333 GAU  1.40e-04 -1.00e+00  2.60e+02 -1.00e+00    1.0000 >    2.1349    0.0459    0.9973  736.2660 9822.0830   -1.1500    4.4797 337.58 337.6  84.0 10     0.0000    0.0427
ML07         ?    BHZ  i P      c 20230914 1627    7.5610 GAU  2.01e-04 -1.00e+00 -1.00e+00 -1.00e+00    1.0000 >    1.3508    0.0578    0.7477  737.4430 9822.8030   -1.1120    4.8900 353.76 353.8  84.0 10     0.0000    0.0270
ML07         ?    BHN  e S      ? 20230914 1627    8.5359 GAU  1.64e-04 -1.00e+00 -1.00e+00 -1.00e+00    1.0000 >    2.3303    0.0531    0.8962  737.4430 9822.8030   -1.1120    4.8900 353.76 353.8  84.0 10     0.0000    0.0466
ML12         ?    BHZ  e P      c 20230914 1627    7.6932 GAU  5.22e-04 -1.00e+00 -1.00e+00 -1.00e+00    1.0000 >    1.5345    0.0063    1.4879  736.8520 9823.3800   -0.9890    5.5527 348.33 348.3  82.4 10     0.0000    0.0307
ML12         ?    BHE  e S      ? 20230914 1627    8.8136 GAU  3.97e-04 -1.00e+00  6.58e+01 -1.00e+00    1.0000 >    2.6483    0.0128    1.1207  736.8520 9823.3800   -0.9890    5.5527 348.33 348.3  83.1 10     0.0000    0.0530
END_PHASE
END_NLLOC

