NLLOC "./loc/SEML.20230921.180549.grid0" "LOCATED" "Location completed."
PUBLIC_ID None
SIGNATURE "Arham Zakki Edelo - edelo.17034@mhs.its.ac.id   obs:./obs/2023_09.obs   NLLoc:v7.00.10(30Aug2020)   run:22Jan2024 21h55m42"
COMMENT "SEML"
GRID  2001 2001 1001  727 9811 -2  0.01 0.01 0.01 PROB_DENSITY
SEARCH OCTREE nInitial 4851 nEvaluated 20011 smallestNodeSide 0.014881/0.014881/0.014205 oct_tree_integral 3.696922e-02 scatter_volume 3.663801e-02
HYPOCENTER  x 737.662 y 9818.25 z 0.890625  OT 48.3772  ix -1 iy -1 iz -1 MAXIMUM_LIKELIHOOD
GEOGRAPHIC  OT 2023 09 21  18 05 48.377213  Lat 9818.254464 Long 737.662202 Depth 0.890625
QUALITY  Pmax 2.14647e+42 MFmin 49.0424 MFmax 63.941 RMS 0.029081 Nphs 14 Gap 303.056 Dist 1.07871 Mamp -9.90 0 Mdur -9.90 0
VPVSRATIO  VpVsRatio 1.6982  Npair 7  Diff 0.638798
STATISTICS  ExpectX 738.020479 Y 9818.281204 Z 0.804338  CovXX 0.490669 XY 0.0874214 XZ -0.0773692 YY 0.0514381 YZ -0.0353805 ZZ 0.0626595 EllAz1  356.037 Dip1  35.2644 Len1  0.267723 Az2  334.969 Dip2  -52.8465 Len2  0.468373 Len3  1.357857e+00
STAT_GEOG  ExpectLat 9818.281204 Long 738.020479 Depth 0.804338
TRANSFORM  NONE
QML_OriginQuality  assocPhCt 14  usedPhCt 14  assocStaCt -1  usedStaCt 7  depthPhCt -1  stdErr 0.029081  azGap 303.056  secAzGap 303.056  gtLevel -  minDist 1.07871 maxDist 5.18918 medDist 2.73937
QML_OriginUncertainty  horUnc -1  minHorUnc 0.282416  maxHorUnc 1.08032  azMaxHorUnc 79.1471
QML_ConfidenceEllipsoid  semiMajorAxisLength 1.35786  semiMinorAxisLength 0.267723  semiIntermediateAxisLength 0.468373  majorAxisPlunge -10.2109  majorAxisAzimuth 78.72  majorAxisRotation 142.297
FOCALMECH  Hyp  9818.254464 737.662202 0.890625 Mech  0 0 0 mf  0 nObs -1
PHASE ID Ins Cmp On Pha  FM Date     HrMn   Sec     Err  ErrMag    Coda      Amp       Per       PriorWt  >   TTpred    Res       Weight    StaLoc(X  Y         Z)        SDist    SAzim  RAz  RDip RQual    Tcorr       TTerr
ML06         ?    BHZ  i P      c 20230921 1805   49.0464 GAU  1.40e-03 -1.00e+00 -1.00e+00 -1.00e+00    1.0000 >    0.6679    0.0013    1.6972  738.3100 9819.1170   -1.3960    1.0787  36.91  36.9 153.9 10     0.0000    0.0134
ML06         ?    BHE  e S      ? 20230921 1805   49.5258 GAU  2.27e-03 -1.00e+00 -1.00e+00 -1.00e+00    1.0000 >    1.1486   -0.0000    1.5086  738.3100 9819.1170   -1.3960    1.0787  36.91  36.9 151.9 10     0.0000    0.0230
ML14         ?    BHZ  i P      c 20230921 1805   49.1533 GAU  9.92e-04 -1.00e+00 -1.00e+00 -1.00e+00    1.0000 >    0.7622    0.0139    1.4500  737.5530 9820.0110   -1.3980    1.7599 356.44 356.4 141.2 10     0.0000    0.0152
ML14         ?    BHN  e S      ? 20230921 1805   49.6808 GAU  5.62e-04 -1.00e+00  3.27e+02 -1.00e+00    1.0000 >    1.3105   -0.0069    1.4104  737.5530 9820.0110   -1.3980    1.7599 356.44 356.4 137.9 10     0.0000    0.0262
ML11         ?    BHZ  e P      c 20230921 1805   49.2244 GAU  1.03e-03 -1.00e+00 -1.00e+00 -1.00e+00    1.0000 >    0.8537   -0.0065    1.6081  738.4670 9820.4900   -1.3120    2.3760  19.80  19.8 130.9 10     0.0000    0.0171
ML11         ?    BHN  e S      ? 20230921 1805   49.8798 GAU  5.72e-04 -1.00e+00 -1.00e+00 -1.00e+00    1.0000 >    1.4665    0.0360    0.9145  738.4670 9820.4900   -1.3120    2.3760  19.80  19.8 126.4 10     0.0000    0.0293
ML09         ?    BHZ  i P      c 20230921 1805   49.2731 GAU  3.74e-04 -1.00e+00  1.12e+02 -1.00e+00    1.0000 >    0.9186   -0.0226    1.2183  737.8820 9820.9850   -1.2700    2.7394   4.60   4.6 126.1 10     0.0000    0.0184
ML09         ?    BHN  e S      ? 20230921 1805   49.9395 GAU  2.61e-04 -1.00e+00  4.67e+02 -1.00e+00    1.0000 >    1.5770   -0.0147    1.2285  737.8820 9820.9850   -1.2700    2.7394   4.60   4.6 120.7 10     0.0000    0.0315
ML05         ?    BHZ  e P      c 20230921 1805   49.7319 GAU  5.99e-04 -1.00e+00  2.01e+01 -1.00e+00    1.0000 >    1.1965    0.1582    0.1310  736.2660 9822.0830   -1.1500    4.0752 339.96 340.0 113.8 10     0.0000    0.0239
ML05         ?    BHN  e S      ? 20230921 1805   50.6944 GAU  1.41e-04 -1.00e+00  2.57e+02 -1.00e+00    1.0000 >    2.0467    0.2705    0.0591  736.2660 9822.0830   -1.1500    4.0752 339.96 340.0 106.1 10     0.0000    0.0409
ML07         ?    BHZ  i P      d 20230921 1805   49.6753 GAU  6.47e-04 -1.00e+00 -1.00e+00 -1.00e+00    1.0000 >    1.3046   -0.0065    1.4162  737.4430 9822.8030   -1.1120    4.5538 357.24 357.2 110.8 10     0.0000    0.0261
ML07         ?    BHE  e S      ? 20230921 1805   50.6326 GAU  4.34e-04 -1.00e+00 -1.00e+00 -1.00e+00    1.0000 >    2.2271    0.0284    0.9714  737.4430 9822.8030   -1.1120    4.5538 357.24 357.2 102.7 10     0.0000    0.0445
ML12         ?    BHZ  i P      c 20230921 1805   49.9097 GAU  1.03e-03 -1.00e+00 -1.00e+00 -1.00e+00    1.0000 >    1.4429    0.0897    0.2251  736.8520 9823.3800   -0.9890    5.1892 351.02 351.0 106.9 10     0.0000    0.0289
ML12         ?    BHE  e S      ? 20230921 1805   51.0280 GAU  6.87e-04 -1.00e+00  2.60e+01 -1.00e+00    1.0000 >    2.4525    0.1982    0.1616  736.8520 9823.3800   -0.9890    5.1892 351.02 351.0  99.2 10     0.0000    0.0491
END_PHASE
END_NLLOC

