NLLOC "./loc/SEML.20230928.084733.grid0" "LOCATED" "Location completed."
PUBLIC_ID None
SIGNATURE "Arham Zakki Edelo - edelo.17034@mhs.its.ac.id   obs:./obs/2023_09.obs   NLLoc:v7.00.10(30Aug2020)   run:22Jan2024 21h56m43"
COMMENT "SEML"
GRID  2001 2001 1001  727 9811 -2  0.01 0.01 0.01 PROB_DENSITY
SEARCH OCTREE nInitial 4851 nEvaluated 20011 smallestNodeSide 0.007440/0.007440/0.007102 oct_tree_integral 9.456542e-03 scatter_volume 9.456542e-03
HYPOCENTER  x 738.031 y 9818.68 z 0.879972  OT 33.0742  ix -1 iy -1 iz -1 MAXIMUM_LIKELIHOOD
GEOGRAPHIC  OT 2023 09 28  08 47 33.074199  Lat 9818.682292 Long 738.030506 Depth 0.879972
QUALITY  Pmax 2.05838e+57 MFmin 66.9834 MFmax 89.0464 RMS 0.033433 Nphs 18 Gap 269.871 Dist 0.516806 Mamp -9.90 0 Mdur -9.90 0
VPVSRATIO  VpVsRatio 1.72174  Npair 9  Diff 0.704376
STATISTICS  ExpectX 738.069342 Y 9818.662500 Z 0.778076  CovXX 0.0569992 XY -0.0107329 XZ -0.0552777 YY 0.00969468 YZ 0.00986615 ZZ 0.0873473 EllAz1  18.5305 Dip1  5.84833 Len1  0.159014 Az2  293.018 Dip2  -37.3724 Len2  0.235311 Len3  6.805209e-01
STAT_GEOG  ExpectLat 9818.662500 Long 738.069342 Depth 0.778076
TRANSFORM  NONE
QML_OriginQuality  assocPhCt 18  usedPhCt 18  assocStaCt -1  usedStaCt 9  depthPhCt -1  stdErr 0.033433  azGap 269.871  secAzGap 269.871  gtLevel -  minDist 0.516806 maxDist 4.84328 medDist 2.30749
QML_OriginUncertainty  horUnc -1  minHorUnc 0.130226  maxHorUnc 0.369374  azMaxHorUnc 102.204
QML_ConfidenceEllipsoid  semiMajorAxisLength 0.680521  semiMinorAxisLength 0.159014  semiIntermediateAxisLength 0.235311  majorAxisPlunge -52.0128  majorAxisAzimuth 100.994  majorAxisRotation 214.709
FOCALMECH  Hyp  9818.682292 738.030506 0.879972 Mech  0 0 0 mf  0 nObs -1
PHASE ID Ins Cmp On Pha  FM Date     HrMn   Sec     Err  ErrMag    Coda      Amp       Per       PriorWt  >   TTpred    Res       Weight    StaLoc(X  Y         Z)        SDist    SAzim  RAz  RDip RQual    Tcorr       TTerr
ML06         ?    BHZ  i P      c 20230928 0847   33.6996 GAU  6.29e-04 -1.00e+00 -1.00e+00 -1.00e+00    1.0000 >    0.6166    0.0088    1.7084  738.3100 9819.1170   -1.3960    0.5168  32.74  32.7 166.7 10     0.0000    0.0123
ML06         ?    BHN  e S      ? 20230928 0847   34.1447 GAU  8.98e-04 -1.00e+00 -1.00e+00 -1.00e+00    1.0000 >    1.0610    0.0096    1.5531  738.3100 9819.1170   -1.3960    0.5168  32.74  32.7 165.7 10     0.0000    0.0212
ML04         ?    BHZ  e P      d 20230928 0847   33.7761 GAU  8.58e-04 -1.00e+00  5.93e+02 -1.00e+00    1.0000 >    0.7071   -0.0053    1.8287  737.1400 9819.2520   -1.5710    1.0572 302.61 302.6 155.9 10     0.0000    0.0141
ML04         ?    BHN  e S      ? 20230928 0847   34.2973 GAU  1.32e-03 -1.00e+00  7.46e+02 -1.00e+00    1.0000 >    1.2168    0.0063    1.5355  737.1400 9819.2520   -1.5710    1.0572 302.61 302.6 154.0 10     0.0000    0.0243
ML14         ?    BHZ  i P      c 20230928 0847   33.7477 GAU  2.61e-03 -1.00e+00 -1.00e+00 -1.00e+00    1.0000 >    0.7079   -0.0344    0.9555  737.5530 9820.0110   -1.3980    1.4119 340.23 340.2 147.2 10     0.0000    0.0142
ML14         ?    BHE  e S      ? 20230928 0847   34.2397 GAU  8.73e-04 -1.00e+00  3.50e+02 -1.00e+00    1.0000 >    1.2177   -0.0522    0.5861  737.5530 9820.0110   -1.3980    1.4119 340.23 340.2 144.6 10     0.0000    0.0244
ML11         ?    BHZ  i P      c 20230928 0847   33.8158 GAU  2.01e-03 -1.00e+00 -1.00e+00 -1.00e+00    1.0000 >    0.7578   -0.0162    1.6092  738.4670 9820.4900   -1.3120    1.8597  13.57  13.6 138.4 10     0.0000    0.0152
ML11         ?    BHN  e S      ? 20230928 0847   34.3731 GAU  1.16e-03 -1.00e+00  4.00e+00 -1.00e+00    1.0000 >    1.3029   -0.0040    1.5487  738.4670 9820.4900   -1.3120    1.8597  13.57  13.6 134.7 10     0.0000    0.0261
ML09         ?    BHZ  i P      c 20230928 0847   33.8984 GAU  1.40e-03 -1.00e+00 -1.00e+00 -1.00e+00    1.0000 >    0.8305   -0.0063    1.7747  737.8820 9820.9850   -1.2700    2.3075 356.31 356.3 131.1 10     0.0000    0.0166
ML09         ?    BHN  e S      ? 20230928 0847   34.5023 GAU  3.09e-04 -1.00e+00  5.33e+02 -1.00e+00    1.0000 >    1.4271    0.0011    1.4775  737.8820 9820.9850   -1.2700    2.3075 356.31 356.3 126.6 10     0.0000    0.0285
ML13         ?    BHZ  i P      c 20230928 0847   34.0434 GAU  8.08e-04 -1.00e+00 -1.00e+00 -1.00e+00    1.0000 >    0.9600    0.0093    1.5990  737.1780 9821.5410   -1.2220    2.9831 343.39 343.4 122.9 10     0.0000    0.0192
ML13         ?    BHE  e S      ? 20230928 0847   34.7470 GAU  5.63e-04 -1.00e+00 -1.00e+00 -1.00e+00    1.0000 >    1.6477    0.0251    1.1014  737.1780 9821.5410   -1.2220    2.9831 343.39 343.4 116.8 10     0.0000    0.0330
ML05         ?    BHZ  e P      c 20230928 0847   34.3658 GAU  2.63e-03 -1.00e+00 -1.00e+00 -1.00e+00    1.0000 >    1.1386    0.1530    0.1537  736.2660 9822.0830   -1.1500    3.8312 332.58 332.6 115.2 10     0.0000    0.0228
ML05         ?    BHE  e S      ? 20230928 0847   35.3125 GAU  2.39e-04 -1.00e+00 -1.00e+00 -1.00e+00    1.0000 >    1.9496    0.2887    0.0677  736.2660 9822.0830   -1.1500    3.8312 332.58 332.6 107.6 10     0.0000    0.0390
ML07         ?    BHZ  i P      c 20230928 0847   34.3779 GAU  1.55e-03 -1.00e+00 -1.00e+00 -1.00e+00    1.0000 >    1.2106    0.0931    0.1128  737.4430 9822.8030   -1.1120    4.1624 351.89 351.9 112.7 10     0.0000    0.0242
ML07         ?    BHN  e S      ? 20230928 0847   35.3315 GAU  1.28e-03 -1.00e+00 -1.00e+00 -1.00e+00    1.0000 >    2.0701    0.1872    0.2170  737.4430 9822.8030   -1.1120    4.1624 351.89 351.9 104.8 10     0.0000    0.0414
ML12         ?    BHZ  e P      c 20230928 0847   34.6481 GAU  1.89e-03 -1.00e+00 -1.00e+00 -1.00e+00    1.0000 >    1.3577    0.2163    0.1594  736.8520 9823.3800   -0.9890    4.8433 345.92 345.9 108.2 10     0.0000    0.0272
ML12         ?    BHN  e S      ? 20230928 0847   35.7976 GAU  7.20e-04 -1.00e+00 -1.00e+00 -1.00e+00    1.0000 >    2.3120    0.4114    0.0117  736.8520 9823.3800   -0.9890    4.8433 345.92 345.9 100.2 10     0.0000    0.0462
END_PHASE
END_NLLOC

