NLLOC "./loc/SEML.20230914.162405.grid0" "LOCATED" "Location completed."
PUBLIC_ID None
SIGNATURE "Arham Zakki Edelo - edelo.17034@mhs.its.ac.id   obs:./obs/2023_09.obs   NLLoc:v7.00.10(30Aug2020)   run:22Jan2024 21h54m08"
COMMENT "SEML"
GRID  2001 2001 1001  727 9811 -2  0.01 0.01 0.01 PROB_DENSITY
SEARCH OCTREE nInitial 4851 nEvaluated 20011 smallestNodeSide 0.014881/0.014881/0.014205 oct_tree_integral 5.307742e-02 scatter_volume 5.307742e-02
HYPOCENTER  x 737.677 y 9817.78 z 1.18892  OT 4.68881  ix -1 iy -1 iz -1 MAXIMUM_LIKELIHOOD
GEOGRAPHIC  OT 2023 09 14  16 24 4.688811  Lat 9817.778274 Long 737.677083 Depth 1.188920
QUALITY  Pmax 1.68406e+43 MFmin 48.8444 MFmax 61.6306 RMS 0.0223913 Nphs 14 Gap 314.673 Dist 1.4808 Mamp -9.90 0 Mdur -9.90 0
VPVSRATIO  VpVsRatio 1.72087  Npair 7  Diff 0.501274
STATISTICS  ExpectX 737.783805 Y 9817.824852 Z 1.024007  CovXX 0.114405 XY 0.0193829 XZ -0.0318556 YY 0.0327013 YZ -0.0351057 ZZ 0.102162 EllAz1  355.85 Dip1  21.1621 Len1  0.249745 Az2  286.19 Dip2  -41.9208 Len2  0.528058 Len3  7.339622e-01
STAT_GEOG  ExpectLat 9817.824852 Long 737.783805 Depth 1.024007
TRANSFORM  NONE
QML_OriginQuality  assocPhCt 14  usedPhCt 14  assocStaCt -1  usedStaCt 7  depthPhCt -1  stdErr 0.0223913  azGap 314.673  secAzGap 314.673  gtLevel -  minDist 1.4808 maxDist 5.03018 medDist 2.82443
QML_OriginUncertainty  horUnc -1  minHorUnc 0.255291  maxHorUnc 0.522658  azMaxHorUnc 77.3086
QML_ConfidenceEllipsoid  semiMajorAxisLength 0.733962  semiMinorAxisLength 0.249745  semiIntermediateAxisLength 0.528058  majorAxisPlunge -40.5887  majorAxisAzimuth 66.4803  majorAxisRotation 105.846
FOCALMECH  Hyp  9817.778274 737.677083 1.188920 Mech  0 0 0 mf  0 nObs -1
PHASE ID Ins Cmp On Pha  FM Date     HrMn   Sec     Err  ErrMag    Coda      Amp       Per       PriorWt  >   TTpred    Res       Weight    StaLoc(X  Y         Z)        SDist    SAzim  RAz  RDip RQual    Tcorr       TTerr
ML06         ?    BHZ  i P      d 20230914 1624    5.4792 GAU  5.99e-04 -1.00e+00 -1.00e+00 -1.00e+00    1.0000 >    0.7794    0.0111    1.4261  738.3100 9819.1170   -1.3960    1.4808  25.30  25.3 146.7 10     0.0000    0.0156
ML06         ?    BHN  e S      ? 20230914 1624    6.0239 GAU  5.62e-04 -1.00e+00 -1.00e+00 -1.00e+00    1.0000 >    1.3322    0.0028    1.3482  738.3100 9819.1170   -1.3960    1.4808  25.30  25.3 145.2 10     0.0000    0.0266
ML04         ?    BHZ  e P      c 20230914 1624    5.5188 GAU  1.26e-03 -1.00e+00 -1.00e+00 -1.00e+00    1.0000 >    0.8331   -0.0031    1.5212  737.1400 9819.2520   -1.5710    1.5685 339.98 340.0 146.7 10     0.0000    0.0167
ML04         ?    BHN  e S      ? 20230914 1624    6.1253 GAU  2.01e-04 -1.00e+00  7.66e+02 -1.00e+00    1.0000 >    1.4248    0.0116    1.2573  737.1400 9819.2520   -1.5710    1.5685 339.98 340.0 145.3 10     0.0000    0.0285
ML14         ?    BHZ  e P      d 20230914 1624    5.5654 GAU  3.97e-03 -1.00e+00  1.13e+03 -1.00e+00    1.0000 >    0.8940   -0.0174    1.3146  737.5530 9820.0110   -1.3980    2.2362 356.82 356.8 133.7 10     0.0000    0.0179
ML14         ?    BHN  e S      ? 20230914 1624    6.0908 GAU  5.62e-04 -1.00e+00  2.73e+02 -1.00e+00    1.0000 >    1.5272   -0.1252    0.0908  737.5530 9820.0110   -1.3980    2.2362 356.82 356.8 131.6 10     0.0000    0.0305
ML11         ?    BHZ  e P      d 20230914 1624    5.6235 GAU  1.02e-03 -1.00e+00  1.14e+02 -1.00e+00    1.0000 >    0.9841   -0.0493    0.5424  738.4670 9820.4900   -1.3120    2.8244  16.24  16.2 124.1 10     0.0000    0.0197
ML11         ?    BHE  e S      ? 20230914 1624    6.1858 GAU  1.47e-03 -1.00e+00 -1.00e+00 -1.00e+00    1.0000 >    1.6790   -0.1821    0.0562  738.4670 9820.4900   -1.3120    2.8244  16.24  16.2 121.5 10     0.0000    0.0336
ML09         ?    BHZ  i P      d 20230914 1624    5.7402 GAU  9.30e-04 -1.00e+00 -1.00e+00 -1.00e+00    1.0000 >    1.0543   -0.0029    1.4537  737.8820 9820.9850   -1.2700    3.2133   3.66   3.7 118.8 10     0.0000    0.0211
ML09         ?    BHE  e S      ? 20230914 1624    6.4810 GAU  4.69e-04 -1.00e+00  3.41e+02 -1.00e+00    1.0000 >    1.7971   -0.0049    1.1871  737.8820 9820.9850   -1.2700    3.2133   3.66   3.7 115.7 10     0.0000    0.0359
ML13         ?    BHZ  i P      d 20230914 1624    5.8543 GAU  7.49e-04 -1.00e+00  1.82e+01 -1.00e+00    1.0000 >    1.1698   -0.0043    1.4088  737.1780 9821.5410   -1.2220    3.7957 352.44 352.4 112.0 10     0.0000    0.0234
ML13         ?    BHN  e S      ? 20230914 1624    6.6676 GAU  4.60e-04 -1.00e+00 -1.00e+00 -1.00e+00    1.0000 >    1.9907   -0.0119    1.1047  737.1780 9821.5410   -1.2220    3.7957 352.44 352.4 108.5 10     0.0000    0.0398
ML07         ?    BHZ  e P      c 20230914 1624    6.1582 GAU  9.32e-04 -1.00e+00 -1.00e+00 -1.00e+00    1.0000 >    1.4317    0.0377    0.8372  737.4430 9822.8030   -1.1120    5.0302 357.33 357.3 100.6 10     0.0000    0.0286
ML07         ?    BHE  e S      ? 20230914 1624    7.1849 GAU  1.88e-04 -1.00e+00 -1.00e+00 -1.00e+00    1.0000 >    2.4239    0.0721    0.4517  737.4430 9822.8030   -1.1120    5.0302 357.33 357.3  98.0 10     0.0000    0.0485
END_PHASE
END_NLLOC

