NLLOC "./loc/SEML.20230914.163259.grid0" "LOCATED" "Location completed."
PUBLIC_ID None
SIGNATURE "Arham Zakki Edelo - edelo.17034@mhs.its.ac.id   obs:./obs/2023_09.obs   NLLoc:v7.00.10(30Aug2020)   run:22Jan2024 21h54m45"
COMMENT "SEML"
GRID  2001 2001 1001  727 9811 -2  0.01 0.01 0.01 PROB_DENSITY
SEARCH OCTREE nInitial 4851 nEvaluated 20027 smallestNodeSide 0.014881/0.014881/0.014205 oct_tree_integral 6.350799e-02 scatter_volume 6.350799e-02
HYPOCENTER  x 737.513 y 9818.22 z 0.961648  OT 59.115  ix -1 iy -1 iz -1 MAXIMUM_LIKELIHOOD
GEOGRAPHIC  OT 2023 09 14  16 32 59.114955  Lat 9818.224702 Long 737.513393 Depth 0.961648
QUALITY  Pmax 1.81661e+48 MFmin 55.763 MFmax 61.6334 RMS 0.0298536 Nphs 16 Gap 300.327 Dist 1.19615 Mamp -9.90 0 Mdur -9.90 0
VPVSRATIO  VpVsRatio 1.69082  Npair 8  Diff 0.620781
STATISTICS  ExpectX 737.475380 Y 9818.299094 Z 1.040468  CovXX 0.0529538 XY 0.0108532 XZ 0.0229111 YY 0.0247382 YZ 0.00906939 ZZ 0.0343985 EllAz1  218.039 Dip1  52.6216 Len1  0.253163 Az2  329.806 Dip2  15.8177 Len2  0.274821 Len3  5.060249e-01
STAT_GEOG  ExpectLat 9818.299094 Long 737.475380 Depth 1.040468
TRANSFORM  NONE
QML_OriginQuality  assocPhCt 16  usedPhCt 16  assocStaCt -1  usedStaCt 8  depthPhCt -1  stdErr 0.0298536  azGap 300.327  secAzGap 300.327  gtLevel -  minDist 1.19615 maxDist 5.19755 medDist 3.05901
QML_OriginUncertainty  horUnc -1  minHorUnc 0.220016  maxHorUnc 0.36095  azMaxHorUnc 71.2144
QML_ConfidenceEllipsoid  semiMajorAxisLength 0.506025  semiMinorAxisLength 0.253163  semiIntermediateAxisLength 0.274821  majorAxisPlunge 32.85  majorAxisAzimuth 70.3463  majorAxisRotation 81.9654
FOCALMECH  Hyp  9818.224702 737.513393 0.961648 Mech  0 0 0 mf  0 nObs -1
PHASE ID Ins Cmp On Pha  FM Date     HrMn   Sec     Err  ErrMag    Coda      Amp       Per       PriorWt  >   TTpred    Res       Weight    StaLoc(X  Y         Z)        SDist    SAzim  RAz  RDip RQual    Tcorr       TTerr
ML06         ?    BHZ  i P      c 20230914 1632   59.8948 GAU  1.86e-03 -1.00e+00 -1.00e+00 -1.00e+00    1.0000 >    0.6977    0.0822    0.4195  738.3100 9819.1170   -1.3960    1.1962  41.76  41.8 152.3 10     0.0000    0.0140
ML06         ?    BHE  i S      ? 20230914 1633    0.4105 GAU  5.24e-04 -1.00e+00 -1.00e+00 -1.00e+00    1.0000 >    1.1974    0.0982    0.4075  738.3100 9819.1170   -1.3960    1.1962  41.76  41.8 150.2 10     0.0000    0.0239
ML14         ?    BHZ  e P      c 20230914 1632   59.8864 GAU  1.61e-03 -1.00e+00 -1.00e+00 -1.00e+00    1.0000 >    0.7807   -0.0093    1.7106  737.5530 9820.0110   -1.3980    1.7867   1.27   1.3 141.7 10     0.0000    0.0156
ML14         ?    BHE  e S      ? 20230914 1633    0.4591 GAU  1.62e-03 -1.00e+00  3.97e+02 -1.00e+00    1.0000 >    1.3395    0.0046    1.6064  737.5530 9820.0110   -1.3980    1.7867   1.27   1.3 138.6 10     0.0000    0.0268
ML11         ?    BHZ  i P      c 20230914 1632   59.9978 GAU  1.49e-03 -1.00e+00 -1.00e+00 -1.00e+00    1.0000 >    0.8814    0.0014    1.8060  738.4670 9820.4900   -1.3120    2.4578  22.83  22.8 130.9 10     0.0000    0.0176
ML11         ?    BHN  e S      ? 20230914 1633    0.6010 GAU  1.33e-04 -1.00e+00 -1.00e+00 -1.00e+00    1.0000 >    1.5108   -0.0247    1.1974  738.4670 9820.4900   -1.3120    2.4578  22.83  22.8 126.7 10     0.0000    0.0302
ML09         ?    BHZ  i P      c 20230914 1633    0.0718 GAU  5.24e-04 -1.00e+00 -1.00e+00 -1.00e+00    1.0000 >    0.9387    0.0181    1.5664  737.8820 9820.9850   -1.2700    2.7848   7.61   7.6 126.7 10     0.0000    0.0188
ML09         ?    BHN  e S      ? 20230914 1633    0.7542 GAU  2.97e-04 -1.00e+00  4.67e+02 -1.00e+00    1.0000 >    1.6080    0.0313    1.2672  737.8820 9820.9850   -1.2700    2.7848   7.61   7.6 121.6 10     0.0000    0.0322
ML13         ?    BHZ  e P      c 20230914 1633    0.0098 GAU  2.11e-04 -1.00e+00 -1.00e+00 -1.00e+00    1.0000 >    1.0471   -0.1523    0.0133  737.1780 9821.5410   -1.2220    3.3332 354.23 354.2 120.9 10     0.0000    0.0209
ML13         ?    BHN  e S      ? 20230914 1633    0.6577 GAU  1.21e-04 -1.00e+00 -1.00e+00 -1.00e+00    1.0000 >    1.7915   -0.2488    0.0117  737.1780 9821.5410   -1.2220    3.3332 354.23 354.2 114.8 10     0.0000    0.0358
ML05         ?    BHZ  e P      c 20230914 1633    0.3133 GAU  1.55e-03 -1.00e+00  5.86e+01 -1.00e+00    1.0000 >    1.1993   -0.0009    1.6625  736.2660 9822.0830   -1.1500    4.0549 342.08 342.1 114.9 10     0.0000    0.0240
ML05         ?    BHN  e S      ? 20230914 1633    1.1706 GAU  2.59e-04 -1.00e+00  2.71e+02 -1.00e+00    1.0000 >    2.0472    0.0085    1.3395  736.2660 9822.0830   -1.1500    4.0549 342.08 342.1 107.8 10     0.0000    0.0409
ML07         ?    BHZ  i P      c 20230914 1633    0.4299 GAU  6.47e-04 -1.00e+00 -1.00e+00 -1.00e+00    1.0000 >    1.3171   -0.0022    1.6032  737.4430 9822.8030   -1.1120    4.5788 359.12 359.1 111.5 10     0.0000    0.0263
ML07         ?    BHE  e S      ? 20230914 1633    1.3658 GAU  5.26e-05 -1.00e+00 -1.00e+00 -1.00e+00    1.0000 >    2.2438    0.0070    1.2798  737.4430 9822.8030   -1.1120    4.5788 359.12 359.1 104.2 10     0.0000    0.0449
ML12         ?    BHZ  i P      c 20230914 1633    0.7194 GAU  1.46e-04 -1.00e+00 -1.00e+00 -1.00e+00    1.0000 >    1.4503    0.1541    0.0999  736.8520 9823.3800   -0.9890    5.1976 352.69 352.7 106.4  8     0.0000    0.0290
ML12         ?    BHE  e S      ? 20230914 1633    1.8559 GAU  1.85e-04 -1.00e+00  6.89e+01 -1.00e+00    1.0000 >    2.4546    0.2863    0.0091  736.8520 9823.3800   -0.9890    5.1976 352.69 352.7  70.4 10     0.0000    0.0491
END_PHASE
END_NLLOC

