NLLOC "./loc/SEML.20230914.162526.grid0" "LOCATED" "Location completed."
PUBLIC_ID None
SIGNATURE "Arham Zakki Edelo - edelo.17034@mhs.its.ac.id   obs:./obs/2023_09.obs   NLLoc:v7.00.10(30Aug2020)   run:22Jan2024 21h54m15"
COMMENT "SEML"
GRID  2001 2001 1001  727 9811 -2  0.01 0.01 0.01 PROB_DENSITY
SEARCH OCTREE nInitial 4851 nEvaluated 20011 smallestNodeSide 0.014881/0.014881/0.014205 oct_tree_integral 1.777627e-02 scatter_volume 1.777627e-02
HYPOCENTER  x 738.734 y 9818.45 z -0.0610795  OT 25.7526  ix -1 iy -1 iz -1 MAXIMUM_LIKELIHOOD
GEOGRAPHIC  OT 2023 09 14  16 25 25.752631  Lat 9818.447917 Long 738.733631 Depth -0.061080
QUALITY  Pmax 2.45267e+50 MFmin 59.7205 MFmax 72.2609 RMS 0.0178153 Nphs 16 Gap 330.374 Dist 0.791919 Mamp -9.90 0 Mdur -9.90 0
VPVSRATIO  VpVsRatio 1.70379  Npair 8  Diff 0.615749
STATISTICS  ExpectX 738.791748 Y 9818.455058 Z -0.128742  CovXX 0.0203464 XY 0.00444361 XZ -0.00777144 YY 0.011747 YZ 0.000644394 ZZ 0.0176585 EllAz1  322.052 Dip1  -28.3061 Len1  0.166377 Az2  205.121 Dip2  -40.0622 Len2  0.225687 Len3  3.114618e-01
STAT_GEOG  ExpectLat 9818.455058 Long 738.791748 Depth -0.128742
TRANSFORM  NONE
QML_OriginQuality  assocPhCt 16  usedPhCt 16  assocStaCt -1  usedStaCt 8  depthPhCt -1  stdErr 0.0178153  azGap 330.374  secAzGap 330.374  gtLevel -  minDist 0.791919 maxDist 5.27882 medDist 3.06923
QML_OriginUncertainty  horUnc -1  minHorUnc 0.150618  maxHorUnc 0.226117  azMaxHorUnc 67.0285
QML_ConfidenceEllipsoid  semiMajorAxisLength 0.311462  semiMinorAxisLength 0.166377  semiIntermediateAxisLength 0.225687  majorAxisPlunge -36.924  majorAxisAzimuth 75.9266  majorAxisRotation 249.314
FOCALMECH  Hyp  9818.447917 738.733631 -0.061080 Mech  0 0 0 mf  0 nObs -1
PHASE ID Ins Cmp On Pha  FM Date     HrMn   Sec     Err  ErrMag    Coda      Amp       Per       PriorWt  >   TTpred    Res       Weight    StaLoc(X  Y         Z)        SDist    SAzim  RAz  RDip RQual    Tcorr       TTerr
ML06         ?    BHZ  i P      c 20230914 1625   26.3216 GAU  5.39e-04 -1.00e+00 -1.00e+00 -1.00e+00    1.0000 >    0.4173    0.1516    0.0067  738.3100 9819.1170   -1.3960    0.7919 327.66 327.7 148.2 10     0.0000    0.0083
ML06         ?    BHN  e S      ? 20230914 1625   26.7656 GAU  4.17e-04 -1.00e+00 -1.00e+00 -1.00e+00    1.0000 >    0.7303    0.2827    0.0000  738.3100 9819.1170   -1.3960    0.7919 327.66 327.7 149.1 10     0.0000    0.0146
ML14         ?    BHZ  i P      c 20230914 1625   26.3867 GAU  2.46e-03 -1.00e+00 -1.00e+00 -1.00e+00    1.0000 >    0.6372   -0.0030    1.7504  737.5530 9820.0110   -1.3980    1.9589 322.94 322.9 121.2 10     0.0000    0.0127
ML14         ?    BHE  e S      ? 20230914 1625   26.8701 GAU  5.05e-04 -1.00e+00  3.85e+02 -1.00e+00    1.0000 >    1.1155    0.0019    1.5715  737.5530 9820.0110   -1.3980    1.9589 322.94 322.9 123.3 10     0.0000    0.0223
ML11         ?    BHZ  e P      c 20230914 1625   26.4024 GAU  8.11e-04 -1.00e+00 -1.00e+00 -1.00e+00    1.0000 >    0.6464    0.0034    1.7700  738.4670 9820.4900   -1.3120    2.0594 352.56 352.6 118.0 10     0.0000    0.0129
ML11         ?    BHE  e S      ? 20230914 1625   26.9086 GAU  5.89e-04 -1.00e+00 -1.00e+00 -1.00e+00    1.0000 >    1.1329    0.0230    1.2999  738.4670 9820.4900   -1.3120    2.0594 352.56 352.6 120.2 10     0.0000    0.0227
ML09         ?    BHZ  i P      c 20230914 1625   26.5275 GAU  9.32e-04 -1.00e+00  9.40e+01 -1.00e+00    1.0000 >    0.7866   -0.0118    1.5259  737.8820 9820.9850   -1.2700    2.6762 341.44 341.4 110.3 10     0.0000    0.0157
ML09         ?    BHE  e S      ? 20230914 1625   27.1029 GAU  2.61e-04 -1.00e+00  3.52e+02 -1.00e+00    1.0000 >    1.3805   -0.0302    0.9722  737.8820 9820.9850   -1.2700    2.6762 341.44 341.4 113.0 10     0.0000    0.0276
ML13         ?    BHZ  e P      c 20230914 1625   26.5993 GAU  5.20e-04 -1.00e+00 -1.00e+00 -1.00e+00    1.0000 >    0.9758   -0.1292    0.0356  737.1780 9821.5410   -1.2220    3.4622 333.30 333.3 104.0 10     0.0000    0.0195
ML13         ?    BHN  e S      ? 20230914 1625   27.2626 GAU  5.72e-04 -1.00e+00 -1.00e+00 -1.00e+00    1.0000 >    1.7158   -0.2058    0.0220  737.1780 9821.5410   -1.2220    3.4622 333.30 333.3 107.0 10     0.0000    0.0343
ML05         ?    BHZ  e P      c 20230914 1625   26.9832 GAU  1.08e-03 -1.00e+00  1.63e+01 -1.00e+00    1.0000 >    1.2049    0.0257    1.2298  736.2660 9822.0830   -1.1500    4.3935 325.83 325.8  99.4 10     0.0000    0.0241
ML05         ?    BHN  e S      ? 20230914 1625   27.9209 GAU  1.16e-04 -1.00e+00  2.65e+02 -1.00e+00    1.0000 >    2.1250    0.0433    0.8463  736.2660 9822.0830   -1.1500    4.3935 325.83 325.8 102.1 10     0.0000    0.0425
ML07         ?    BHZ  i P      c 20230914 1625   26.9897 GAU  6.25e-04 -1.00e+00 -1.00e+00 -1.00e+00    1.0000 >    1.2392   -0.0021    1.4976  737.4430 9822.8030   -1.1120    4.5423 343.49 343.5  98.7 10     0.0000    0.0248
ML07         ?    BHN  e S      ? 20230914 1625   27.9395 GAU  2.32e-04 -1.00e+00 -1.00e+00 -1.00e+00    1.0000 >    2.1880   -0.0011    1.1221  737.4430 9822.8030   -1.1120    4.5423 343.49 343.5 101.2 10     0.0000    0.0438
ML12         ?    BHZ  i P      c 20230914 1625   27.1858 GAU  1.88e-04 -1.00e+00 -1.00e+00 -1.00e+00    1.0000 >    1.4167    0.0165    1.3415  736.8520 9823.3800   -0.9890    5.2788 339.12 339.1  96.6 10     0.0000    0.0283
ML12         ?    BHE  e S      ? 20230914 1625   28.2455 GAU  3.01e-04 -1.00e+00  4.90e+01 -1.00e+00    1.0000 >    2.5024   -0.0095    1.0085  736.8520 9823.3800   -0.9890    5.2788 339.12 339.1  72.9 10     0.0000    0.0500
END_PHASE
END_NLLOC

