NLLOC "./loc/SEML.20230911.021938.grid0" "REJECTED" "WARNING: max prob location on grid boundary 20, rejecting location."
PUBLIC_ID None
SIGNATURE "Arham Zakki Edelo - edelo.17034@mhs.its.ac.id   obs:./obs/2023_09.obs   NLLoc:v7.00.10(30Aug2020)   run:22Jan2024 21h53m53"
COMMENT "SEML"
GRID  2001 2001 1001  727 9811 -2  0.01 0.01 0.01 PROB_DENSITY
SEARCH OCTREE nInitial 4851 nEvaluated 20003 smallestNodeSide 0.059524/0.059524/0.056818 oct_tree_integral 6.776530e-01 scatter_volume 6.776530e-01
HYPOCENTER  x 735.006 y 9811.03 z -0.721591  OT 35.9392  ix -1 iy -1 iz -1 MAXIMUM_LIKELIHOOD
GEOGRAPHIC  OT 2023 09 11  02 19 35.939195  Lat 9811.029762 Long 735.005952 Depth -0.721591
QUALITY  Pmax 3.86162e+51 MFmin 37.7241 MFmax 41.7646 RMS 0.0787494 Nphs 18 Gap 344.281 Dist 8.73614 Mamp -9.90 0 Mdur -9.90 0
VPVSRATIO  VpVsRatio 1.67266  Npair 9  Diff 0.790085
STATISTICS  ExpectX 734.985387 Y 9811.282482 Z 2.571399  CovXX 5.18984 XY 0.0407013 XZ 2.08811 YY 0.0705764 YZ 0.119407 ZZ 17.4495 EllAz1  179.69 Dip1  0.356376 Len1  0.495717 Az2  269.749 Dip2  9.40792 Len2  4.13515 Len3  7.925960e+00
STAT_GEOG  ExpectLat 9811.282482 Long 734.985387 Depth 2.571399
TRANSFORM  NONE
QML_OriginQuality  assocPhCt 18  usedPhCt 18  assocStaCt -1  usedStaCt 9  depthPhCt -1  stdErr 0.0787494  azGap 344.281  secAzGap 344.281  gtLevel -  minDist 8.73614 maxDist 12.4874 medDist 10.3624
QML_OriginUncertainty  horUnc -1  minHorUnc 0.401972  maxHorUnc 3.45505  azMaxHorUnc 89.5445
QML_ConfidenceEllipsoid  semiMajorAxisLength 7.92596  semiMinorAxisLength 0.495717  semiIntermediateAxisLength 4.13515  majorAxisPlunge 80.5852  majorAxisAzimuth 87.5401  majorAxisRotation 357.698
FOCALMECH  Hyp  9811.029762 735.005952 -0.721591 Mech  0 0 0 mf  0 nObs -1
PHASE ID Ins Cmp On Pha  FM Date     HrMn   Sec     Err  ErrMag    Coda      Amp       Per       PriorWt  >   TTpred    Res       Weight    StaLoc(X  Y         Z)        SDist    SAzim  RAz  RDip RQual    Tcorr       TTerr
ML06         ?    BHZ  i P      c 20230911 0219   38.2463 GAU  1.71e-03 -1.00e+00 -1.00e+00 -1.00e+00    1.0000 >    2.3609   -0.0538    1.2027  738.3100 9819.1170   -1.3960    8.7361  22.22  22.2  72.0 10     0.0000    0.0472
ML06         ?    BHN  e S      ? 20230911 0219   40.0512 GAU  4.33e-04 -1.00e+00 -1.00e+00 -1.00e+00    1.0000 >    4.1434   -0.0314    1.1993  738.3100 9819.1170   -1.3960    8.7361  22.22  22.2  93.2 10     0.0000    0.0829
ML14         ?    BHZ  e P      c 20230911 0219   38.6323 GAU  1.20e-03 -1.00e+00 -1.00e+00 -1.00e+00    1.0000 >    2.5163    0.1768    0.5388  737.5530 9820.0110   -1.3980    9.3354  15.83  15.8  72.0 10     0.0000    0.0503
ML14         ?    BHE  e S      ? 20230911 0219   40.7622 GAU  4.86e-04 -1.00e+00  3.98e+02 -1.00e+00    1.0000 >    4.4259    0.3972    0.1140  737.5530 9820.0110   -1.3980    9.3354  15.83  15.8  92.9 10     0.0000    0.0885
ML03         ?    BHZ  e P      c 20230911 0219   38.6751 GAU  8.98e-04 -1.00e+00 -1.00e+00 -1.00e+00    1.0000 >    2.6831    0.0528    1.2792  736.8800 9820.8540   -1.3350   10.0014  10.80  10.8  72.0 10     0.0000    0.0537
ML03         ?    BHN  e S      ? 20230911 0219   40.7705 GAU  1.24e-03 -1.00e+00 -1.00e+00 -1.00e+00    1.0000 >    4.7365    0.0948    1.0357  736.8800 9820.8540   -1.3350   10.0014  10.80  10.8  91.4  9     0.0000    0.0947
ML11         ?    BHZ  i P      d 20230911 0219   38.6702 GAU  2.98e-03 -1.00e+00  1.60e+02 -1.00e+00    1.0000 >    2.6997    0.0313    1.3567  738.4670 9820.4900   -1.3120   10.0735  20.10  20.1  72.0 10     0.0000    0.0540
ML11         ?    BHE  e S      ? 20230911 0219   40.8165 GAU  6.47e-04 -1.00e+00 -1.00e+00 -1.00e+00    1.0000 >    4.7642    0.1131    0.9602  738.4670 9820.4900   -1.3120   10.0735  20.10  20.1  60.6  9     0.0000    0.0953
ML09         ?    BHZ  e P      d 20230911 0219   38.6870 GAU  1.56e-03 -1.00e+00  3.32e+02 -1.00e+00    1.0000 >    2.7707   -0.0229    1.3413  737.8820 9820.9850   -1.2700   10.3624  16.11  16.1  72.0 10     0.0000    0.0554
ML09         ?    BHN  e S      ? 20230911 0219   40.8495 GAU  8.09e-04 -1.00e+00  4.59e+02 -1.00e+00    1.0000 >    4.8726    0.0377    1.1813  737.8820 9820.9850   -1.2700   10.3624  16.11  16.1  60.3 10     0.0000    0.0975
ML13         ?    BHZ  e P      d 20230911 0219   38.8046 GAU  1.86e-03 -1.00e+00  4.45e+01 -1.00e+00    1.0000 >    2.8625    0.0029    1.3807  737.1780 9821.5410   -1.2220   10.7333  11.68  11.7  72.0 10     0.0000    0.0572
ML13         ?    BHE  e S      ? 20230911 0219   40.9973 GAU  1.19e-03 -1.00e+00 -1.00e+00 -1.00e+00    1.0000 >    5.0133    0.0448    1.1589  737.1780 9821.5410   -1.2220   10.7333  11.68  11.7  60.3 10     0.0000    0.1003
ML05         ?    BHZ  i P      c 20230911 0219   38.8530 GAU  1.62e-03 -1.00e+00  2.25e+00 -1.00e+00    1.0000 >    2.9574   -0.0436    1.2411  736.2660 9822.0830   -1.1500   11.1248   6.50   6.5  72.0 10     0.0000    0.0591
ML05         ?    BHN  e S      ? 20230911 0219   41.0885 GAU  1.74e-04 -1.00e+00  2.63e+02 -1.00e+00    1.0000 >    5.1501   -0.0008    1.1628  736.2660 9822.0830   -1.1500   11.1248   6.50   6.5  54.9 10     0.0000    0.1030
ML07         ?    BHZ  i P      c 20230911 0219   39.0095 GAU  5.12e-04 -1.00e+00 -1.00e+00 -1.00e+00    1.0000 >    3.1866   -0.1163    0.7244  737.4430 9822.8030   -1.1120   12.0228  11.69  11.7  72.0 10     0.0000    0.0637
ML07         ?    BHE  e S      ? 20230911 0219   41.3438 GAU  4.15e-04 -1.00e+00 -1.00e+00 -1.00e+00    1.0000 >    5.4865   -0.0819    0.9150  737.4430 9822.8030   -1.1120   12.0228  11.69  11.7  54.9 10     0.0000    0.1097
ML12         ?    BHZ  e P      d 20230911 0219   39.3381 GAU  1.15e-03 -1.00e+00  3.57e+01 -1.00e+00    1.0000 >    3.2960    0.1029    1.0176  736.8520 9823.3800   -0.9890   12.4874   8.50   8.5  72.0 10     0.0000    0.0659
ML12         ?    BHE  e S      ? 20230911 0219   41.9331 GAU  3.27e-04 -1.00e+00  2.68e+01 -1.00e+00    1.0000 >    5.6324    0.3614    0.1904  736.8520 9823.3800   -0.9890   12.4874   8.50   8.5  54.9 10     0.0000    0.1126
END_PHASE
END_NLLOC

