NLLOC "./loc/SEML.20230928.083810.grid0" "LOCATED" "Location completed."
PUBLIC_ID None
SIGNATURE "Arham Zakki Edelo - edelo.17034@mhs.its.ac.id   obs:./obs/2023_09.obs   NLLoc:v7.00.10(30Aug2020)   run:22Jan2024 21h56m23"
COMMENT "SEML"
GRID  2001 2001 1001  727 9811 -2  0.01 0.01 0.01 PROB_DENSITY
SEARCH OCTREE nInitial 4851 nEvaluated 20003 smallestNodeSide 0.014881/0.014881/0.014205 oct_tree_integral 1.241440e-02 scatter_volume 1.241440e-02
HYPOCENTER  x 738.287 y 9818.46 z 0.805398  OT 9.71257  ix -1 iy -1 iz -1 MAXIMUM_LIKELIHOOD
GEOGRAPHIC  OT 2023 09 28  08 38 9.712571  Lat 9818.462798 Long 738.287202 Depth 0.805398
QUALITY  Pmax 9.68568e+96 MFmin 94.2556 MFmax 112.167 RMS 0.0192799 Nphs 26 Gap 294.095 Dist 0.654599 Mamp -9.90 0 Mdur -9.90 0
VPVSRATIO  VpVsRatio 1.74976  Npair 13  Diff 0.56694
STATISTICS  ExpectX 738.316366 Y 9818.438154 Z 0.801007  CovXX 0.0120488 XY -0.000637129 XZ 0.00260244 YY 0.0106632 YZ -0.00394777 ZZ 0.010749 EllAz1  157.388 Dip1  -46.7594 Len1  0.150083 Az2  235.964 Dip2  10.5507 Len2  0.197353 Len3  2.380000e-01
STAT_GEOG  ExpectLat 9818.438154 Long 738.316366 Depth 0.801007
TRANSFORM  NONE
QML_OriginQuality  assocPhCt 26  usedPhCt 26  assocStaCt -1  usedStaCt 13  depthPhCt -1  stdErr 0.0192799  azGap 294.095  secAzGap 294.095  gtLevel -  minDist 0.654599 maxDist 5.12237 medDist 2.77454
QML_OriginUncertainty  horUnc -1  minHorUnc 0.15477  maxHorUnc 0.168177  azMaxHorUnc 111.301
QML_ConfidenceEllipsoid  semiMajorAxisLength 0.238  semiMinorAxisLength 0.150083  semiIntermediateAxisLength 0.197353  majorAxisPlunge 41.3105  majorAxisAzimuth 136.543  majorAxisRotation 271.849
FOCALMECH  Hyp  9818.462798 738.287202 0.805398 Mech  0 0 0 mf  0 nObs -1
PHASE ID Ins Cmp On Pha  FM Date     HrMn   Sec     Err  ErrMag    Coda      Amp       Per       PriorWt  >   TTpred    Res       Weight    StaLoc(X  Y         Z)        SDist    SAzim  RAz  RDip RQual    Tcorr       TTerr
ML06         ?    BHZ  i P      c 20230928 0838   10.3347 GAU  8.98e-04 -1.00e+00  5.73e+03 -1.00e+00    1.0000 >    0.6075    0.0147    1.3341  738.3100 9819.1170   -1.3960    0.6546   2.00   2.0 162.8 10     0.0000    0.0121
ML06         ?    BHE  e S      ? 20230928 0838   10.7874 GAU  2.24e-03 -1.00e+00  4.42e+03 -1.00e+00    1.0000 >    1.0475    0.0273    1.0368  738.3100 9819.1170   -1.3960    0.6546   2.00   2.0 161.5 10     0.0000    0.0210
ML04         ?    BHZ  i P      c 20230928 0838   10.3618 GAU  2.68e-03 -1.00e+00  1.42e+03 -1.00e+00    1.0000 >    0.7303   -0.0811    0.0892  737.1400 9819.2520   -1.5710    1.3924 304.53 304.5 148.5 10     0.0000    0.0146
ML04         ?    BHN  e S      ? 20230928 0838   10.8231 GAU  5.56e-03 -1.00e+00  9.07e+02 -1.00e+00    1.0000 >    1.2592   -0.1486    0.0084  737.1400 9819.2520   -1.5710    1.3924 304.53 304.5 145.9 10     0.0000    0.0252
ML14         ?    BHZ  i P      c 20230928 0838   10.4464 GAU  4.17e-03 -1.00e+00  3.69e+01 -1.00e+00    1.0000 >    0.7378   -0.0040    1.4314  737.5530 9820.0110   -1.3980    1.7135 334.63 334.6 140.8 10     0.0000    0.0148
ML14         ?    BHE  e S      ? 20230928 0838   10.9644 GAU  2.24e-03 -1.00e+00  1.04e+04 -1.00e+00    1.0000 >    1.2718   -0.0200    1.0846  737.5530 9820.0110   -1.3980    1.7135 334.63 334.6 137.3 10     0.0000    0.0254
ML02         ?    BHZ  i P      c 20230928 0838   10.4915 GAU  2.78e-03 -1.00e+00 -1.00e+00 -1.00e+00    1.0000 >    0.7961   -0.0172    1.2235  736.5970 9819.4060   -1.4960    1.9356 299.16 299.2 138.4 10     0.0000    0.0159
ML02         ?    BHE  i S      ? 20230928 0838   11.0901 GAU  1.55e-03 -1.00e+00  9.02e+04 -1.00e+00    1.0000 >    1.3722    0.0054    1.2210  736.5970 9819.4060   -1.4960    1.9356 299.16 299.2 134.6 10     0.0000    0.0274
ML11         ?    BHZ  i P      c 20230928 0838   10.4831 GAU  1.24e-03 -1.00e+00  6.45e+03 -1.00e+00    1.0000 >    0.7748   -0.0043    1.4264  738.4670 9820.4900   -1.3120    2.0352   5.07   5.1 134.6 10     0.0000    0.0155
ML11         ?    BHN  e S      ? 20230928 0838   11.0473 GAU  2.58e-03 -1.00e+00  1.71e+03 -1.00e+00    1.0000 >    1.3352   -0.0005    1.2372  738.4670 9820.4900   -1.3120    2.0352   5.07   5.1 130.2 10     0.0000    0.0267
ML09         ?    BHZ  i P      c 20230928 0838   10.5686 GAU  1.79e-03 -1.00e+00  9.75e+02 -1.00e+00    1.0000 >    0.8676   -0.0115    1.3158  737.8820 9820.9850   -1.2700    2.5545 350.87 350.9 126.9 10     0.0000    0.0174
ML09         ?    BHN  e S      ? 20230928 0838   11.1857 GAU  4.84e-03 -1.00e+00  3.96e+03 -1.00e+00    1.0000 >    1.4940   -0.0209    1.0239  737.8820 9820.9850   -1.2700    2.5545 350.87 350.9 121.3 10     0.0000    0.0299
ML03         ?    BHZ  i P      d 20230928 0838   10.6560 GAU  2.41e-03 -1.00e+00 -1.00e+00 -1.00e+00    1.0000 >    0.9248    0.0186    1.2174  736.8800 9820.8540   -1.3350    2.7745 329.52 329.5 125.3 10     0.0000    0.0185
ML03         ?    BHN  e S      ? 20230928 0838   11.3981 GAU  2.77e-03 -1.00e+00 -1.00e+00 -1.00e+00    1.0000 >    1.5924    0.0932    0.2028  736.8800 9820.8540   -1.3350    2.7745 329.52 329.5 119.3 10     0.0000    0.0318
ML13         ?    BHZ  i P      c 20230928 0838   10.7023 GAU  1.40e-03 -1.00e+00  1.72e+03 -1.00e+00    1.0000 >    1.0135   -0.0237    1.0535  737.1780 9821.5410   -1.2220    3.2720 340.18 340.2 119.1 10     0.0000    0.0203
ML13         ?    BHN  e S      ? 20230928 0838   11.4317 GAU  4.61e-03 -1.00e+00 -1.00e+00 -1.00e+00    1.0000 >    1.7431   -0.0239    0.9425  737.1780 9821.5410   -1.2220    3.2720 340.18 340.2 111.8 10     0.0000    0.0349
ML10         ?    BHZ  i P      c 20230928 0838   10.7668 GAU  8.81e-03 -1.00e+00  1.96e+03 -1.00e+00    1.0000 >    1.0381    0.0161    1.2157  736.5490 9821.3650   -1.2200    3.3829 329.08 329.1 118.2 10     0.0000    0.0208
ML10         ?    BHN  e S      ? 20230928 0838   11.5618 GAU  4.02e-03 -1.00e+00 -1.00e+00 -1.00e+00    1.0000 >    1.7849    0.0643    0.4974  736.5490 9821.3650   -1.2200    3.3829 329.08 329.1 110.6 10     0.0000    0.0357
ML05         ?    BHZ  i P      d 20230928 0838   10.9182 GAU  3.71e-03 -1.00e+00 -1.00e+00 -1.00e+00    1.0000 >    1.2047    0.0010    1.2846  736.2660 9822.0830   -1.1500    4.1462 330.82 330.8 112.2 10     0.0000    0.0241
ML05         ?    BHE  e S      ? 20230928 0838   11.8117 GAU  8.96e-03 -1.00e+00 -1.00e+00 -1.00e+00    1.0000 >    2.0660    0.0332    0.8423  736.2660 9822.0830   -1.1500    4.1462 330.82 330.8 103.3 10     0.0000    0.0413
ML07         ?    BHZ  i P      d 20230928 0838   10.9831 GAU  6.23e-03 -1.00e+00 -1.00e+00 -1.00e+00    1.0000 >    1.2653    0.0052    1.2472  737.4430 9822.8030   -1.1120    4.4215 348.99 349.0 110.2 10     0.0000    0.0253
ML07         ?    BHN  e S      ? 20230928 0838   11.9139 GAU  3.86e-03 -1.00e+00 -1.00e+00 -1.00e+00    1.0000 >    2.1667    0.0346    0.8222  737.4430 9822.8030   -1.1120    4.4215 348.99 349.0 101.3 10     0.0000    0.0433
ML01         ?    BHZ  i P      c 20230928 0838   10.9887 GAU  6.12e-03 -1.00e+00  7.56e+02 -1.00e+00    1.0000 >    1.2769   -0.0007    1.2475  736.4090 9822.5140   -1.1200    4.4654 335.13 335.1 110.1 10     0.0000    0.0255
ML01         ?    BHN  i S      ? 20230928 0838   11.9167 GAU  7.05e-03 -1.00e+00  1.95e+03 -1.00e+00    1.0000 >    2.1864    0.0178    0.9281  736.4090 9822.5140   -1.1200    4.4654 335.13 335.1 101.1 10     0.0000    0.0437
ML12         ?    BHZ  i P      d 20230928 0838   11.1329 GAU  7.23e-03 -1.00e+00 -1.00e+00 -1.00e+00    1.0000 >    1.4203    0.0000    1.1928  736.8520 9823.3800   -0.9890    5.1224 343.73 343.7 106.0 10     0.0000    0.0284
ML12         ?    BHN  e S      ? 20230928 0838   12.1525 GAU  5.34e-03 -1.00e+00 -1.00e+00 -1.00e+00    1.0000 >    2.4203    0.0196    0.8737  736.8520 9823.3800   -0.9890    5.1224 343.73 343.7  97.6 10     0.0000    0.0484
END_PHASE
END_NLLOC

