NLLOC "./loc/SEML.20230921.034624.grid0" "LOCATED" "Location completed."
PUBLIC_ID None
SIGNATURE "Arham Zakki Edelo - edelo.17034@mhs.its.ac.id   obs:./obs/2023_09.obs   NLLoc:v7.00.10(30Aug2020)   run:22Jan2024 21h55m25"
COMMENT "SEML"
GRID  2001 2001 1001  727 9811 -2  0.01 0.01 0.01 PROB_DENSITY
SEARCH OCTREE nInitial 4851 nEvaluated 20011 smallestNodeSide 0.007440/0.007440/0.007102 oct_tree_integral 6.875594e-03 scatter_volume 6.800955e-03
HYPOCENTER  x 737.606 y 9818.92 z 0.418324  OT 23.7533  ix -1 iy -1 iz -1 MAXIMUM_LIKELIHOOD
GEOGRAPHIC  OT 2023 09 21  03 46 23.753327  Lat 9818.920387 Long 737.606399 Depth 0.418324
QUALITY  Pmax 2.97314e+56 MFmin 74.5997 MFmax 94.6859 RMS 0.0400072 Nphs 18 Gap 221.304 Dist 0.572272 Mamp -9.90 0 Mdur -9.90 0
VPVSRATIO  VpVsRatio 1.72993  Npair 9  Diff 0.536697
STATISTICS  ExpectX 737.699061 Y 9818.791146 Z 0.372373  CovXX 0.0686825 XY -0.0420896 XZ -0.0395433 YY 0.0572591 YZ 0.0550487 ZZ 0.0858087 EllAz1  19.5231 Dip1  -27.5908 Len1  0.204205 Az2  266.707 Dip2  -36.5771 Len2  0.36076 Len3  7.587039e-01
STAT_GEOG  ExpectLat 9818.791146 Long 737.699061 Depth 0.372373
TRANSFORM  NONE
QML_OriginQuality  assocPhCt 18  usedPhCt 18  assocStaCt -1  usedStaCt 9  depthPhCt -1  stdErr 0.0400072  azGap 221.304  secAzGap 221.304  gtLevel -  minDist 0.572272 maxDist 4.52297 medDist 1.79006
QML_OriginUncertainty  horUnc -1  minHorUnc 0.217116  maxHorUnc 0.492469  azMaxHorUnc 131.136
QML_ConfidenceEllipsoid  semiMajorAxisLength 0.758704  semiMinorAxisLength 0.204205  semiIntermediateAxisLength 0.36076  majorAxisPlunge -40.9985  majorAxisAzimuth 136.54  majorAxisRotation 259.844
FOCALMECH  Hyp  9818.920387 737.606399 0.418324 Mech  0 0 0 mf  0 nObs -1
PHASE ID Ins Cmp On Pha  FM Date     HrMn   Sec     Err  ErrMag    Coda      Amp       Per       PriorWt  >   TTpred    Res       Weight    StaLoc(X  Y         Z)        SDist    SAzim  RAz  RDip RQual    Tcorr       TTerr
ML04         ?    BHZ  e P      c 20230921 0346   24.4065 GAU  2.70e-03 -1.00e+00 -1.00e+00 -1.00e+00    1.0000 >    0.5526    0.1006    0.5701  737.1400 9819.2520   -1.5710    0.5723 305.41 305.4 163.4 10     0.0000    0.0111
ML04         ?    BHE  e S      ? 20230921 0346   24.9196 GAU  8.11e-04 -1.00e+00  2.83e+02 -1.00e+00    1.0000 >    0.9630    0.2033    0.0718  737.1400 9819.2520   -1.5710    0.5723 305.41 305.4 163.2 10     0.0000    0.0193
ML06         ?    BHZ  i P      c 20230921 0346   24.2849 GAU  6.29e-04 -1.00e+00 -1.00e+00 -1.00e+00    1.0000 >    0.5207    0.0109    1.6338  738.3100 9819.1170   -1.3960    0.7306  74.39  74.4 157.5 10     0.0000    0.0104
ML06         ?    BHE  e S      ? 20230921 0346   24.7530 GAU  4.49e-04 -1.00e+00 -1.00e+00 -1.00e+00    1.0000 >    0.9084    0.0913    0.5803  738.3100 9819.1170   -1.3960    0.7306  74.39  74.4 157.1 10     0.0000    0.0182
ML14         ?    BHZ  e P      c 20230921 0346   24.3167 GAU  7.49e-04 -1.00e+00 -1.00e+00 -1.00e+00    1.0000 >    0.5640   -0.0007    1.8011  737.5530 9820.0110   -1.3980    1.0919 357.20 357.2 148.1 10     0.0000    0.0113
ML14         ?    BHE  e S      ? 20230921 0346   24.7598 GAU  1.56e-04 -1.00e+00  4.33e+02 -1.00e+00    1.0000 >    0.9840    0.0225    1.3501  737.5530 9820.0110   -1.3980    1.0919 357.20 357.2 147.6 10     0.0000    0.0197
ML02         ?    BHZ  e P      d 20230921 0346   24.3363 GAU  8.98e-04 -1.00e+00  5.31e+01 -1.00e+00    1.0000 >    0.5913   -0.0083    1.6816  736.5970 9819.4060   -1.4960    1.1201 295.69 295.7 148.8 10     0.0000    0.0118
ML02         ?    BHE  e S      ? 20230921 0346   24.7896 GAU  2.29e-04 -1.00e+00 -1.00e+00 -1.00e+00    1.0000 >    1.0309    0.0054    1.6184  736.5970 9819.4060   -1.4960    1.1201 295.69 295.7 148.3 10     0.0000    0.0206
ML11         ?    BHZ  e P      c 20230921 0346   24.3896 GAU  2.42e-03 -1.00e+00 -1.00e+00 -1.00e+00    1.0000 >    0.6610   -0.0247    1.0396  738.4670 9820.4900   -1.3120    1.7901  28.74  28.7 132.5 10     0.0000    0.0132
ML11         ?    BHN  e S      ? 20230921 0346   24.8962 GAU  9.05e-04 -1.00e+00  5.81e+00 -1.00e+00    1.0000 >    1.1539   -0.0110    1.4369  738.4670 9820.4900   -1.3120    1.7901  28.74  28.7 131.5 10     0.0000    0.0231
ML09         ?    BHZ  e P      c 20230921 0346   24.5009 GAU  5.29e-04 -1.00e+00 -1.00e+00 -1.00e+00    1.0000 >    0.7113    0.0362    0.8733  737.8820 9820.9850   -1.2700    2.0829   7.60   7.6 127.1 10     0.0000    0.0142
ML09         ?    BHE  e S      ? 20230921 0346   25.1027 GAU  3.61e-04 -1.00e+00  3.18e+02 -1.00e+00    1.0000 >    1.2421    0.1073    0.5386  737.8820 9820.9850   -1.2700    2.0829   7.60   7.6 125.9 10     0.0000    0.0248
ML13         ?    BHZ  e P      d 20230921 0346   24.5734 GAU  3.00e-04 -1.00e+00  4.49e+02 -1.00e+00    1.0000 >    0.8272   -0.0071    1.6449  737.1780 9821.5410   -1.2220    2.6554 350.72 350.7 119.4 10     0.0000    0.0165
ML13         ?    BHE  e S      ? 20230921 0346   25.1857 GAU  4.68e-04 -1.00e+00 -1.00e+00 -1.00e+00    1.0000 >    1.4449   -0.0125    1.3009  737.1780 9821.5410   -1.2220    2.6554 350.72 350.7 117.8 10     0.0000    0.0289
ML05         ?    BHZ  e P      d 20230921 0346   24.9109 GAU  2.39e-04 -1.00e+00  5.25e+02 -1.00e+00    1.0000 >    0.9986    0.1589    0.1566  736.2660 9822.0830   -1.1500    3.4349 337.03 337.0 111.9 10     0.0000    0.0200
ML05         ?    BHN  e S      ? 20230921 0346   25.7941 GAU  1.31e-04 -1.00e+00  2.65e+02 -1.00e+00    1.0000 >    1.7452    0.2956    0.0099  736.2660 9822.0830   -1.1500    3.4349 337.03 337.0 109.7 10     0.0000    0.0349
ML12         ?    BHZ  e P      c 20230921 0346   25.0394 GAU  6.30e-05 -1.00e+00 -1.00e+00 -1.00e+00    1.0000 >    1.2464    0.0397    0.9939  736.8520 9823.3800   -0.9890    4.5230 350.40 350.4 104.8 10     0.0000    0.0249
ML12         ?    BHN  e S      ? 20230921 0346   26.0192 GAU  1.33e-04 -1.00e+00 -1.00e+00 -1.00e+00    1.0000 >    2.1792    0.0867    0.6983  736.8520 9823.3800   -0.9890    4.5230 350.40 350.4  85.0  8     0.0000    0.0436
END_PHASE
END_NLLOC

