NLLOC "./loc/SEML.20230921.180307.grid0" "LOCATED" "Location completed."
PUBLIC_ID None
SIGNATURE "Arham Zakki Edelo - edelo.17034@mhs.its.ac.id   obs:./obs/2023_09.obs   NLLoc:v7.00.10(30Aug2020)   run:22Jan2024 21h55m38"
COMMENT "SEML"
GRID  2001 2001 1001  727 9811 -2  0.01 0.01 0.01 PROB_DENSITY
SEARCH OCTREE nInitial 4851 nEvaluated 20027 smallestNodeSide 0.014881/0.014881/0.014205 oct_tree_integral 4.806616e-02 scatter_volume 4.806616e-02
HYPOCENTER  x 738.838 y 9818.64 z 0.450284  OT 6.83915  ix -1 iy -1 iz -1 MAXIMUM_LIKELIHOOD
GEOGRAPHIC  OT 2023 09 21  18 03 6.839155  Lat 9818.641369 Long 738.837798 Depth 0.450284
QUALITY  Pmax 4.69391e+58 MFmin 67.0155 MFmax 82.7522 RMS 0.0313592 Nphs 18 Gap 301.124 Dist 0.710489 Mamp -9.90 0 Mdur -9.90 0
VPVSRATIO  VpVsRatio 1.7665  Npair 9  Diff 0.568587
STATISTICS  ExpectX 738.722607 Y 9818.623267 Z 0.541054  CovXX 0.055446 XY 0.00989539 XZ -0.0398469 YY 0.0238031 YZ -0.0164011 ZZ 0.0557742 EllAz1  42.3029 Dip1  42.1463 Len1  0.212052 Az2  325.941 Dip2  -14.6026 Len2  0.28039 Len3  5.941782e-01
STAT_GEOG  ExpectLat 9818.623267 Long 738.722607 Depth 0.541054
TRANSFORM  NONE
QML_OriginQuality  assocPhCt 18  usedPhCt 18  assocStaCt -1  usedStaCt 9  depthPhCt -1  stdErr 0.0313592  azGap 301.124  secAzGap 301.124  gtLevel -  minDist 0.710489 maxDist 5.1379 medDist 2.53104
QML_OriginUncertainty  horUnc -1  minHorUnc 0.219581  maxHorUnc 0.366138  azMaxHorUnc 73.9882
QML_ConfidenceEllipsoid  semiMajorAxisLength 0.594178  semiMinorAxisLength 0.212052  semiIntermediateAxisLength 0.28039  majorAxisPlunge -44.2071  majorAxisAzimuth 70.6208  majorAxisRotation 90.5957
FOCALMECH  Hyp  9818.641369 738.837798 0.450284 Mech  0 0 0 mf  0 nObs -1
PHASE ID Ins Cmp On Pha  FM Date     HrMn   Sec     Err  ErrMag    Coda      Amp       Per       PriorWt  >   TTpred    Res       Weight    StaLoc(X  Y         Z)        SDist    SAzim  RAz  RDip RQual    Tcorr       TTerr
ML06         ?    BHZ  i P      c 20230921 1803    7.4289 GAU  1.61e-03 -1.00e+00 -1.00e+00 -1.00e+00    1.0000 >    0.5264    0.0634    0.5376  738.3100 9819.1170   -1.3960    0.7105 312.02 312.0 158.4 10     0.0000    0.0105
ML06         ?    BHN  e S      ? 20230921 1803    7.8962 GAU  5.12e-04 -1.00e+00 -1.00e+00 -1.00e+00    1.0000 >    0.9181    0.1389    0.1177  738.3100 9819.1170   -1.3960    0.7105 312.02 312.0 158.0 10     0.0000    0.0184
ML04         ?    BHZ  i P      c 20230921 1803    7.5593 GAU  3.22e-03 -1.00e+00 -1.00e+00 -1.00e+00    1.0000 >    0.7223   -0.0022    1.5572  737.1400 9819.2520   -1.5710    1.8043 289.78 289.8 136.8 10     0.0000    0.0144
ML04         ?    BHN  e S      ? 20230921 1803    8.0910 GAU  6.76e-04 -1.00e+00  8.12e+02 -1.00e+00    1.0000 >    1.2587   -0.0069    1.3609  737.1400 9819.2520   -1.5710    1.8043 289.78 289.8 136.1 10     0.0000    0.0252
ML14         ?    BHZ  i P      c 20230921 1803    7.5364 GAU  1.04e-03 -1.00e+00 -1.00e+00 -1.00e+00    1.0000 >    0.7004   -0.0031    1.5627  737.5530 9820.0110   -1.3980    1.8779 316.83 316.8 132.9 10     0.0000    0.0140
ML14         ?    BHE  e S      ? 20230921 1803    8.0758 GAU  4.01e-04 -1.00e+00  3.87e+02 -1.00e+00    1.0000 >    1.2216    0.0150    1.3151  737.5530 9820.0110   -1.3980    1.8779 316.83 316.8 132.0 10     0.0000    0.0244
ML11         ?    BHZ  i P      c 20230921 1803    7.5221 GAU  9.82e-04 -1.00e+00 -1.00e+00 -1.00e+00    1.0000 >    0.6849   -0.0019    1.5739  738.4670 9820.4900   -1.3120    1.8855 348.66 348.7 131.4 10     0.0000    0.0137
ML11         ?    BHE  e S      ? 20230921 1803    7.9799 GAU  8.29e-04 -1.00e+00 -1.00e+00 -1.00e+00    1.0000 >    1.1952   -0.0545    0.5694  738.4670 9820.4900   -1.3120    1.8855 348.66 348.7 130.4 10     0.0000    0.0239
ML09         ?    BHZ  i P      c 20230921 1803    7.6611 GAU  1.71e-03 -1.00e+00 -1.00e+00 -1.00e+00    1.0000 >    0.8115    0.0105    1.4461  737.8820 9820.9850   -1.2700    2.5310 337.81 337.8 122.0 10     0.0000    0.0162
ML09         ?    BHE  i S      ? 20230921 1803    8.3003 GAU  3.90e-04 -1.00e+00  3.70e+02 -1.00e+00    1.0000 >    1.4166    0.0446    0.9162  737.8820 9820.9850   -1.2700    2.5310 337.81 337.8 120.7 10     0.0000    0.0283
ML13         ?    BHZ  i P      c 20230921 1803    7.7900 GAU  1.29e-03 -1.00e+00 -1.00e+00 -1.00e+00    1.0000 >    0.9893   -0.0385    0.8270  737.1780 9821.5410   -1.2220    3.3411 330.21 330.2 114.0 10     0.0000    0.0198
ML13         ?    BHN  e S      ? 20230921 1803    8.5169 GAU  1.01e-03 -1.00e+00 -1.00e+00 -1.00e+00    1.0000 >    1.7275   -0.0498    0.7249  737.1780 9821.5410   -1.2220    3.3411 330.21 330.2 112.0 10     0.0000    0.0346
ML05         ?    BHZ  e P      c 20230921 1803    8.0681 GAU  1.44e-03 -1.00e+00  9.84e+01 -1.00e+00    1.0000 >    1.2110    0.0179    1.2830  736.2660 9822.0830   -1.1500    4.2964 323.23 323.2 107.6 10     0.0000    0.0242
ML05         ?    BHN  e S      ? 20230921 1803    8.9862 GAU  1.92e-04 -1.00e+00  2.81e+02 -1.00e+00    1.0000 >    2.1152    0.0318    1.0371  736.2660 9822.0830   -1.1500    4.2964 323.23 323.2 104.6  9     0.0000    0.0423
ML07         ?    BHZ  e P      c 20230921 1803    8.1372 GAU  1.04e-03 -1.00e+00 -1.00e+00 -1.00e+00    1.0000 >    1.2294    0.0686    0.5836  737.4430 9822.8030   -1.1120    4.3891 341.47 341.5 106.9 10     0.0000    0.0246
ML07         ?    BHN  e S      ? 20230921 1803    9.1138 GAU  2.86e-04 -1.00e+00 -1.00e+00 -1.00e+00    1.0000 >    2.1477    0.1270    0.2633  737.4430 9822.8030   -1.1120    4.3891 341.47 341.5  88.4  9     0.0000    0.0430
ML12         ?    BHZ  e P      c 20230921 1803    8.2294 GAU  1.42e-03 -1.00e+00 -1.00e+00 -1.00e+00    1.0000 >    1.4027   -0.0124    1.2759  736.8520 9823.3800   -0.9890    5.1379 337.26 337.3 103.2 10     0.0000    0.0281
ML12         ?    BHE  e S      ? 20230921 1803    9.2558 GAU  1.19e-03 -1.00e+00 -1.00e+00 -1.00e+00    1.0000 >    2.4262   -0.0096    1.0484  736.8520 9823.3800   -0.9890    5.1379 337.26 337.3  67.2 10     0.0000    0.0485
END_PHASE
END_NLLOC

