NLLOC "./loc/SEML.20230914.162941.grid0" "LOCATED" "Location completed."
PUBLIC_ID None
SIGNATURE "Arham Zakki Edelo - edelo.17034@mhs.its.ac.id   obs:./obs/2023_09.obs   NLLoc:v7.00.10(30Aug2020)   run:22Jan2024 21h54m37"
COMMENT "SEML"
GRID  2001 2001 1001  727 9811 -2  0.01 0.01 0.01 PROB_DENSITY
SEARCH OCTREE nInitial 4851 nEvaluated 20003 smallestNodeSide 0.014881/0.014881/0.014205 oct_tree_integral 3.989252e-02 scatter_volume 3.963153e-02
HYPOCENTER  x 736.457 y 9818.19 z -0.34517  OT 41.0832  ix -1 iy -1 iz -1 MAXIMUM_LIKELIHOOD
GEOGRAPHIC  OT 2023 09 14  16 29 41.083231  Lat 9818.194940 Long 736.456845 Depth -0.345170
QUALITY  Pmax 3.48475e+29 MFmin 37.3025 MFmax 44.2788 RMS 0.0123354 Nphs 10 Gap 308.533 Dist 2.06987 Mamp -9.90 0 Mdur -9.90 0
VPVSRATIO  VpVsRatio 1.81784  Npair 5  Diff 0.574406
STATISTICS  ExpectX 736.394329 Y 9818.122263 Z -0.760865  CovXX 0.0240088 XY 0.00443666 XZ 0.0498097 YY 0.0150492 YZ 0.0269122 ZZ 0.268064 EllAz1  198.604 Dip1  9.18157 Len1  0.205411 Az2  289.978 Dip2  8.43959 Len2  0.226492 Len3  9.953140e-01
STAT_GEOG  ExpectLat 9818.122263 Long 736.394329 Depth -0.760865
TRANSFORM  NONE
QML_OriginQuality  assocPhCt 10  usedPhCt 10  assocStaCt -1  usedStaCt 5  depthPhCt -1  stdErr 0.0123354  azGap 308.533  secAzGap 308.533  gtLevel -  minDist 2.06987 maxDist 4.7124 medDist 3.0509
QML_OriginUncertainty  horUnc -1  minHorUnc 0.1744  maxHorUnc 0.243758  azMaxHorUnc 67.6386
QML_ConfidenceEllipsoid  semiMajorAxisLength 0.995314  semiMinorAxisLength 0.205411  semiIntermediateAxisLength 0.226492  majorAxisPlunge 77.479  majorAxisAzimuth 61.8996  majorAxisRotation 309.806
FOCALMECH  Hyp  9818.194940 736.456845 -0.345170 Mech  0 0 0 mf  0 nObs -1
PHASE ID Ins Cmp On Pha  FM Date     HrMn   Sec     Err  ErrMag    Coda      Amp       Per       PriorWt  >   TTpred    Res       Weight    StaLoc(X  Y         Z)        SDist    SAzim  RAz  RDip RQual    Tcorr       TTerr
ML06         ?    BHZ  i P      d 20230914 1629   41.7065 GAU  1.30e-03 -1.00e+00  5.79e+01 -1.00e+00    1.0000 >    0.6298   -0.0065    1.3812  738.3100 9819.1170   -1.3960    2.0699  63.55  63.5 111.3 10     0.0000    0.0126
ML06         ?    BHN  e S      ? 20230914 1629   42.1845 GAU  3.95e-04 -1.00e+00 -1.00e+00 -1.00e+00    1.0000 >    1.0953    0.0059    1.2299  738.3100 9819.1170   -1.3960    2.0699  63.55  63.5 115.2 10     0.0000    0.0219
ML14         ?    BHZ  e P      c 20230914 1629   41.7293 GAU  1.55e-03 -1.00e+00 -1.00e+00 -1.00e+00    1.0000 >    0.6425    0.0036    1.4453  737.5530 9820.0110   -1.3980    2.1212  31.11  31.1 110.7 10     0.0000    0.0128
ML14         ?    BHE  e S      ? 20230914 1629   42.2042 GAU  1.12e-03 -1.00e+00  4.08e+02 -1.00e+00    1.0000 >    1.1174    0.0036    1.2302  737.5530 9820.0110   -1.3980    2.1212  31.11  31.1 114.7 10     0.0000    0.0223
ML11         ?    BHZ  e P      c 20230914 1629   41.9617 GAU  1.44e-03 -1.00e+00 -1.00e+00 -1.00e+00    1.0000 >    0.8657    0.0128    1.2205  738.4670 9820.4900   -1.3120    3.0509  41.21  41.2  99.6 10     0.0000    0.0173
ML11         ?    BHN  e S      ? 20230914 1629   42.5973 GAU  2.02e-03 -1.00e+00 -1.00e+00 -1.00e+00    1.0000 >    1.5093    0.0048    1.0537  738.4670 9820.4900   -1.3120    3.0509  41.21  41.2 105.1 10     0.0000    0.0302
ML09         ?    BHZ  e P      c 20230914 1629   41.9571 GAU  2.71e-04 -1.00e+00  5.34e+01 -1.00e+00    1.0000 >    0.8825   -0.0087    1.2546  737.8820 9820.9850   -1.2700    3.1330  27.06  27.1  98.4  9     0.0000    0.0177
ML09         ?    BHN  e S      ? 20230914 1629   42.6154 GAU  1.54e-04 -1.00e+00  4.79e+02 -1.00e+00    1.0000 >    1.5401   -0.0080    1.0036  737.8820 9820.9850   -1.2700    3.1330  27.06  27.1 103.9 10     0.0000    0.0308
ML07         ?    BHZ  e P      c 20230914 1629   42.4357 GAU  3.31e-04 -1.00e+00 -1.00e+00 -1.00e+00    1.0000 >    1.2753    0.0771    0.1391  737.4430 9822.8030   -1.1120    4.7124  12.08  12.1  93.3  9     0.0000    0.0255
ML07         ?    BHN  e S      ? 20230914 1629   43.4850 GAU  9.84e-05 -1.00e+00 -1.00e+00 -1.00e+00    1.0000 >    2.2466    0.1552    0.0418  737.4430 9822.8030   -1.1120    4.7124  12.08  12.1  95.5  9     0.0000    0.0449
END_PHASE
END_NLLOC

