NLLOC "./loc/SEML.20230914.162840.grid0" "LOCATED" "Location completed."
PUBLIC_ID None
SIGNATURE "Arham Zakki Edelo - edelo.17034@mhs.its.ac.id   obs:./obs/2023_09.obs   NLLoc:v7.00.10(30Aug2020)   run:22Jan2024 21h54m34"
COMMENT "SEML"
GRID  2001 2001 1001  727 9811 -2  0.01 0.01 0.01 PROB_DENSITY
SEARCH OCTREE nInitial 4851 nEvaluated 20003 smallestNodeSide 0.014881/0.014881/0.014205 oct_tree_integral 2.308991e-02 scatter_volume 2.308991e-02
HYPOCENTER  x 739.091 y 9818.49 z -0.458807  OT 40.4841  ix -1 iy -1 iz -1 MAXIMUM_LIKELIHOOD
GEOGRAPHIC  OT 2023 09 14  16 28 40.484118  Lat 9818.492560 Long 739.090774 Depth -0.458807
QUALITY  Pmax 5.26139e+64 MFmin 75.7235 MFmax 92.0436 RMS 0.0311406 Nphs 20 Gap 308.614 Dist 0.999767 Mamp -9.90 0 Mdur -9.90 0
VPVSRATIO  VpVsRatio 1.74562  Npair 10  Diff 0.704556
STATISTICS  ExpectX 739.088375 Y 9818.445444 Z -0.319709  CovXX 0.0384518 XY 0.0089775 XZ -0.0202915 YY 0.0214539 YZ -0.0121338 ZZ 0.120158 EllAz1  338.81 Dip1  2.21893 Len1  0.248328 Az2  249.423 Dip2  -15.4234 Len2  0.355702 Len3  6.689062e-01
STAT_GEOG  ExpectLat 9818.445444 Long 739.088375 Depth -0.319709
TRANSFORM  NONE
QML_OriginQuality  assocPhCt 20  usedPhCt 20  assocStaCt -1  usedStaCt 10  depthPhCt -1  stdErr 0.0311406  azGap 308.614  secAzGap 308.614  gtLevel -  minDist 0.999767 maxDist 5.3758 medDist 3.18447
QML_OriginUncertainty  horUnc -1  minHorUnc 0.201142  maxHorUnc 0.311969  azMaxHorUnc 66.7157
QML_ConfidenceEllipsoid  semiMajorAxisLength 0.668906  semiMinorAxisLength 0.248328  semiIntermediateAxisLength 0.355702  majorAxisPlunge -74.4099  majorAxisAzimuth 60.8278  majorAxisRotation 189.657
FOCALMECH  Hyp  9818.492560 739.090774 -0.458807 Mech  0 0 0 mf  0 nObs -1
PHASE ID Ins Cmp On Pha  FM Date     HrMn   Sec     Err  ErrMag    Coda      Amp       Per       PriorWt  >   TTpred    Res       Weight    StaLoc(X  Y         Z)        SDist    SAzim  RAz  RDip RQual    Tcorr       TTerr
ML06         ?    BHZ  i P      c 20230914 1628   40.9967 GAU  4.45e-03 -1.00e+00 -1.00e+00 -1.00e+00    1.0000 >    0.3739    0.1387    0.1045  738.3100 9819.1170   -1.3960    0.9998 308.65 308.7 129.7 10     0.0000    0.0075
ML06         ?    BHE  i S      ? 20230914 1628   41.4338 GAU  1.29e-03 -1.00e+00 -1.00e+00 -1.00e+00    1.0000 >    0.6473    0.3024    0.0000  738.3100 9819.1170   -1.3960    0.9998 308.65 308.7 132.0 10     0.0000    0.0129
ML11         ?    BHZ  i P      c 20230914 1628   41.1257 GAU  2.46e-03 -1.00e+00 -1.00e+00 -1.00e+00    1.0000 >    0.6163    0.0253    1.2453  738.4670 9820.4900   -1.3120    2.0926 342.66 342.7 103.6 10     0.0000    0.0123
ML11         ?    BHN  e S      ? 20230914 1628   41.7219 GAU  9.06e-04 -1.00e+00 -1.00e+00 -1.00e+00    1.0000 >    1.0679    0.1699    0.0975  738.4670 9820.4900   -1.3120    2.0926 342.66 342.7 109.9 10     0.0000    0.0214
ML04         ?    BHZ  e P      d 20230914 1628   41.0480 GAU  7.35e-04 -1.00e+00  7.41e+02 -1.00e+00    1.0000 >    0.6476   -0.0838    0.2822  737.1400 9819.2520   -1.5710    2.0934 291.27 291.3 111.5 10     0.0000    0.0130
ML04         ?    BHE  e S      ? 20230914 1628   41.5980 GAU  5.61e-04 -1.00e+00  3.28e+02 -1.00e+00    1.0000 >    1.1208   -0.0069    1.6673  737.1400 9819.2520   -1.5710    2.0934 291.27 291.3 116.2 10     0.0000    0.0224
ML14         ?    BHZ  e P      c 20230914 1628   41.1312 GAU  1.20e-03 -1.00e+00 -1.00e+00 -1.00e+00    1.0000 >    0.6431    0.0040    1.8022  737.5530 9820.0110   -1.3980    2.1611 314.64 314.6 105.4 10     0.0000    0.0129
ML14         ?    BHE  e S      ? 20230914 1628   41.5906 GAU  1.42e-03 -1.00e+00  3.57e+02 -1.00e+00    1.0000 >    1.1138   -0.0073    1.6664  737.5530 9820.0110   -1.3980    2.1611 314.64 314.6 111.3 10     0.0000    0.0223
ML09         ?    BHZ  i P      c 20230914 1628   41.2544 GAU  4.21e-04 -1.00e+00  8.44e+01 -1.00e+00    1.0000 >    0.7857   -0.0154    1.6229  737.8820 9820.9850   -1.2700    2.7701 334.13 334.1  94.7  9     0.0000    0.0157
ML09         ?    BHE  e S      ? 20230914 1628   41.8454 GAU  1.05e-04 -1.00e+00  3.39e+02 -1.00e+00    1.0000 >    1.3636   -0.0023    1.5869  737.8820 9820.9850   -1.2700    2.7701 334.13 334.1 103.2 10     0.0000    0.0273
ML13         ?    BHZ  i P      c 20230914 1628   41.3327 GAU  5.63e-04 -1.00e+00 -1.00e+00 -1.00e+00    1.0000 >    0.9957   -0.1471    0.0306  737.1780 9821.5410   -1.2220    3.5988 327.89 327.9  92.1  9     0.0000    0.0199
ML13         ?    BHN  e S      ? 20230914 1628   41.9852 GAU  8.24e-04 -1.00e+00 -1.00e+00 -1.00e+00    1.0000 >    1.7371   -0.2360    0.0118  737.1780 9821.5410   -1.2220    3.5988 327.89 327.9  97.5  9     0.0000    0.0347
ML10         ?    BHZ  e P      d 20230914 1628   41.5535 GAU  2.93e-03 -1.00e+00  1.09e+03 -1.00e+00    1.0000 >    1.0568    0.0125    1.5849  736.5490 9821.3650   -1.2200    3.8356 318.49 318.5  91.8  9     0.0000    0.0211
ML10         ?    BHE  e S      ? 20230914 1628   42.3502 GAU  9.88e-04 -1.00e+00 -1.00e+00 -1.00e+00    1.0000 >    1.8462    0.0198    1.2415  736.5490 9821.3650   -1.2200    3.8356 318.49 318.5  96.3  9     0.0000    0.0369
ML05         ?    BHZ  i P      c 20230914 1628   41.7226 GAU  1.86e-03 -1.00e+00 -1.00e+00 -1.00e+00    1.0000 >    1.2403   -0.0018    1.6360  736.2660 9822.0830   -1.1500    4.5684 321.81 321.8  91.2  9     0.0000    0.0248
ML05         ?    BHN  e S      ? 20230914 1628   42.6925 GAU  1.19e-04 -1.00e+00  2.58e+02 -1.00e+00    1.0000 >    2.1795    0.0289    1.0639  736.2660 9822.0830   -1.1500    4.5684 321.81 321.8  92.7  9     0.0000    0.0436
ML07         ?    BHZ  e P      d 20230914 1628   41.6802 GAU  1.19e-03 -1.00e+00 -1.00e+00 -1.00e+00    1.0000 >    1.2488   -0.0528    0.8356  737.4430 9822.8030   -1.1120    4.6147 339.08 339.1  91.2  9     0.0000    0.0250
ML07         ?    BHN  e S      ? 20230914 1628   42.6504 GAU  4.49e-04 -1.00e+00 -1.00e+00 -1.00e+00    1.0000 >    2.1975   -0.0313    1.1664  737.4430 9822.8030   -1.1120    4.6147 339.08 339.1  92.3  9     0.0000    0.0440
ML12         ?    BHZ  e P      c 20230914 1628   41.8828 GAU  1.56e-03 -1.00e+00 -1.00e+00 -1.00e+00    1.0000 >    1.4350   -0.0363    1.1746  736.8520 9823.3800   -0.9890    5.3758 335.39 335.4  90.8  9     0.0000    0.0287
ML12         ?    BHE  e S      ? 20230914 1628   43.0245 GAU  1.11e-03 -1.00e+00  7.20e+01 -1.00e+00    1.0000 >    2.5404    0.0000    1.1795  736.8520 9823.3800   -0.9890    5.3758 335.39 335.4  91.2  9     0.0000    0.0508
END_PHASE
END_NLLOC

