NLLOC "./loc/SEML.20230914.162624.grid0" "LOCATED" "Location completed."
PUBLIC_ID None
SIGNATURE "Arham Zakki Edelo - edelo.17034@mhs.its.ac.id   obs:./obs/2023_09.obs   NLLoc:v7.00.10(30Aug2020)   run:22Jan2024 21h54m21"
COMMENT "SEML"
GRID  2001 2001 1001  727 9811 -2  0.01 0.01 0.01 PROB_DENSITY
SEARCH OCTREE nInitial 4851 nEvaluated 20011 smallestNodeSide 0.014881/0.014881/0.014205 oct_tree_integral 1.600554e-02 scatter_volume 1.600554e-02
HYPOCENTER  x 737.99 y 9818.73 z 0.649148  OT 23.6493  ix -1 iy -1 iz -1 MAXIMUM_LIKELIHOOD
GEOGRAPHIC  OT 2023 09 14  16 26 23.649284  Lat 9818.730655 Long 737.989583 Depth 0.649148
QUALITY  Pmax 9.1755e+95 MFmin 99.3076 MFmax 126.432 RMS 0.0268813 Nphs 26 Gap 256.201 Dist 0.501926 Mamp -9.90 0 Mdur -9.90 0
VPVSRATIO  VpVsRatio 1.71815  Npair 13  Diff 0.575394
STATISTICS  ExpectX 738.052611 Y 9818.709939 Z 0.640013  CovXX 0.0158034 XY -0.00223187 XZ -0.00194129 YY 0.0120893 YZ -0.00409587 ZZ 0.0108643 EllAz1  205.225 Dip1  -45.5643 Len1  0.150543 Az2  24.3348 Dip2  -44.4322 Len2  0.233814 Len3  2.438855e-01
STAT_GEOG  ExpectLat 9818.709939 Long 738.052611 Depth 0.640013
TRANSFORM  NONE
QML_OriginQuality  assocPhCt 26  usedPhCt 26  assocStaCt -1  usedStaCt 13  depthPhCt -1  stdErr 0.0268813  azGap 256.201  secAzGap 256.201  gtLevel -  minDist 0.501926 maxDist 4.78649 medDist 2.39578
QML_OriginUncertainty  horUnc -1  minHorUnc 0.15937  maxHorUnc 0.196861  azMaxHorUnc 115.119
QML_ConfidenceEllipsoid  semiMajorAxisLength 0.243885  semiMinorAxisLength 0.150543  semiIntermediateAxisLength 0.233814  majorAxisPlunge 0.445209  majorAxisAzimuth 294.771  majorAxisRotation 225.57
FOCALMECH  Hyp  9818.730655 737.989583 0.649148 Mech  0 0 0 mf  0 nObs -1
PHASE ID Ins Cmp On Pha  FM Date     HrMn   Sec     Err  ErrMag    Coda      Amp       Per       PriorWt  >   TTpred    Res       Weight    StaLoc(X  Y         Z)        SDist    SAzim  RAz  RDip RQual    Tcorr       TTerr
ML06         ?    BHZ  i P      c 20230914 1626   24.2107 GAU  9.31e-04 -1.00e+00  8.64e+02 -1.00e+00    1.0000 >    0.5584    0.0031    1.3961  738.3100 9819.1170   -1.3960    0.5019  39.67  39.7 165.6 10     0.0000    0.0112
ML06         ?    BHN  e S      ? 20230914 1626   24.6598 GAU  2.41e-03 -1.00e+00 -1.00e+00 -1.00e+00    1.0000 >    0.9679    0.0426    0.8862  738.3100 9819.1170   -1.3960    0.5019  39.67  39.7 164.4 10     0.0000    0.0194
ML04         ?    BHZ  i P      c 20230914 1626   24.3313 GAU  1.09e-03 -1.00e+00 -1.00e+00 -1.00e+00    1.0000 >    0.6470    0.0350    0.9983  737.1400 9819.2520   -1.5710    0.9968 301.54 301.5 154.9 10     0.0000    0.0129
ML04         ?    BHN  e S      ? 20230914 1626   24.7686 GAU  2.31e-03 -1.00e+00  6.57e+02 -1.00e+00    1.0000 >    1.1211   -0.0018    1.3063  737.1400 9819.2520   -1.5710    0.9968 301.54 301.5 152.7 10     0.0000    0.0224
ML14         ?    BHZ  i P      c 20230914 1626   24.2986 GAU  2.01e-03 -1.00e+00 -1.00e+00 -1.00e+00    1.0000 >    0.6504   -0.0010    1.3990  737.5530 9820.0110   -1.3980    1.3527 341.17 341.2 145.3 10     0.0000    0.0130
ML14         ?    BHE  e S      ? 20230914 1626   24.7747 GAU  1.93e-03 -1.00e+00  3.48e+02 -1.00e+00    1.0000 >    1.1273   -0.0019    1.3049  737.5530 9820.0110   -1.3980    1.3527 341.17 341.2 142.1 10     0.0000    0.0225
ML02         ?    BHZ  i P      c 20230914 1626   24.3221 GAU  2.46e-03 -1.00e+00 -1.00e+00 -1.00e+00    1.0000 >    0.7022   -0.0294    0.9613  736.5970 9819.4060   -1.4960    1.5477 295.87 295.9 142.8 10     0.0000    0.0140
ML02         ?    BHN  e S      ? 20230914 1626   24.8611 GAU  2.02e-03 -1.00e+00 -1.00e+00 -1.00e+00    1.0000 >    1.2167   -0.0049    1.2673  736.5970 9819.4060   -1.4960    1.5477 295.87 295.9 139.2 10     0.0000    0.0243
ML11         ?    BHZ  i P      c 20230914 1626   24.3313 GAU  1.09e-03 -1.00e+00  1.14e+02 -1.00e+00    1.0000 >    0.7082   -0.0262    1.0403  738.4670 9820.4900   -1.3120    1.8230  15.18  15.2 135.5 10     0.0000    0.0142
ML11         ?    BHN  e S      ? 20230914 1626   24.8871 GAU  2.61e-03 -1.00e+00  5.21e+01 -1.00e+00    1.0000 >    1.2275    0.0103    1.2705  738.4670 9820.4900   -1.3120    1.8230  15.18  15.2 130.8 10     0.0000    0.0246
ML09         ?    BHZ  i P      c 20230914 1626   24.4217 GAU  1.12e-03 -1.00e+00  2.82e+02 -1.00e+00    1.0000 >    0.7828   -0.0104    1.3224  737.8820 9820.9850   -1.2700    2.2569 357.27 357.3 128.1 10     0.0000    0.0157
ML09         ?    BHE  e S      ? 20230914 1626   24.9967 GAU  1.17e-03 -1.00e+00  8.34e+01 -1.00e+00    1.0000 >    1.3565   -0.0091    1.2016  737.8820 9820.9850   -1.2700    2.2569 357.27 357.3 121.9 10     0.0000    0.0271
ML03         ?    BHZ  i P      d 20230914 1626   24.4944 GAU  2.46e-03 -1.00e+00  3.38e+03 -1.00e+00    1.0000 >    0.8230    0.0221    1.2170  736.8800 9820.8540   -1.3350    2.3958 332.41 332.4 127.2 10     0.0000    0.0165
ML03         ?    BHN  e S      ? 20230914 1626   25.1378 GAU  2.02e-03 -1.00e+00 -1.00e+00 -1.00e+00    1.0000 >    1.4259    0.0626    0.6068  736.8800 9820.8540   -1.3350    2.3958 332.41 332.4 120.9 10     0.0000    0.0285
ML13         ?    BHZ  i P      c 20230914 1626   24.5480 GAU  1.07e-03 -1.00e+00 -1.00e+00 -1.00e+00    1.0000 >    0.9166   -0.0179    1.1955  737.1780 9821.5410   -1.2220    2.9252 343.89 343.9 119.7 10     0.0000    0.0183
ML13         ?    BHE  e S      ? 20230914 1626   25.1893 GAU  1.57e-03 -1.00e+00 -1.00e+00 -1.00e+00    1.0000 >    1.5873   -0.0473    0.6431  737.1780 9821.5410   -1.2220    2.9252 343.89 343.9 111.2 10     0.0000    0.0317
ML10         ?    BHZ  i P      c 20230914 1626   24.6281 GAU  2.58e-03 -1.00e+00 -1.00e+00 -1.00e+00    1.0000 >    0.9335    0.0453    0.8355  736.5490 9821.3650   -1.2200    3.0025 331.33 331.3 119.0 10     0.0000    0.0187
ML10         ?    BHN  e S      ? 20230914 1626   25.3864 GAU  8.17e-04 -1.00e+00 -1.00e+00 -1.00e+00    1.0000 >    1.6164    0.1207    0.1386  736.5490 9821.3650   -1.2200    3.0025 331.33 331.3 110.2 10     0.0000    0.0323
ML05         ?    BHZ  i P      d 20230914 1626   24.7759 GAU  4.01e-03 -1.00e+00  3.61e+02 -1.00e+00    1.0000 >    1.1004    0.0262    1.1458  736.2660 9822.0830   -1.1500    3.7695 332.79 332.8 112.1 10     0.0000    0.0220
ML05         ?    BHN  e S      ? 20230914 1626   25.6254 GAU  2.95e-03 -1.00e+00  2.41e+02 -1.00e+00    1.0000 >    1.9015    0.0746    0.5159  736.2660 9822.0830   -1.1500    3.7695 332.79 332.8 100.7 10     0.0000    0.0380
ML01         ?    BHZ  i P      c 20230914 1626   24.7900 GAU  6.41e-03 -1.00e+00 -1.00e+00 -1.00e+00    1.0000 >    1.1754   -0.0347    0.8519  736.4090 9822.5140   -1.1200    4.1002 337.33 337.3 109.8 10     0.0000    0.0235
ML01         ?    BHE  e S      ? 20230914 1626   25.6276 GAU  2.45e-03 -1.00e+00  4.52e+02 -1.00e+00    1.0000 >    2.0280   -0.0496    0.6299  736.4090 9822.5140   -1.1200    4.1002 337.33 337.3  98.1  9     0.0000    0.0406
ML07         ?    BHZ  i P      d 20230914 1626   24.8375 GAU  7.76e-04 -1.00e+00 -1.00e+00 -1.00e+00    1.0000 >    1.1764    0.0118    1.2761  737.4430 9822.8030   -1.1120    4.1089 352.36 352.4 109.6 10     0.0000    0.0235
ML07         ?    BHN  e S      ? 20230914 1626   25.6942 GAU  1.09e-03 -1.00e+00 -1.00e+00 -1.00e+00    1.0000 >    2.0296    0.0153    1.0510  737.4430 9822.8030   -1.1120    4.1089 352.36 352.4  97.9  9     0.0000    0.0406
ML12         ?    BHZ  i P      d 20230914 1626   25.0022 GAU  2.58e-03 -1.00e+00 -1.00e+00 -1.00e+00    1.0000 >    1.3268    0.0261    1.1212  736.8520 9823.3800   -0.9890    4.7865 346.25 346.3 105.1 10     0.0000    0.0265
ML12         ?    BHE  e S      ? 20230914 1626   26.0149 GAU  1.20e-03 -1.00e+00  5.73e+01 -1.00e+00    1.0000 >    2.2765    0.0892    0.4176  736.8520 9823.3800   -0.9890    4.7865 346.25 346.3  94.8  9     0.0000    0.0455
END_PHASE
END_NLLOC

