NLLOC "./loc/SEML.20230914.163209.grid0" "LOCATED" "Location completed."
PUBLIC_ID None
SIGNATURE "Arham Zakki Edelo - edelo.17034@mhs.its.ac.id   obs:./obs/2023_09.obs   NLLoc:v7.00.10(30Aug2020)   run:22Jan2024 21h54m39"
COMMENT "SEML"
GRID  2001 2001 1001  727 9811 -2  0.01 0.01 0.01 PROB_DENSITY
SEARCH OCTREE nInitial 4851 nEvaluated 20003 smallestNodeSide 0.014881/0.014881/0.014205 oct_tree_integral 1.325628e-02 scatter_volume 1.319558e-02
HYPOCENTER  x 738.704 y 9818.33 z 0.336648  OT 8.39672  ix -1 iy -1 iz -1 MAXIMUM_LIKELIHOOD
GEOGRAPHIC  OT 2023 09 14  16 32 8.396723  Lat 9818.328869 Long 738.703869 Depth 0.336648
QUALITY  Pmax 1.71087e+95 MFmin 94.696 MFmax 106.712 RMS 0.0244357 Nphs 26 Gap 303.333 Dist 0.881069 Mamp -9.90 0 Mdur -9.90 0
VPVSRATIO  VpVsRatio 1.72385  Npair 13  Diff 0.651842
STATISTICS  ExpectX 738.707909 Y 9818.324537 Z 0.305901  CovXX 0.012821 XY -0.000887719 XZ -0.00558997 YY 0.00744418 YZ -0.00126574 ZZ 0.0143915 EllAz1  31.5843 Dip1  25.9893 Len1  0.147629 Az2  317.251 Dip2  -28.9836 Len2  0.180402 Len3  2.607652e-01
STAT_GEOG  ExpectLat 9818.324537 Long 738.707909 Depth 0.305901
TRANSFORM  NONE
QML_OriginQuality  assocPhCt 26  usedPhCt 26  assocStaCt -1  usedStaCt 13  depthPhCt -1  stdErr 0.0244357  azGap 303.333  secAzGap 303.333  gtLevel -  minDist 0.881069 maxDist 5.3799 medDist 3.11493
QML_OriginUncertainty  horUnc -1  minHorUnc 0.129589  maxHorUnc 0.172675  azMaxHorUnc 99.1367
QML_ConfidenceEllipsoid  semiMajorAxisLength 0.260765  semiMinorAxisLength 0.147629  semiIntermediateAxisLength 0.180402  majorAxisPlunge -49.208  majorAxisAzimuth 87.1864  majorAxisRotation 260.807
FOCALMECH  Hyp  9818.328869 738.703869 0.336648 Mech  0 0 0 mf  0 nObs -1
PHASE ID Ins Cmp On Pha  FM Date     HrMn   Sec     Err  ErrMag    Coda      Amp       Per       PriorWt  >   TTpred    Res       Weight    StaLoc(X  Y         Z)        SDist    SAzim  RAz  RDip RQual    Tcorr       TTerr
ML06         ?    BHZ  i P      c 20230914 1632    9.0391 GAU  1.51e-03 -1.00e+00 -1.00e+00 -1.00e+00    1.0000 >    0.5181    0.1243    0.0709  738.3100 9819.1170   -1.3960    0.8811 333.45 333.4 152.2 10     0.0000    0.0104
ML06         ?    BHE  e S      ? 20230914 1632    9.5589 GAU  1.24e-03 -1.00e+00  2.84e+02 -1.00e+00    1.0000 >    0.9045    0.2578    0.0001  738.3100 9819.1170   -1.3960    0.8811 333.45 333.4 151.8 10     0.0000    0.0181
ML04         ?    BHZ  e P      c 20230914 1632    9.1135 GAU  1.93e-03 -1.00e+00 -1.00e+00 -1.00e+00    1.0000 >    0.7034    0.0133    1.3502  737.1400 9819.2520   -1.5710    1.8160 300.55 300.6 134.6 10     0.0000    0.0141
ML04         ?    BHE  e S      ? 20230914 1632    9.5784 GAU  2.24e-03 -1.00e+00  6.01e+01 -1.00e+00    1.0000 >    1.2267   -0.0450    0.8013  737.1400 9819.2520   -1.5710    1.8160 300.55 300.6 133.9 10     0.0000    0.0245
ML14         ?    BHZ  i P      c 20230914 1632    9.1086 GAU  2.32e-03 -1.00e+00 -1.00e+00 -1.00e+00    1.0000 >    0.7127   -0.0009    1.5110  737.5530 9820.0110   -1.3980    2.0382 325.62 325.6 128.3 10     0.0000    0.0143
ML14         ?    BHE  e S      ? 20230914 1632    9.6289 GAU  1.65e-03 -1.00e+00  1.27e+02 -1.00e+00    1.0000 >    1.2443   -0.0122    1.3067  737.5530 9820.0110   -1.3980    2.0382 325.62 325.6 127.2 10     0.0000    0.0249
ML11         ?    BHZ  i P      c 20230914 1632    9.1051 GAU  2.24e-03 -1.00e+00 -1.00e+00 -1.00e+00    1.0000 >    0.7254   -0.0171    1.3536  738.4670 9820.4900   -1.3120    2.1741 353.75 353.7 125.0 10     0.0000    0.0145
ML11         ?    BHN  e S      ? 20230914 1632    9.6804 GAU  2.02e-03 -1.00e+00  6.80e+01 -1.00e+00    1.0000 >    1.2673    0.0163    1.2021  738.4670 9820.4900   -1.3120    2.1741 353.75 353.7 123.7 10     0.0000    0.0253
ML02         ?    BHZ  i P      c 20230914 1632    9.1917 GAU  1.41e-03 -1.00e+00 -1.00e+00 -1.00e+00    1.0000 >    0.7983   -0.0033    1.4890  736.5970 9819.4060   -1.4960    2.3662 297.08 297.1 125.4 10     0.0000    0.0160
ML02         ?    BHE  e S      ? 20230914 1632    9.8069 GAU  1.24e-03 -1.00e+00 -1.00e+00 -1.00e+00    1.0000 >    1.3929    0.0173    1.1649  736.5970 9819.4060   -1.4960    2.3662 297.08 297.1 124.2 10     0.0000    0.0279
ML09         ?    BHZ  i P      c 20230914 1632    9.2575 GAU  2.15e-03 -1.00e+00 -1.00e+00 -1.00e+00    1.0000 >    0.8529    0.0079    1.4117  737.8820 9820.9850   -1.2700    2.7804 342.81 342.8 117.4 10     0.0000    0.0171
ML09         ?    BHE  e S      ? 20230914 1632    9.9414 GAU  8.73e-04 -1.00e+00 -1.00e+00 -1.00e+00    1.0000 >    1.4906    0.0541    0.6145  737.8820 9820.9850   -1.2700    2.7804 342.81 342.8 115.5 10     0.0000    0.0298
ML03         ?    BHZ  e P      d 20230914 1632    9.3419 GAU  1.29e-03 -1.00e+00 -1.00e+00 -1.00e+00    1.0000 >    0.9400    0.0052    1.4155  736.8800 9820.8540   -1.3350    3.1149 324.16 324.2 115.3 10     0.0000    0.0188
ML03         ?    BHN  e S      ? 20230914 1632   10.0394 GAU  1.07e-03 -1.00e+00  4.13e+01 -1.00e+00    1.0000 >    1.6420    0.0007    1.2094  736.8800 9820.8540   -1.3350    3.1149 324.16 324.2 113.4 10     0.0000    0.0328
ML13         ?    BHZ  e P      c 20230914 1632    9.3765 GAU  2.89e-03 -1.00e+00 -1.00e+00 -1.00e+00    1.0000 >    1.0296   -0.0498    0.6840  737.1780 9821.5410   -1.2220    3.5561 334.59 334.6 110.6 10     0.0000    0.0206
ML13         ?    BHE  e S      ? 20230914 1632   10.1770 GAU  1.09e-03 -1.00e+00 -1.00e+00 -1.00e+00    1.0000 >    1.8000   -0.0197    1.0962  737.1780 9821.5410   -1.2220    3.5561 334.59 334.6 108.1 10     0.0000    0.0360
ML10         ?    BHZ  e P      c 20230914 1632    9.4368 GAU  3.54e-03 -1.00e+00 -1.00e+00 -1.00e+00    1.0000 >    1.0698   -0.0297    1.0931  736.5490 9821.3650   -1.2200    3.7231 324.64 324.6 109.6 10     0.0000    0.0214
ML10         ?    BHE  e S      ? 20230914 1632   10.2223 GAU  1.51e-03 -1.00e+00  1.37e+02 -1.00e+00    1.0000 >    1.8704   -0.0448    0.8099  736.5490 9821.3650   -1.2200    3.7231 324.64 324.6 106.9 10     0.0000    0.0374
ML05         ?    BHZ  e P      c 20230914 1632    9.7137 GAU  7.26e-04 -1.00e+00 -1.00e+00 -1.00e+00    1.0000 >    1.2473    0.0697    0.3784  736.2660 9822.0830   -1.1500    4.4762 327.00 327.0 105.1 10     0.0000    0.0249
ML05         ?    BHN  e S      ? 20230914 1632   10.6609 GAU  1.64e-03 -1.00e+00  2.96e+02 -1.00e+00    1.0000 >    2.1813    0.0829    0.4133  736.2660 9822.0830   -1.1500    4.4762 327.00 327.0 101.8 10     0.0000    0.0436
ML07         ?    BHZ  e P      d 20230914 1632    9.6712 GAU  9.94e-04 -1.00e+00  8.63e+02 -1.00e+00    1.0000 >    1.2861   -0.0116    1.2986  737.4430 9822.8030   -1.1120    4.6484 344.26 344.3 104.2 10     0.0000    0.0257
ML07         ?    BHN  e S      ? 20230914 1632   10.6413 GAU  1.97e-03 -1.00e+00 -1.00e+00 -1.00e+00    1.0000 >    2.2495   -0.0049    1.0366  737.4430 9822.8030   -1.1120    4.6484 344.26 344.3 100.6 10     0.0000    0.0450
ML01         ?    BHZ  i P      c 20230914 1632    9.7334 GAU  7.41e-04 -1.00e+00 -1.00e+00 -1.00e+00    1.0000 >    1.3183    0.0184    1.1643  736.4090 9822.5140   -1.1200    4.7730 331.26 331.3 103.8 10     0.0000    0.0264
ML01         ?    BHN  e S      ? 20230914 1632   10.7160 GAU  1.62e-03 -1.00e+00  1.73e+03 -1.00e+00    1.0000 >    2.3054    0.0138    0.9912  736.4090 9822.5140   -1.1200    4.7730 331.26 331.3 100.2 10     0.0000    0.0461
ML12         ?    BHZ  i P      d 20230914 1632    9.8346 GAU  2.32e-03 -1.00e+00  4.88e+02 -1.00e+00    1.0000 >    1.4577   -0.0197    1.1799  736.8520 9823.3800   -0.9890    5.3799 339.87 339.9 101.0 10     0.0000    0.0292
ML12         ?    BHE  e S      ? 20230914 1632   10.9514 GAU  1.86e-03 -1.00e+00 -1.00e+00 -1.00e+00    1.0000 >    2.5449    0.0098    0.9538  736.8520 9823.3800   -0.9890    5.3799 339.87 339.9  67.5  9     0.0000    0.0509
END_PHASE
END_NLLOC

