NLLOC "./loc/SEML.20230921.032845.grid0" "LOCATED" "Location completed."
PUBLIC_ID None
SIGNATURE "Arham Zakki Edelo - edelo.17034@mhs.its.ac.id   obs:./obs/2023_09.obs   NLLoc:v7.00.10(30Aug2020)   run:22Jan2024 21h55m21"
COMMENT "SEML"
GRID  2001 2001 1001  727 9811 -2  0.01 0.01 0.01 PROB_DENSITY
SEARCH OCTREE nInitial 4851 nEvaluated 20019 smallestNodeSide 0.014881/0.014881/0.014205 oct_tree_integral 4.975871e-02 scatter_volume 4.975871e-02
HYPOCENTER  x 738.689 y 9818.48 z 0.43608  OT 44.7469  ix -1 iy -1 iz -1 MAXIMUM_LIKELIHOOD
GEOGRAPHIC  OT 2023 09 21  03 28 44.746861  Lat 9818.477679 Long 738.688988 Depth 0.436080
QUALITY  Pmax 1.22887e+73 MFmin 81.78 MFmax 99.9472 RMS 0.0408996 Nphs 22 Gap 300.224 Dist 0.743212 Mamp -9.90 0 Mdur -9.90 0
VPVSRATIO  VpVsRatio 1.69731  Npair 11  Diff 0.560753
STATISTICS  ExpectX 738.671487 Y 9818.477653 Z 0.531058  CovXX 0.0349422 XY -0.0160221 XZ -0.0161822 YY 0.0293357 YZ -0.000924803 ZZ 0.0380425 EllAz1  48.3772 Dip1  24.899 Len1  0.193963 Az2  164.888 Dip2  43.8798 Len2  0.3494 Len3  4.488750e-01
STAT_GEOG  ExpectLat 9818.477653 Long 738.671487 Depth 0.531058
TRANSFORM  NONE
QML_OriginQuality  assocPhCt 22  usedPhCt 22  assocStaCt -1  usedStaCt 11  depthPhCt -1  stdErr 0.0408996  azGap 300.224  secAzGap 300.224  gtLevel -  minDist 0.743212 maxDist 5.2352 medDist 2.63399
QML_OriginUncertainty  horUnc -1  minHorUnc 0.191073  maxHorUnc 0.333662  azMaxHorUnc 130.038
QML_ConfidenceEllipsoid  semiMajorAxisLength 0.448875  semiMinorAxisLength 0.193963  semiIntermediateAxisLength 0.3494  majorAxisPlunge -35.8068  majorAxisAzimuth 118.814  majorAxisRotation 117.443
FOCALMECH  Hyp  9818.477679 738.688988 0.436080 Mech  0 0 0 mf  0 nObs -1
PHASE ID Ins Cmp On Pha  FM Date     HrMn   Sec     Err  ErrMag    Coda      Amp       Per       PriorWt  >   TTpred    Res       Weight    StaLoc(X  Y         Z)        SDist    SAzim  RAz  RDip RQual    Tcorr       TTerr
ML06         ?    BHZ  i P      d 20230921 0328   45.4111 GAU  1.16e-03 -1.00e+00  3.47e+02 -1.00e+00    1.0000 >    0.5262    0.1381    0.1713  738.3100 9819.1170   -1.3960    0.7432 329.34 329.3 157.3 10     0.0000    0.0105
ML06         ?    BHN  i S      ? 20230921 0328   45.9316 GAU  1.12e-03 -1.00e+00  1.73e+01 -1.00e+00    1.0000 >    0.9178    0.2669    0.0022  738.3100 9819.1170   -1.3960    0.7432 329.34 329.3 157.0 10     0.0000    0.0184
ML04         ?    BHZ  e P      d 20230921 0328   45.5053 GAU  6.47e-04 -1.00e+00  2.45e+03 -1.00e+00    1.0000 >    0.7069    0.0515    1.1896  737.1400 9819.2520   -1.5710    1.7317 296.56 296.6 137.8 10     0.0000    0.0141
ML04         ?    BHN  e S      ? 20230921 0328   46.0219 GAU  2.35e-03 -1.00e+00  8.50e+02 -1.00e+00    1.0000 >    1.2320    0.0431    1.2694  737.1400 9819.2520   -1.5710    1.7317 296.56 296.6 137.1 10     0.0000    0.0246
ML14         ?    BHZ  e P      c 20230921 0328   45.4508 GAU  1.93e-03 -1.00e+00 -1.00e+00 -1.00e+00    1.0000 >    0.7037    0.0003    1.4332  737.5530 9820.0110   -1.3980    1.9083 323.47 323.5 132.2 10     0.0000    0.0141
ML14         ?    BHE  e S      ? 20230921 0328   45.9441 GAU  2.93e-03 -1.00e+00  4.90e+02 -1.00e+00    1.0000 >    1.2275   -0.0302    1.0833  737.5530 9820.0110   -1.3980    1.9083 323.47 323.5 131.2 10     0.0000    0.0245
ML11         ?    BHZ  i P      d 20230921 0328   45.4668 GAU  1.12e-03 -1.00e+00 -1.00e+00 -1.00e+00    1.0000 >    0.7100    0.0099    1.4037  738.4670 9820.4900   -1.3120    2.0245 353.70 353.7 128.9 10     0.0000    0.0142
ML11         ?    BHE  i S      ? 20230921 0328   46.0401 GAU  1.40e-03 -1.00e+00  9.72e+00 -1.00e+00    1.0000 >    1.2392    0.0540    1.1356  738.4670 9820.4900   -1.3120    2.0245 353.70 353.7 127.9 10     0.0000    0.0248
ML02         ?    BHZ  e P      d 20230921 0328   45.5306 GAU  3.74e-04 -1.00e+00 -1.00e+00 -1.00e+00    1.0000 >    0.7976   -0.0139    1.3524  736.5970 9819.4060   -1.4960    2.2887 293.93 293.9 128.1 10     0.0000    0.0160
ML02         ?    BHE  e S      ? 20230921 0328   46.1780 GAU  6.41e-04 -1.00e+00  3.44e+03 -1.00e+00    1.0000 >    1.3906    0.0405    1.2830  736.5970 9819.4060   -1.4960    2.2887 293.93 293.9 127.0 10     0.0000    0.0278
ML09         ?    BHZ  i P      d 20230921 0328   45.5606 GAU  1.88e-03 -1.00e+00  2.59e+02 -1.00e+00    1.0000 >    0.8323   -0.0186    1.2886  737.8820 9820.9850   -1.2700    2.6340 342.16 342.2 120.7 10     0.0000    0.0166
ML09         ?    BHN  e S      ? 20230921 0328   46.1982 GAU  2.03e-03 -1.00e+00  5.57e+02 -1.00e+00    1.0000 >    1.4531   -0.0018    1.3805  737.8820 9820.9850   -1.2700    2.6340 342.16 342.2 119.2 10     0.0000    0.0291
ML13         ?    BHZ  i P      c 20230921 0328   45.7148 GAU  6.29e-04 -1.00e+00 -1.00e+00 -1.00e+00    1.0000 >    1.0055   -0.0375    0.9338  737.1780 9821.5410   -1.2220    3.4157 333.75 333.7 113.3 10     0.0000    0.0201
ML13         ?    BHE  i S      ? 20230921 0328   46.3930 GAU  4.68e-04 -1.00e+00 -1.00e+00 -1.00e+00    1.0000 >    1.7560   -0.1099    0.1292  737.1780 9821.5410   -1.2220    3.4157 333.75 333.7 111.2 10     0.0000    0.0351
ML10         ?    BHZ  i P      d 20230921 0328   45.8545 GAU  5.45e-04 -1.00e+00  3.88e+02 -1.00e+00    1.0000 >    1.0477    0.0599    1.0512  736.5490 9821.3650   -1.2200    3.5939 323.46 323.5 112.0 10     0.0000    0.0210
ML10         ?    BHE  e S      ? 20230921 0328   46.7278 GAU  1.14e-03 -1.00e+00 -1.00e+00 -1.00e+00    1.0000 >    1.8298    0.1511    0.2111  736.5490 9821.3650   -1.2200    3.5939 323.46 323.5 109.8 10     0.0000    0.0366
ML05         ?    BHZ  i P      c 20230921 0328   45.9281 GAU  9.61e-04 -1.00e+00 -1.00e+00 -1.00e+00    1.0000 >    1.2216   -0.0404    0.8949  736.2660 9822.0830   -1.1500    4.3439 326.10 326.1 107.2 10     0.0000    0.0244
ML05         ?    BHN  e S      ? 20230921 0328   46.8527 GAU  7.94e-04 -1.00e+00  2.75e+02 -1.00e+00    1.0000 >    2.1340   -0.0282    1.0458  736.2660 9822.0830   -1.1500    4.3439 326.10 326.1 104.4 10     0.0000    0.0427
ML07         ?    BHZ  i P      d 20230921 0328   46.0322 GAU  3.73e-04 -1.00e+00 -1.00e+00 -1.00e+00    1.0000 >    1.2561    0.0292    1.3801  737.4430 9822.8030   -1.1120    4.5012 343.93 343.9 106.2 10     0.0000    0.0251
ML07         ?    BHN  i S      ? 20230921 0328   47.0104 GAU  4.99e-04 -1.00e+00  8.22e-01 -1.00e+00    1.0000 >    2.1946    0.0689    0.9222  737.4430 9822.8030   -1.1120    4.5012 343.93 343.9  95.5  9     0.0000    0.0439
ML12         ?    BHZ  i P      c 20230921 0328   46.2073 GAU  7.76e-04 -1.00e+00 -1.00e+00 -1.00e+00    1.0000 >    1.4263    0.0341    1.3346  736.8520 9823.3800   -0.9890    5.2352 339.46 339.5 102.7 10     0.0000    0.0285
ML12         ?    BHE  i S      ? 20230921 0328   47.2613 GAU  6.94e-04 -1.00e+00  1.93e+02 -1.00e+00    1.0000 >    2.4685    0.0459    1.1043  736.8520 9823.3800   -0.9890    5.2352 339.46 339.5  67.2 10     0.0000    0.0494
END_PHASE
END_NLLOC

