NLLOC "./loc/SEML.20230914.162425.grid0" "LOCATED" "Location completed."
PUBLIC_ID None
SIGNATURE "Arham Zakki Edelo - edelo.17034@mhs.its.ac.id   obs:./obs/2023_09.obs   NLLoc:v7.00.10(30Aug2020)   run:22Jan2024 21h54m11"
COMMENT "SEML"
GRID  2001 2001 1001  727 9811 -2  0.01 0.01 0.01 PROB_DENSITY
SEARCH OCTREE nInitial 4851 nEvaluated 20011 smallestNodeSide 0.007440/0.007440/0.007102 oct_tree_integral 4.214107e-03 scatter_volume 4.214107e-03
HYPOCENTER  x 738.016 y 9818.69 z 0.382812  OT 25.4139  ix -1 iy -1 iz -1 MAXIMUM_LIKELIHOOD
GEOGRAPHIC  OT 2023 09 14  16 24 25.413854  Lat 9818.689732 Long 738.015625 Depth 0.382812
QUALITY  Pmax 1.11887e+77 MFmin 86.6384 MFmax 97.2179 RMS 0.0279038 Nphs 22 Gap 262.224 Dist 0.518859 Mamp -9.90 0 Mdur -9.90 0
VPVSRATIO  VpVsRatio 1.77088  Npair 11  Diff 0.592695
STATISTICS  ExpectX 738.038332 Y 9818.656051 Z 0.373554  CovXX 0.00585794 XY -0.00231906 XZ -0.00262611 YY 0.00698364 YZ 0.000326657 ZZ 0.00583752 EllAz1  64.3539 Dip1  35.2396 Len1  0.0973835 Az2  193.064 Dip2  41.5166 Len2  0.147325 Len3  1.864107e-01
STAT_GEOG  ExpectLat 9818.656051 Long 738.038332 Depth 0.373554
TRANSFORM  NONE
QML_OriginQuality  assocPhCt 22  usedPhCt 22  assocStaCt -1  usedStaCt 11  depthPhCt -1  stdErr 0.0279038  azGap 262.224  secAzGap 262.224  gtLevel -  minDist 0.518859 maxDist 4.83246 medDist 2.29915
QML_OriginUncertainty  horUnc -1  minHorUnc 0.0963282  maxHorUnc 0.142325  azMaxHorUnc 141.821
QML_ConfidenceEllipsoid  semiMajorAxisLength 0.186411  semiMinorAxisLength 0.0973835  semiIntermediateAxisLength 0.147325  majorAxisPlunge -28.5028  majorAxisAzimuth 131.796  majorAxisRotation 122.029
FOCALMECH  Hyp  9818.689732 738.015625 0.382812 Mech  0 0 0 mf  0 nObs -1
PHASE ID Ins Cmp On Pha  FM Date     HrMn   Sec     Err  ErrMag    Coda      Amp       Per       PriorWt  >   TTpred    Res       Weight    StaLoc(X  Y         Z)        SDist    SAzim  RAz  RDip RQual    Tcorr       TTerr
ML06         ?    BHZ  i P      c 20230914 1624   25.9161 GAU  7.19e-04 -1.00e+00 -1.00e+00 -1.00e+00    1.0000 >    0.4936    0.0086    1.6073  738.3100 9819.1170   -1.3960    0.5189  34.57  34.6 163.2 10     0.0000    0.0099
ML06         ?    BHN  e S      ? 20230914 1624   26.4334 GAU  1.29e-03 -1.00e+00 -1.00e+00 -1.00e+00    1.0000 >    0.8613    0.1583    0.1156  738.3100 9819.1170   -1.3960    0.5189  34.57  34.6 163.0 10     0.0000    0.0172
ML04         ?    BHZ  i P      d 20230914 1624   26.0236 GAU  6.86e-04 -1.00e+00  1.49e+03 -1.00e+00    1.0000 >    0.5912    0.0186    1.2553  737.1400 9819.2520   -1.5710    1.0406 302.71 302.7 151.0 10     0.0000    0.0118
ML04         ?    BHE  e S      ? 20230914 1624   26.4410 GAU  7.96e-04 -1.00e+00  1.32e+02 -1.00e+00    1.0000 >    1.0305   -0.0033    1.4524  737.1400 9819.2520   -1.5710    1.0406 302.71 302.7 150.6 10     0.0000    0.0206
ML14         ?    BHZ  i P      c 20230914 1624   26.0171 GAU  8.62e-04 -1.00e+00  1.83e+02 -1.00e+00    1.0000 >    0.6030    0.0002    1.6960  737.5530 9820.0110   -1.3980    1.3999 340.70 340.7 140.7 10     0.0000    0.0121
ML14         ?    BHE  e S      ? 20230914 1624   26.4578 GAU  1.56e-03 -1.00e+00  2.74e+02 -1.00e+00    1.0000 >    1.0523   -0.0084    1.3869  737.5530 9820.0110   -1.3980    1.3999 340.70 340.7 140.0 10     0.0000    0.0210
ML02         ?    BHZ  e P      c 20230914 1624   26.0659 GAU  6.24e-04 -1.00e+00 -1.00e+00 -1.00e+00    1.0000 >    0.6561   -0.0040    1.6482  736.5970 9819.4060   -1.4960    1.5892 296.79 296.8 138.4 10     0.0000    0.0131
ML02         ?    BHN  i S      ? 20230914 1624   26.5570 GAU  3.51e-04 -1.00e+00 -1.00e+00 -1.00e+00    1.0000 >    1.1442   -0.0010    1.4013  736.5970 9819.4060   -1.4960    1.5892 296.79 296.8 137.7 10     0.0000    0.0229
ML11         ?    BHZ  i P      c 20230914 1624   26.0728 GAU  5.62e-04 -1.00e+00 -1.00e+00 -1.00e+00    1.0000 >    0.6677   -0.0088    1.5580  738.4670 9820.4900   -1.3120    1.8560  14.08  14.1 130.6 10     0.0000    0.0134
ML11         ?    BHN  e S      ? 20230914 1624   26.5848 GAU  1.53e-03 -1.00e+00 -1.00e+00 -1.00e+00    1.0000 >    1.1659    0.0050    1.3823  738.4670 9820.4900   -1.3120    1.8560  14.08  14.1 129.5 10     0.0000    0.0233
ML09         ?    BHZ  i P      c 20230914 1624   26.1526 GAU  5.24e-04 -1.00e+00 -1.00e+00 -1.00e+00    1.0000 >    0.7516   -0.0129    1.4200  737.8820 9820.9850   -1.2700    2.2992 356.67 356.7 123.6 10     0.0000    0.0150
ML09         ?    BHN  e S      ? 20230914 1624   26.7905 GAU  6.74e-04 -1.00e+00  3.87e+02 -1.00e+00    1.0000 >    1.3129    0.0637    0.4884  737.8820 9820.9850   -1.2700    2.2992 356.67 356.7 122.2 10     0.0000    0.0263
ML13         ?    BHZ  i P      c 20230914 1624   26.2908 GAU  5.99e-04 -1.00e+00 -1.00e+00 -1.00e+00    1.0000 >    0.8954   -0.0184    1.2169  737.1780 9821.5410   -1.2220    2.9718 343.63 343.6 115.8 10     0.0000    0.0179
ML13         ?    BHN  e S      ? 20230914 1624   27.0067 GAU  3.03e-04 -1.00e+00 -1.00e+00 -1.00e+00    1.0000 >    1.5646    0.0282    1.0075  737.1780 9821.5410   -1.2220    2.9718 343.63 343.6 113.8 10     0.0000    0.0313
ML10         ?    BHZ  e P      d 20230914 1624   26.4235 GAU  3.17e-03 -1.00e+00  2.06e+03 -1.00e+00    1.0000 >    0.9136    0.0961    0.2901  736.5490 9821.3650   -1.2200    3.0509 331.27 331.3 115.1 10     0.0000    0.0183
ML10         ?    BHN  e S      ? 20230914 1624   27.1983 GAU  1.42e-03 -1.00e+00 -1.00e+00 -1.00e+00    1.0000 >    1.5964    0.1880    0.1189  736.5490 9821.3650   -1.2200    3.0509 331.27 331.3 113.1 10     0.0000    0.0319
ML05         ?    BHZ  e P      c 20230914 1624   26.6112 GAU  1.34e-03 -1.00e+00  4.00e+02 -1.00e+00    1.0000 >    1.0881    0.1092    0.2583  736.2660 9822.0830   -1.1500    3.8178 332.72 332.7 109.0 10     0.0000    0.0218
ML05         ?    BHN  e S      ? 20230914 1624   27.5609 GAU  3.76e-04 -1.00e+00  2.41e+02 -1.00e+00    1.0000 >    1.9022    0.2449    0.0446  736.2660 9822.0830   -1.1500    3.8178 332.72 332.7 106.3 10     0.0000    0.0380
ML07         ?    BHZ  e P      d 20230914 1624   26.5611 GAU  2.40e-03 -1.00e+00 -1.00e+00 -1.00e+00    1.0000 >    1.1659   -0.0187    1.1437  737.4430 9822.8030   -1.1120    4.1529 352.07 352.1 106.9 10     0.0000    0.0233
ML07         ?    BHE  e S      ? 20230914 1624   27.5033 GAU  9.50e-04 -1.00e+00 -1.00e+00 -1.00e+00    1.0000 >    2.0386    0.0508    0.7411  737.4430 9822.8030   -1.1120    4.1529 352.07 352.1 103.9 10     0.0000    0.0408
ML12         ?    BHZ  e P      c 20230914 1624   26.7645 GAU  3.74e-04 -1.00e+00 -1.00e+00 -1.00e+00    1.0000 >    1.3218    0.0289    1.0109  736.8520 9823.3800   -0.9890    4.8325 346.07 346.1 103.2 10     0.0000    0.0264
ML12         ?    BHE  e S      ? 20230914 1624   27.7747 GAU  9.88e-04 -1.00e+00  2.31e+01 -1.00e+00    1.0000 >    2.3115    0.0493    0.7565  736.8520 9823.3800   -0.9890    4.8325 346.07 346.1  88.7  8     0.0000    0.0462
END_PHASE
END_NLLOC

