NLLOC "./loc/SEML.20230921.184022.grid0" "LOCATED" "Location completed."
PUBLIC_ID None
SIGNATURE "Arham Zakki Edelo - edelo.17034@mhs.its.ac.id   obs:./obs/2023_09.obs   NLLoc:v7.00.10(30Aug2020)   run:22Jan2024 21h55m44"
COMMENT "SEML"
GRID  2001 2001 1001  727 9811 -2  0.01 0.01 0.01 PROB_DENSITY
SEARCH OCTREE nInitial 4851 nEvaluated 20011 smallestNodeSide 0.014881/0.014881/0.014205 oct_tree_integral 5.440336e-02 scatter_volume 5.437221e-02
HYPOCENTER  x 738.138 y 9817.54 z 0.634943  OT 21.6096  ix -1 iy -1 iz -1 MAXIMUM_LIKELIHOOD
GEOGRAPHIC  OT 2023 09 21  18 40 21.609643  Lat 9817.540179 Long 738.138393 Depth 0.634943
QUALITY  Pmax 1.44831e+65 MFmin 68.8119 MFmax 79.3175 RMS 0.0330128 Nphs 20 Gap 314.083 Dist 1.58613 Mamp -9.90 0 Mdur -9.90 0
VPVSRATIO  VpVsRatio 1.74806  Npair 10  Diff 0.623104
STATISTICS  ExpectX 738.061638 Y 9817.566329 Z 0.689980  CovXX 0.0441799 XY -0.00943798 XZ -0.0200763 YY 0.0231355 YZ 0.00442929 ZZ 0.0394111 EllAz1  37.173 Dip1  22.1075 Len1  0.253723 Az2  329.083 Dip2  -42.5707 Len2  0.291341 Len3  4.769583e-01
STAT_GEOG  ExpectLat 9817.566329 Long 738.061638 Depth 0.689980
TRANSFORM  NONE
QML_OriginQuality  assocPhCt 20  usedPhCt 20  assocStaCt -1  usedStaCt 10  depthPhCt -1  stdErr 0.0330128  azGap 314.083  secAzGap 314.083  gtLevel -  minDist 1.58613 maxDist 5.97983 medDist 3.21121
QML_OriginUncertainty  horUnc -1  minHorUnc 0.211903  maxHorUnc 0.331546  azMaxHorUnc 110.945
QML_ConfidenceEllipsoid  semiMajorAxisLength 0.476958  semiMinorAxisLength 0.253723  semiIntermediateAxisLength 0.291341  majorAxisPlunge -39.2732  majorAxisAzimuth 107.773  majorAxisRotation 109.644
FOCALMECH  Hyp  9817.540179 738.138393 0.634943 Mech  0 0 0 mf  0 nObs -1
PHASE ID Ins Cmp On Pha  FM Date     HrMn   Sec     Err  ErrMag    Coda      Amp       Per       PriorWt  >   TTpred    Res       Weight    StaLoc(X  Y         Z)        SDist    SAzim  RAz  RDip RQual    Tcorr       TTerr
ML06         ?    BHZ  i P      c 20230921 1840   22.3988 GAU  1.12e-03 -1.00e+00 -1.00e+00 -1.00e+00    1.0000 >    0.6830    0.1062    0.1159  738.3100 9819.1170   -1.3960    1.5861   6.21   6.2 140.6 10     0.0000    0.0137
ML06         ?    BHE  i S      ? 20230921 1840   22.9743 GAU  7.61e-04 -1.00e+00 -1.00e+00 -1.00e+00    1.0000 >    1.1844    0.1803    0.0217  738.3100 9819.1170   -1.3960    1.5861   6.21   6.2 136.7 10     0.0000    0.0237
ML04         ?    BHZ  e P      d 20230921 1840   22.3632 GAU  3.42e-03 -1.00e+00  1.22e+03 -1.00e+00    1.0000 >    0.7880   -0.0345    1.3486  737.1400 9819.2520   -1.5710    1.9817 329.75 329.7 136.2 10     0.0000    0.0158
ML04         ?    BHN  e S      ? 20230921 1840   22.9284 GAU  6.79e-04 -1.00e+00  7.23e+02 -1.00e+00    1.0000 >    1.3658   -0.0470    1.1359  737.1400 9819.2520   -1.5710    1.9817 329.75 329.7 131.7 10     0.0000    0.0273
ML02         ?    BHZ  e P      d 20230921 1840   22.4675 GAU  9.31e-04 -1.00e+00  4.51e+02 -1.00e+00    1.0000 >    0.8558    0.0021    1.5543  736.5970 9819.4060   -1.4960    2.4202 320.44 320.4 128.9 10     0.0000    0.0171
ML02         ?    BHE  e S      ? 20230921 1840   23.1140 GAU  1.42e-03 -1.00e+00 -1.00e+00 -1.00e+00    1.0000 >    1.4831    0.0213    1.1847  736.5970 9819.4060   -1.4960    2.4202 320.44 320.4 122.9 10     0.0000    0.0297
ML14         ?    BHZ  i P      c 20230921 1840   22.4819 GAU  3.76e-03 -1.00e+00 -1.00e+00 -1.00e+00    1.0000 >    0.8618    0.0105    1.4362  737.5530 9820.0110   -1.3980    2.5392 346.67 346.7 126.1 10     0.0000    0.0172
ML14         ?    BHE  e S      ? 20230921 1840   23.1208 GAU  1.84e-04 -1.00e+00  4.54e+02 -1.00e+00    1.0000 >    1.4936    0.0175    1.2439  737.5530 9820.0110   -1.3980    2.5392 346.67 346.7 119.4 10     0.0000    0.0299
ML11         ?    BHZ  i P      c 20230921 1840   22.5488 GAU  6.47e-04 -1.00e+00 -1.00e+00 -1.00e+00    1.0000 >    0.9389    0.0003    1.5609  738.4670 9820.4900   -1.3120    2.9681   6.36   6.4 120.3 10     0.0000    0.0188
ML11         ?    BHN  e S      ? 20230921 1840   23.2254 GAU  4.16e-04 -1.00e+00 -1.00e+00 -1.00e+00    1.0000 >    1.6267   -0.0109    1.4360  738.4670 9820.4900   -1.3120    2.9681   6.36   6.4 111.8 10     0.0000    0.0325
ML09         ?    BHZ  i P      c 20230921 1840   22.6183 GAU  9.88e-04 -1.00e+00  1.26e+02 -1.00e+00    1.0000 >    1.0423   -0.0336    1.3724  737.8820 9820.9850   -1.2700    3.4543 355.74 355.7 115.6 10     0.0000    0.0208
ML09         ?    BHN  e S      ? 20230921 1840   23.3633 GAU  1.61e-04 -1.00e+00  5.31e+02 -1.00e+00    1.0000 >    1.8045   -0.0508    1.0652  737.8820 9820.9850   -1.2700    3.4543 355.74 355.7 105.1 10     0.0000    0.0361
ML13         ?    BHZ  i P      c 20230921 1840   22.6741 GAU  6.24e-04 -1.00e+00 -1.00e+00 -1.00e+00    1.0000 >    1.1910   -0.1266    0.1238  737.1780 9821.5410   -1.2220    4.1145 346.50 346.5 110.5 10     0.0000    0.0238
ML13         ?    BHN  e S      ? 20230921 1840   23.4303 GAU  3.76e-04 -1.00e+00 -1.00e+00 -1.00e+00    1.0000 >    2.0577   -0.2370    0.0097  737.1780 9821.5410   -1.2220    4.1145 346.50 346.5  98.4  9     0.0000    0.0412
ML05         ?    BHZ  e P      c 20230921 1840   22.9351 GAU  7.19e-04 -1.00e+00  2.95e+01 -1.00e+00    1.0000 >    1.3763   -0.0508    1.0685  736.2660 9822.0830   -1.1500    4.9136 337.60 337.6 105.7 10     0.0000    0.0275
ML05         ?    BHN  e S      ? 20230921 1840   23.9126 GAU  1.11e-04 -1.00e+00  2.52e+02 -1.00e+00    1.0000 >    2.3660   -0.0631    0.8978  736.2660 9822.0830   -1.1500    4.9136 337.60 337.6  94.7  9     0.0000    0.0473
ML07         ?    BHZ  i P      d 20230921 1840   23.0673 GAU  4.99e-04 -1.00e+00 -1.00e+00 -1.00e+00    1.0000 >    1.4695   -0.0118    1.4805  737.4430 9822.8030   -1.1120    5.3086 352.47 352.5 103.8 10     0.0000    0.0294
ML07         ?    BHE  e S      ? 20230921 1840   24.1357 GAU  6.42e-04 -1.00e+00 -1.00e+00 -1.00e+00    1.0000 >    2.5185    0.0076    1.1473  737.4430 9822.8030   -1.1120    5.3086 352.47 352.5  93.8  9     0.0000    0.0504
ML12         ?    BHZ  i P      c 20230921 1840   23.2551 GAU  2.75e-03 -1.00e+00 -1.00e+00 -1.00e+00    1.0000 >    1.6237    0.0218    1.1643  736.8520 9823.3800   -0.9890    5.9798 347.58 347.6 100.7 10     0.0000    0.0325
ML12         ?    BHE  e S      ? 20230921 1840   24.4435 GAU  5.54e-04 -1.00e+00 -1.00e+00 -1.00e+00    1.0000 >    2.7642    0.0696    0.6324  736.8520 9823.3800   -0.9890    5.9798 347.58 347.6  92.8  9     0.0000    0.0553
END_PHASE
END_NLLOC

