NLLOC "./loc/SEML.20230921.034746.grid0" "LOCATED" "Location completed."
PUBLIC_ID None
SIGNATURE "Arham Zakki Edelo - edelo.17034@mhs.its.ac.id   obs:./obs/2023_09.obs   NLLoc:v7.00.10(30Aug2020)   run:22Jan2024 21h55m26"
COMMENT "SEML"
GRID  2001 2001 1001  727 9811 -2  0.01 0.01 0.01 PROB_DENSITY
SEARCH OCTREE nInitial 4851 nEvaluated 20019 smallestNodeSide 0.014881/0.014881/0.014205 oct_tree_integral 4.792812e-02 scatter_volume 4.792812e-02
HYPOCENTER  x 738.496 y 9818.34 z 0.492898  OT 45.4762  ix -1 iy -1 iz -1 MAXIMUM_LIKELIHOOD
GEOGRAPHIC  OT 2023 09 21  03 47 45.476231  Lat 9818.343750 Long 738.495536 Depth 0.492898
QUALITY  Pmax 1.09485e+29 MFmin 39.0344 MFmax 47.3321 RMS 0.00784434 Nphs 10 Gap 331.281 Dist 0.795197 Mamp -9.90 0 Mdur -9.90 0
VPVSRATIO  VpVsRatio 1.64821  Npair 5  Diff 0.232643
STATISTICS  ExpectX 739.000898 Y 9818.729239 Z 0.805577  CovXX 0.353717 XY 0.26546 XZ 0.194432 YY 0.227078 YZ 0.168809 ZZ 0.160395 EllAz1  153.035 Dip1  22.8187 Len1  0.20869 Az2  278.723 Dip2  54.1994 Len2  0.37694 Len3  1.559091e+00
STAT_GEOG  ExpectLat 9818.729239 Long 739.000898 Depth 0.805577
TRANSFORM  NONE
QML_OriginQuality  assocPhCt 10  usedPhCt 10  assocStaCt -1  usedStaCt 5  depthPhCt -1  stdErr 0.00784434  azGap 331.281  secAzGap 331.281  gtLevel -  minDist 0.795197 maxDist 3.45808 medDist 2.14644
QML_OriginUncertainty  horUnc -1  minHorUnc 0.200569  maxHorUnc 1.13824  azMaxHorUnc 51.7079
QML_ConfidenceEllipsoid  semiMajorAxisLength 1.55909  semiMinorAxisLength 0.20869  semiIntermediateAxisLength 0.37694  majorAxisPlunge 25.9719  majorAxisAzimuth 51.2085  majorAxisRotation 37.8003
FOCALMECH  Hyp  9818.343750 738.495536 0.492898 Mech  0 0 0 mf  0 nObs -1
PHASE ID Ins Cmp On Pha  FM Date     HrMn   Sec     Err  ErrMag    Coda      Amp       Per       PriorWt  >   TTpred    Res       Weight    StaLoc(X  Y         Z)        SDist    SAzim  RAz  RDip RQual    Tcorr       TTerr
ML06         ?    BHZ  i P      d 20230921 0347   46.1823 GAU  2.60e-04 -1.00e+00 -1.00e+00 -1.00e+00    1.0000 >    0.5450    0.1611    0.0000  738.3100 9819.1170   -1.3960    0.7952 346.51 346.5 156.5 10     0.0000    0.0109
ML06         ?    BHN  i S      ? 20230921 0347   46.7423 GAU  2.24e-03 -1.00e+00 -1.00e+00 -1.00e+00    1.0000 >    0.9502    0.3158    0.0000  738.3100 9819.1170   -1.3960    0.7952 346.51 346.5 155.9  9     0.0000    0.0190
ML14         ?    BHZ  e P      c 20230921 0347   46.1947 GAU  2.61e-03 -1.00e+00 -1.00e+00 -1.00e+00    1.0000 >    0.7150    0.0035    1.4785  737.5530 9820.0110   -1.3980    1.9152 330.52 330.5 133.0 10     0.0000    0.0143
ML14         ?    BHE  e S      ? 20230921 0347   46.7198 GAU  7.76e-04 -1.00e+00  4.30e+02 -1.00e+00    1.0000 >    1.2466   -0.0030    1.2404  737.5530 9820.0110   -1.3980    1.9152 330.52 330.5 131.5  9     0.0000    0.0249
ML11         ?    BHZ  e P      c 20230921 0347   46.2180 GAU  5.62e-04 -1.00e+00 -1.00e+00 -1.00e+00    1.0000 >    0.7438   -0.0020    1.4798  738.4670 9820.4900   -1.3120    2.1464 359.24 359.2 128.1 10     0.0000    0.0149
ML11         ?    BHN  e S      ? 20230921 0347   46.7874 GAU  1.56e-03 -1.00e+00 -1.00e+00 -1.00e+00    1.0000 >    1.2976    0.0136    1.1279  738.4670 9820.4900   -1.3120    2.1464 359.24 359.2 126.2  9     0.0000    0.0260
ML09         ?    BHZ  e P      c 20230921 0347   46.3217 GAU  3.84e-04 -1.00e+00  4.76e+01 -1.00e+00    1.0000 >    0.8570   -0.0116    1.2906  737.8820 9820.9850   -1.2700    2.7116 346.92 346.9 120.7 10     0.0000    0.0171
ML09         ?    BHE  e S      ? 20230921 0347   46.9630 GAU  5.65e-04 -1.00e+00  3.61e+02 -1.00e+00    1.0000 >    1.4955   -0.0087    1.0956  737.8820 9820.9850   -1.2700    2.7116 346.92 346.9 118.1  9     0.0000    0.0299
ML13         ?    BHZ  e P      c 20230921 0347   46.5077 GAU  5.30e-04 -1.00e+00 -1.00e+00 -1.00e+00    1.0000 >    1.0214    0.0101    1.2802  737.1780 9821.5410   -1.2220    3.4581 337.60 337.6 113.7  9     0.0000    0.0204
ML13         ?    BHN  e S      ? 20230921 0347   47.2655 GAU  2.24e-04 -1.00e+00 -1.00e+00 -1.00e+00    1.0000 >    1.7828    0.0064    1.0069  737.1780 9821.5410   -1.2220    3.4581 337.60 337.6 108.8  8     0.0000    0.0357
END_PHASE
END_NLLOC

