NLLOC "./loc/SEML.20230914.162847.grid0" "LOCATED" "Location completed."
PUBLIC_ID None
SIGNATURE "Arham Zakki Edelo - edelo.17034@mhs.its.ac.id   obs:./obs/2023_09.obs   NLLoc:v7.00.10(30Aug2020)   run:22Jan2024 21h54m35"
COMMENT "SEML"
GRID  2001 2001 1001  727 9811 -2  0.01 0.01 0.01 PROB_DENSITY
SEARCH OCTREE nInitial 4851 nEvaluated 20019 smallestNodeSide 0.014881/0.014881/0.014205 oct_tree_integral 3.768785e-02 scatter_volume 3.768785e-02
HYPOCENTER  x 737.29 y 9818.31 z 0.705966  OT 47.2606  ix -1 iy -1 iz -1 MAXIMUM_LIKELIHOOD
GEOGRAPHIC  OT 2023 09 14  16 28 47.260618  Lat 9818.313988 Long 737.290179 Depth 0.705966
QUALITY  Pmax 7.22863e+38 MFmin 51.6908 MFmax 62.2899 RMS 0.0356366 Nphs 14 Gap 299.121 Dist 0.949958 Mamp -9.90 0 Mdur -9.90 0
VPVSRATIO  VpVsRatio 1.72885  Npair 7  Diff 0.954437
STATISTICS  ExpectX 737.370977 Y 9818.377304 Z 0.683938  CovXX 0.0776483 XY -0.0123263 XZ -0.0425106 YY 0.0201567 YZ 0.0083001 ZZ 0.0491369 EllAz1  21.435 Dip1  13.8742 Len1  0.248687 Az2  309.474 Dip2  -51.4234 Len2  0.257302 Len3  6.250246e-01
STAT_GEOG  ExpectLat 9818.377304 Long 737.370977 Depth 0.683938
TRANSFORM  NONE
QML_OriginQuality  assocPhCt 14  usedPhCt 14  assocStaCt -1  usedStaCt 7  depthPhCt -1  stdErr 0.0356366  azGap 299.121  secAzGap 299.121  gtLevel -  minDist 0.949958 maxDist 5.08493 medDist 2.47385
QML_OriginUncertainty  horUnc -1  minHorUnc 0.201342  maxHorUnc 0.429434  azMaxHorUnc 101.605
QML_ConfidenceEllipsoid  semiMajorAxisLength 0.625025  semiMinorAxisLength 0.248687  semiIntermediateAxisLength 0.257302  majorAxisPlunge -35.1424  majorAxisAzimuth 101.422  majorAxisRotation 137.722
FOCALMECH  Hyp  9818.313988 737.290179 0.705966 Mech  0 0 0 mf  0 nObs -1
PHASE ID Ins Cmp On Pha  FM Date     HrMn   Sec     Err  ErrMag    Coda      Amp       Per       PriorWt  >   TTpred    Res       Weight    StaLoc(X  Y         Z)        SDist    SAzim  RAz  RDip RQual    Tcorr       TTerr
ML04         ?    BHZ  e P      c 20230914 1628   47.9204 GAU  5.99e-04 -1.00e+00 -1.00e+00 -1.00e+00    1.0000 >    0.6553    0.0044    1.9235  737.1400 9819.2520   -1.5710    0.9500 350.90 350.9 156.5 10     0.0000    0.0131
ML04         ?    BHN  e S      ? 20230914 1628   48.3855 GAU  5.62e-04 -1.00e+00  7.39e+02 -1.00e+00    1.0000 >    1.1335   -0.0085    1.8023  737.1400 9819.2520   -1.5710    0.9500 350.90 350.9 154.6 10     0.0000    0.0227
ML06         ?    BHZ  i P      c 20230914 1628   47.9049 GAU  1.24e-03 -1.00e+00 -1.00e+00 -1.00e+00    1.0000 >    0.6542   -0.0099    1.8291  738.3100 9819.1170   -1.3960    1.2980  51.78  51.8 147.2 10     0.0000    0.0131
ML06         ?    BHN  e S      ? 20230914 1628   48.4083 GAU  6.24e-04 -1.00e+00 -1.00e+00 -1.00e+00    1.0000 >    1.1317    0.0160    1.4991  738.3100 9819.1170   -1.3960    1.2980  51.78  51.8 144.3 10     0.0000    0.0226
ML14         ?    BHZ  e P      d 20230914 1628   47.9104 GAU  1.56e-03 -1.00e+00  3.55e+02 -1.00e+00    1.0000 >    0.7189   -0.0691    0.9105  737.5530 9820.0110   -1.3980    1.7172   8.80   8.8 139.3 10     0.0000    0.0144
ML14         ?    BHN  e S      ? 20230914 1628   48.4327 GAU  4.33e-04 -1.00e+00  3.81e+02 -1.00e+00    1.0000 >    1.2434   -0.0713    0.9770  737.5530 9820.0110   -1.3980    1.7172   8.80   8.8 135.4 10     0.0000    0.0249
ML11         ?    BHZ  e P      c 20230914 1628   48.0602 GAU  4.83e-03 -1.00e+00 -1.00e+00 -1.00e+00    1.0000 >    0.8435   -0.0439    1.1371  738.4670 9820.4900   -1.3120    2.4739  28.41  28.4 126.9 10     0.0000    0.0169
ML11         ?    BHN  e S      ? 20230914 1628   48.6219 GAU  6.70e-04 -1.00e+00 -1.00e+00 -1.00e+00    1.0000 >    1.4580   -0.0968    0.5810  738.4670 9820.4900   -1.3120    2.4739  28.41  28.4 120.7 10     0.0000    0.0292
ML09         ?    BHZ  e P      c 20230914 1628   48.1635 GAU  1.71e-03 -1.00e+00  1.09e+02 -1.00e+00    1.0000 >    0.8909    0.0120    1.6781  737.8820 9820.9850   -1.2700    2.7358  12.49  12.5 123.3 10     0.0000    0.0178
ML09         ?    BHN  e S      ? 20230914 1628   48.7985 GAU  2.47e-04 -1.00e+00  4.77e+02 -1.00e+00    1.0000 >    1.5395   -0.0016    1.6484  737.8820 9820.9850   -1.2700    2.7358  12.49  12.5 116.3 10     0.0000    0.0308
ML07         ?    BHZ  e P      c 20230914 1628   48.7443 GAU  2.97e-04 -1.00e+00 -1.00e+00 -1.00e+00    1.0000 >    1.2738    0.2100    0.0000  737.4430 9822.8030   -1.1120    4.4916   1.95   1.9 108.5 10     0.0000    0.0255
ML07         ?    BHN  e S      ? 20230914 1628   49.8782 GAU  1.89e-04 -1.00e+00 -1.00e+00 -1.00e+00    1.0000 >    2.1882    0.4294    0.0070  737.4430 9822.8030   -1.1120    4.4916   1.95   1.9  98.1 10     0.0000    0.0438
ML12         ?    BHZ  e P      c 20230914 1628   49.2290 GAU  1.16e-03 -1.00e+00 -1.00e+00 -1.00e+00    1.0000 >    1.4043    0.5641    0.0070  736.8520 9823.3800   -0.9890    5.0849 355.06 355.1 104.7 10     0.0000    0.0281
ML12         ?    BHN  e S      ? 20230914 1628   50.6486 GAU  3.35e-04 -1.00e+00 -1.00e+00 -1.00e+00    1.0000 >    2.4004    0.9876    0.0000  736.8520 9823.3800   -0.9890    5.0849 355.06 355.1  95.5 10     0.0000    0.0480
END_PHASE
END_NLLOC

