NLLOC "./loc/SEML.20230921.034736.grid0" "LOCATED" "Location completed."
PUBLIC_ID None
SIGNATURE "Arham Zakki Edelo - edelo.17034@mhs.its.ac.id   obs:./obs/2023_09.obs   NLLoc:v7.00.10(30Aug2020)   run:22Jan2024 21h55m26"
COMMENT "SEML"
GRID  2001 2001 1001  727 9811 -2  0.01 0.01 0.01 PROB_DENSITY
SEARCH OCTREE nInitial 4851 nEvaluated 20003 smallestNodeSide 0.014881/0.014881/0.014205 oct_tree_integral 4.566572e-02 scatter_volume 4.543063e-02
HYPOCENTER  x 738.689 y 9818.51 z 0.833807  OT 35.9022  ix -1 iy -1 iz -1 MAXIMUM_LIKELIHOOD
GEOGRAPHIC  OT 2023 09 21  03 47 35.902162  Lat 9818.507440 Long 738.688988 Depth 0.833807
QUALITY  Pmax 5.73935e+50 MFmin 60.5988 MFmax 75.4629 RMS 0.0223421 Nphs 16 Gap 299.634 Dist 0.717771 Mamp -9.90 0 Mdur -9.90 0
VPVSRATIO  VpVsRatio 1.71554  Npair 8  Diff 0.416649
STATISTICS  ExpectX 738.560098 Y 9818.569910 Z 0.998918  CovXX 0.0563436 XY -0.00574434 XZ -0.0281951 YY 0.0172814 YZ 0.0089792 ZZ 0.0432726 EllAz1  349.227 Dip1  -25.6882 Len1  0.22213 Az2  234.754 Dip2  -40.7355 Len2  0.282151 Len3  5.326328e-01
STAT_GEOG  ExpectLat 9818.569910 Long 738.560098 Depth 0.998918
TRANSFORM  NONE
QML_OriginQuality  assocPhCt 16  usedPhCt 16  assocStaCt -1  usedStaCt 8  depthPhCt -1  stdErr 0.0223421  azGap 299.634  secAzGap 299.634  gtLevel -  minDist 0.717771 maxDist 4.3192 medDist 2.13588
QML_OriginUncertainty  horUnc -1  minHorUnc 0.194537  maxHorUnc 0.362619  azMaxHorUnc 98.1946
QML_ConfidenceEllipsoid  semiMajorAxisLength 0.532633  semiMinorAxisLength 0.22213  semiIntermediateAxisLength 0.282151  majorAxisPlunge -38.4254  majorAxisAzimuth 101.659  majorAxisRotation 251.095
FOCALMECH  Hyp  9818.507440 738.688988 0.833807 Mech  0 0 0 mf  0 nObs -1
PHASE ID Ins Cmp On Pha  FM Date     HrMn   Sec     Err  ErrMag    Coda      Amp       Per       PriorWt  >   TTpred    Res       Weight    StaLoc(X  Y         Z)        SDist    SAzim  RAz  RDip RQual    Tcorr       TTerr
ML06         ?    BHZ  i P      d 20230921 0347   36.5917 GAU  6.29e-04 -1.00e+00  2.42e+02 -1.00e+00    1.0000 >    0.6193    0.0702    0.2953  738.3100 9819.1170   -1.3960    0.7178 328.13 328.1 161.5 10     0.0000    0.0124
ML06         ?    BHE  i S      ? 20230921 0347   37.0926 GAU  7.22e-04 -1.00e+00 -1.00e+00 -1.00e+00    1.0000 >    1.0670    0.1234    0.0690  738.3100 9819.1170   -1.3960    0.7178 328.13 328.1 160.1 10     0.0000    0.0213
ML04         ?    BHZ  e P      d 20230921 0347   36.6824 GAU  1.68e-03 -1.00e+00  1.90e+03 -1.00e+00    1.0000 >    0.7833   -0.0030    1.6215  737.1400 9819.2520   -1.5710    1.7186 295.67 295.7 143.2 10     0.0000    0.0157
ML04         ?    BHE  e S      ? 20230921 0347   37.2389 GAU  2.98e-04 -1.00e+00  3.45e+02 -1.00e+00    1.0000 >    1.3492   -0.0124    1.2983  737.1400 9819.2520   -1.5710    1.7186 295.67 295.7 140.0 10     0.0000    0.0270
ML14         ?    BHZ  i P      d 20230921 0347   36.6801 GAU  1.79e-03 -1.00e+00  1.53e+03 -1.00e+00    1.0000 >    0.7717    0.0063    1.5947  737.5530 9820.0110   -1.3980    1.8845 322.93 322.9 138.4 10     0.0000    0.0154
ML14         ?    BHN  e S      ? 20230921 0347   37.2555 GAU  1.68e-03 -1.00e+00  3.99e+02 -1.00e+00    1.0000 >    1.3289    0.0245    1.1817  737.5530 9820.0110   -1.3980    1.8845 322.93 322.9 134.7 10     0.0000    0.0266
ML11         ?    BHZ  e P      c 20230921 0347   36.6792 GAU  1.42e-03 -1.00e+00 -1.00e+00 -1.00e+00    1.0000 >    0.7727    0.0043    1.6163  738.4670 9820.4900   -1.3120    1.9949 353.61 353.6 135.7 10     0.0000    0.0155
ML11         ?    BHN  e S      ? 20230921 0347   37.2412 GAU  9.82e-04 -1.00e+00 -1.00e+00 -1.00e+00    1.0000 >    1.3304    0.0086    1.3754  738.4670 9820.4900   -1.3120    1.9949 353.61 353.6 131.5 10     0.0000    0.0266
ML02         ?    BHZ  e P      d 20230921 0347   36.6579 GAU  3.74e-04 -1.00e+00  7.24e+02 -1.00e+00    1.0000 >    0.8618   -0.1061    0.0219  736.5970 9819.4060   -1.4960    2.2768 293.24 293.2 133.8 10     0.0000    0.0172
ML02         ?    BHE  e S      ? 20230921 0347   37.1965 GAU  2.71e-04 -1.00e+00 -1.00e+00 -1.00e+00    1.0000 >    1.4839   -0.1896    0.0078  736.5970 9819.4060   -1.4960    2.2768 293.24 293.2 129.4 10     0.0000    0.0297
ML09         ?    BHZ  e P      d 20230921 0347   36.7690 GAU  2.70e-04 -1.00e+00  4.00e+02 -1.00e+00    1.0000 >    0.8824   -0.0156    1.3781  737.8820 9820.9850   -1.2700    2.6057 341.96 342.0 126.7 10     0.0000    0.0176
ML09         ?    BHE  e S      ? 20230921 0347   37.4087 GAU  3.74e-04 -1.00e+00  4.07e+02 -1.00e+00    1.0000 >    1.5180   -0.0114    1.2519  737.8820 9820.9850   -1.2700    2.6057 341.96 342.0 121.2 10     0.0000    0.0304
ML13         ?    BHZ  i P      d 20230921 0347   36.9274 GAU  2.76e-04 -1.00e+00  5.41e+02 -1.00e+00    1.0000 >    1.0433   -0.0180    1.2857  737.1780 9821.5410   -1.2220    3.3890 333.52 333.5 118.6 10     0.0000    0.0209
ML13         ?    BHN  e S      ? 20230921 0347   37.6852 GAU  6.86e-04 -1.00e+00 -1.00e+00 -1.00e+00    1.0000 >    1.7920   -0.0089    1.1831  737.1780 9821.5410   -1.2220    3.3890 333.52 333.5 111.3 10     0.0000    0.0358
ML05         ?    BHZ  e P      c 20230921 0347   37.1803 GAU  3.74e-04 -1.00e+00 -1.00e+00 -1.00e+00    1.0000 >    1.2485    0.0297    1.0892  736.2660 9822.0830   -1.1500    4.3192 325.88 325.9 111.6 10     0.0000    0.0250
ML05         ?    BHN  e S      ? 20230921 0347   38.0979 GAU  3.00e-04 -1.00e+00  2.62e+02 -1.00e+00    1.0000 >    2.1377    0.0580    0.7302  736.2660 9822.0830   -1.1500    4.3192 325.88 325.9 103.0 10     0.0000    0.0428
END_PHASE
END_NLLOC

