NLLOC "./loc/SEML.20230914.162819.grid0" "LOCATED" "Location completed."
PUBLIC_ID None
SIGNATURE "Arham Zakki Edelo - edelo.17034@mhs.its.ac.id   obs:./obs/2023_09.obs   NLLoc:v7.00.10(30Aug2020)   run:22Jan2024 21h54m32"
COMMENT "SEML"
GRID  2001 2001 1001  727 9811 -2  0.01 0.01 0.01 PROB_DENSITY
SEARCH OCTREE nInitial 4851 nEvaluated 20003 smallestNodeSide 0.014881/0.014881/0.014205 oct_tree_integral 2.152942e-02 scatter_volume 2.134804e-02
HYPOCENTER  x 737.647 y 9818.73 z 0.74858  OT 18.7356  ix -1 iy -1 iz -1 MAXIMUM_LIKELIHOOD
GEOGRAPHIC  OT 2023 09 14  16 28 18.735639  Lat 9818.730655 Long 737.647321 Depth 0.748580
QUALITY  Pmax 6.24482e+62 MFmin 75.9296 MFmax 86.9976 RMS 0.0538794 Nphs 20 Gap 256.023 Dist 0.727445 Mamp -9.90 0 Mdur -9.90 0
VPVSRATIO  VpVsRatio 1.71354  Npair 10  Diff 0.74642
STATISTICS  ExpectX 738.542542 Y 9818.544191 Z 0.804477  CovXX 0.261874 XY -0.0231124 XZ 0.0357797 YY 0.0273512 YZ -0.00491482 ZZ 0.0298613 EllAz1  174.947 Dip1  -50.9041 Len1  0.28693 Az2  192.33 Dip2  37.7918 Len2  0.304118 Len3  9.754793e-01
STAT_GEOG  ExpectLat 9818.544191 Long 738.542542 Depth 0.804477
TRANSFORM  NONE
QML_OriginQuality  assocPhCt 20  usedPhCt 20  assocStaCt -1  usedStaCt 10  depthPhCt -1  stdErr 0.0538794  azGap 256.023  secAzGap 256.023  gtLevel -  minDist 0.727445 maxDist 4.71688 medDist 2.5579
QML_OriginUncertainty  horUnc -1  minHorUnc 0.240247  maxHorUnc 0.779423  azMaxHorUnc 95.5751
QML_ConfidenceEllipsoid  semiMajorAxisLength 0.975479  semiMinorAxisLength 0.28693  semiIntermediateAxisLength 0.304118  majorAxisPlunge 8.56205  majorAxisAzimuth 95.625  majorAxisRotation 307.038
FOCALMECH  Hyp  9818.730655 737.647321 0.748580 Mech  0 0 0 mf  0 nObs -1
PHASE ID Ins Cmp On Pha  FM Date     HrMn   Sec     Err  ErrMag    Coda      Amp       Per       PriorWt  >   TTpred    Res       Weight    StaLoc(X  Y         Z)        SDist    SAzim  RAz  RDip RQual    Tcorr       TTerr
ML04         ?    BHZ  e P      c 20230914 1628   19.3880 GAU  7.02e-04 -1.00e+00 -1.00e+00 -1.00e+00    1.0000 >    0.6453    0.0071    1.8982  737.1400 9819.2520   -1.5710    0.7274 315.78 315.8 161.9 10     0.0000    0.0129
ML04         ?    BHE  e S      ? 20230914 1628   19.8354 GAU  1.16e-03 -1.00e+00  3.69e+02 -1.00e+00    1.0000 >    1.1147   -0.0149    1.4887  737.1400 9819.2520   -1.5710    0.7274 315.78 315.8 160.5 10     0.0000    0.0223
ML06         ?    BHZ  i P      c 20230914 1628   19.3407 GAU  8.62e-04 -1.00e+00 -1.00e+00 -1.00e+00    1.0000 >    0.6030    0.0021    2.0291  738.3100 9819.1170   -1.3960    0.7671  59.76  59.8 159.6 10     0.0000    0.0121
ML06         ?    BHN  e S      ? 20230914 1628   19.7859 GAU  2.01e-03 -1.00e+00 -1.00e+00 -1.00e+00    1.0000 >    1.0416    0.0086    1.6421  738.3100 9819.1170   -1.3960    0.7671  59.76  59.8 158.0 10     0.0000    0.0208
ML14         ?    BHZ  e P      d 20230914 1628   19.4945 GAU  1.35e-03 -1.00e+00  2.27e+02 -1.00e+00    1.0000 >    0.6620    0.0969    0.5027  737.5530 9820.0110   -1.3980    1.2838 355.79 355.8 148.1 10     0.0000    0.0132
ML14         ?    BHN  e S      ? 20230914 1628   20.0774 GAU  6.54e-04 -1.00e+00  3.16e+02 -1.00e+00    1.0000 >    1.1434    0.1983    0.3097  737.5530 9820.0110   -1.3980    1.2838 355.79 355.8 145.3 10     0.0000    0.0229
ML11         ?    BHZ  i P      c 20230914 1628   19.4713 GAU  1.86e-03 -1.00e+00 -1.00e+00 -1.00e+00    1.0000 >    0.7475   -0.0118    1.7416  738.4670 9820.4900   -1.3120    1.9409  24.98  25.0 135.2 10     0.0000    0.0149
ML11         ?    BHN  e S      ? 20230914 1628   20.0256 GAU  2.36e-03 -1.00e+00 -1.00e+00 -1.00e+00    1.0000 >    1.2907   -0.0008    1.5597  738.4670 9820.4900   -1.3120    1.9409  24.98  25.0 130.8 10     0.0000    0.0258
ML09         ?    BHZ  i P      c 20230914 1628   19.5316 GAU  1.04e-03 -1.00e+00 -1.00e+00 -1.00e+00    1.0000 >    0.8007   -0.0047    1.8885  737.8820 9820.9850   -1.2700    2.2665   5.94   5.9 129.6 10     0.0000    0.0160
ML09         ?    BHE  e S      ? 20230914 1628   20.1380 GAU  1.73e-03 -1.00e+00  3.45e+02 -1.00e+00    1.0000 >    1.3821    0.0203    1.2695  737.8820 9820.9850   -1.2700    2.2665   5.94   5.9 124.3 10     0.0000    0.0276
ML13         ?    BHZ  i P      c 20230914 1628   19.6438 GAU  2.93e-04 -1.00e+00 -1.00e+00 -1.00e+00    1.0000 >    0.9130   -0.0049    1.8081  737.1780 9821.5410   -1.2220    2.8493 350.52 350.5 122.2 10     0.0000    0.0183
ML13         ?    BHE  e S      ? 20230914 1628   20.3071 GAU  6.24e-04 -1.00e+00 -1.00e+00 -1.00e+00    1.0000 >    1.5748   -0.0033    1.3898  737.1780 9821.5410   -1.2220    2.8493 350.52 350.5 115.2 10     0.0000    0.0315
ML10         ?    BHZ  i P      d 20230914 1628   19.7556 GAU  1.29e-03 -1.00e+00  1.05e+03 -1.00e+00    1.0000 >    0.9138    0.1062    0.5213  736.5490 9821.3650   -1.2200    2.8541 337.37 337.4 122.0 10     0.0000    0.0183
ML10         ?    BHE  e S      ? 20230914 1628   20.4768 GAU  9.62e-04 -1.00e+00 -1.00e+00 -1.00e+00    1.0000 >    1.5760    0.1652    0.4491  736.5490 9821.3650   -1.2200    2.8541 337.37 337.4 115.1 10     0.0000    0.0315
ML05         ?    BHZ  e P      c 20230914 1628   19.9671 GAU  3.89e-03 -1.00e+00 -1.00e+00 -1.00e+00    1.0000 >    1.0767    0.1547    0.4098  736.2660 9822.0830   -1.1500    3.6258 337.61 337.6 114.7 10     0.0000    0.0215
ML05         ?    BHE  e S      ? 20230914 1628   20.9118 GAU  5.85e-04 -1.00e+00 -1.00e+00 -1.00e+00    1.0000 >    1.8535    0.3227    0.0867  736.2660 9822.0830   -1.1500    3.6258 337.61 337.6 105.7 10     0.0000    0.0371
ML07         ?    BHZ  e P      c 20230914 1628   19.9986 GAU  4.81e-03 -1.00e+00 -1.00e+00 -1.00e+00    1.0000 >    1.1778    0.0852    0.4740  737.4430 9822.8030   -1.1120    4.0775 357.13 357.1 111.3 10     0.0000    0.0236
ML07         ?    BHN  e S      ? 20230914 1628   20.9408 GAU  2.67e-04 -1.00e+00 -1.00e+00 -1.00e+00    1.0000 >    2.0238    0.1813    0.4198  737.4430 9822.8030   -1.1120    4.0775 357.13 357.1 101.7 10     0.0000    0.0405
ML12         ?    BHZ  e P      d 20230914 1628   20.3307 GAU  3.14e-03 -1.00e+00 -1.00e+00 -1.00e+00    1.0000 >    1.3167    0.2784    0.1116  736.8520 9823.3800   -0.9890    4.7169 350.29 350.3 106.9 10     0.0000    0.0263
ML12         ?    BHN  e S      ? 20230914 1628   21.5223 GAU  2.24e-03 -1.00e+00 -1.00e+00 -1.00e+00    1.0000 >    2.2525    0.5342    0.0001  736.8520 9823.3800   -0.9890    4.7169 350.29 350.3  97.6 10     0.0000    0.0450
END_PHASE
END_NLLOC

