NLLOC "./loc/SEML.20230914.162414.grid0" "LOCATED" "Location completed."
PUBLIC_ID None
SIGNATURE "Arham Zakki Edelo - edelo.17034@mhs.its.ac.id   obs:./obs/2023_09.obs   NLLoc:v7.00.10(30Aug2020)   run:22Jan2024 21h54m09"
COMMENT "SEML"
GRID  2001 2001 1001  727 9811 -2  0.01 0.01 0.01 PROB_DENSITY
SEARCH OCTREE nInitial 4851 nEvaluated 20011 smallestNodeSide 0.007440/0.007440/0.007102 oct_tree_integral 6.474387e-03 scatter_volume 6.461465e-03
HYPOCENTER  x 737.822 y 9818.55 z 0.404119  OT 13.522  ix -1 iy -1 iz -1 MAXIMUM_LIKELIHOOD
GEOGRAPHIC  OT 2023 09 14  16 24 13.521952  Lat 9818.548363 Long 737.822173 Depth 0.404119
QUALITY  Pmax 1.4854e+95 MFmin 100.159 MFmax 113.598 RMS 0.0262228 Nphs 26 Gap 264.367 Dist 0.749215 Mamp -9.90 0 Mdur -9.90 0
VPVSRATIO  VpVsRatio 1.74333  Npair 13  Diff 0.635075
STATISTICS  ExpectX 737.855527 Y 9818.517586 Z 0.397118  CovXX 0.00726885 XY -0.000981845 XZ -0.00164486 YY 0.00848386 YZ -0.00280211 ZZ 0.00802131 EllAz1  44.0005 Dip1  40.0386 Len1  0.122666 Az2  118.259 Dip2  -17.894 Len2  0.172193 Len3  1.980529e-01
STAT_GEOG  ExpectLat 9818.517586 Long 737.855527 Depth 0.397118
TRANSFORM  NONE
QML_OriginQuality  assocPhCt 26  usedPhCt 26  assocStaCt -1  usedStaCt 13  depthPhCt -1  stdErr 0.0262228  azGap 264.367  secAzGap 264.367  gtLevel -  minDist 0.749215 maxDist 4.92808 medDist 2.49071
QML_OriginUncertainty  horUnc -1  minHorUnc 0.124338  maxHorUnc 0.144122  azMaxHorUnc 150.873
QML_ConfidenceEllipsoid  semiMajorAxisLength 0.198053  semiMinorAxisLength 0.122666  semiIntermediateAxisLength 0.172193  majorAxisPlunge -44.5275  majorAxisAzimuth 9.74169  majorAxisRotation 89.5487
FOCALMECH  Hyp  9818.548363 737.822173 0.404119 Mech  0 0 0 mf  0 nObs -1
PHASE ID Ins Cmp On Pha  FM Date     HrMn   Sec     Err  ErrMag    Coda      Amp       Per       PriorWt  >   TTpred    Res       Weight    StaLoc(X  Y         Z)        SDist    SAzim  RAz  RDip RQual    Tcorr       TTerr
ML06         ?    BHZ  i P      c 20230914 1624   14.0433 GAU  2.41e-04 -1.00e+00  1.74e+02 -1.00e+00    1.0000 >    0.5192    0.0021    1.6059  738.3100 9819.1170   -1.3960    0.7492  40.63  40.6 156.8 10     0.0000    0.0104
ML06         ?    BHN  e S      ? 20230914 1624   14.4593 GAU  2.46e-03 -1.00e+00 -1.00e+00 -1.00e+00    1.0000 >    0.9058    0.0315    0.9725  738.3100 9819.1170   -1.3960    0.7492  40.63  40.6 156.4 10     0.0000    0.0181
ML04         ?    BHZ  i P      c 20230914 1624   14.1070 GAU  4.33e-04 -1.00e+00 -1.00e+00 -1.00e+00    1.0000 >    0.5886   -0.0036    1.5934  737.1400 9819.2520   -1.5710    0.9800 315.89 315.9 152.7 10     0.0000    0.0118
ML04         ?    BHN  i S      ? 20230914 1624   14.5365 GAU  1.79e-03 -1.00e+00  9.81e+02 -1.00e+00    1.0000 >    1.0260   -0.0115    1.3501  737.1400 9819.2520   -1.5710    0.9800 315.89 315.9 152.3 10     0.0000    0.0205
ML14         ?    BHZ  i P      c 20230914 1624   14.1578 GAU  1.55e-03 -1.00e+00  4.38e+02 -1.00e+00    1.0000 >    0.6217    0.0141    1.3690  737.5530 9820.0110   -1.3980    1.4872 349.57 349.6 139.2 10     0.0000    0.0124
ML14         ?    BHE  e S      ? 20230914 1624   14.6730 GAU  3.31e-04 -1.00e+00 -1.00e+00 -1.00e+00    1.0000 >    1.0848    0.0662    0.5188  737.5530 9820.0110   -1.3980    1.4872 349.57 349.6 138.5 10     0.0000    0.0217
ML02         ?    BHZ  e P      d 20230914 1624   14.1729 GAU  6.74e-04 -1.00e+00  1.50e+02 -1.00e+00    1.0000 >    0.6445    0.0065    1.5278  736.5970 9819.4060   -1.4960    1.4955 304.99 305.0 140.6 10     0.0000    0.0129
ML02         ?    BHE  e S      ? 20230914 1624   14.6429 GAU  8.18e-04 -1.00e+00 -1.00e+00 -1.00e+00    1.0000 >    1.1239   -0.0029    1.3856  736.5970 9819.4060   -1.4960    1.4955 304.99 305.0 139.9 10     0.0000    0.0225
ML11         ?    BHZ  i P      c 20230914 1624   14.2086 GAU  3.23e-04 -1.00e+00  2.27e+02 -1.00e+00    1.0000 >    0.7092   -0.0225    1.1634  738.4670 9820.4900   -1.3120    2.0459  18.37  18.4 128.0 10     0.0000    0.0142
ML11         ?    BHE  e S      ? 20230914 1624   14.7741 GAU  2.64e-03 -1.00e+00 -1.00e+00 -1.00e+00    1.0000 >    1.2381    0.0140    1.2669  738.4670 9820.4900   -1.3120    2.0459  18.37  18.4 126.9 10     0.0000    0.0248
ML09         ?    BHZ  i P      c 20230914 1624   14.2910 GAU  1.49e-03 -1.00e+00  2.42e+02 -1.00e+00    1.0000 >    0.7846   -0.0156    1.3482  737.8820 9820.9850   -1.2700    2.4374   1.41   1.4 122.3 10     0.0000    0.0157
ML09         ?    BHE  e S      ? 20230914 1624   14.8750 GAU  1.16e-03 -1.00e+00  1.53e+02 -1.00e+00    1.0000 >    1.3703   -0.0172    1.1555  737.8820 9820.9850   -1.2700    2.4374   1.41   1.4 120.8 10     0.0000    0.0274
ML03         ?    BHZ  e P      d 20230914 1624   14.3145 GAU  1.08e-03 -1.00e+00  4.48e+03 -1.00e+00    1.0000 >    0.8071   -0.0146    1.3662  736.8800 9820.8540   -1.3350    2.4907 337.77 337.8 122.7 10     0.0000    0.0161
ML03         ?    BHE  e S      ? 20230914 1624   14.9324 GAU  1.21e-03 -1.00e+00 -1.00e+00 -1.00e+00    1.0000 >    1.4089    0.0016    1.2775  736.8800 9820.8540   -1.3350    2.4907 337.77 337.8 121.3 10     0.0000    0.0282
ML13         ?    BHZ  i P      c 20230914 1624   14.4131 GAU  1.24e-03 -1.00e+00 -1.00e+00 -1.00e+00    1.0000 >    0.9186   -0.0275    1.0159  737.1780 9821.5410   -1.2220    3.0612 347.85 347.9 115.4 10     0.0000    0.0184
ML13         ?    BHE  e S      ? 20230914 1624   15.0527 GAU  1.89e-03 -1.00e+00 -1.00e+00 -1.00e+00    1.0000 >    1.6048   -0.0740    0.2423  737.1780 9821.5410   -1.2220    3.0612 347.85 347.9 113.5 10     0.0000    0.0321
ML10         ?    BHZ  i P      d 20230914 1624   14.5235 GAU  2.96e-03 -1.00e+00  2.26e+03 -1.00e+00    1.0000 >    0.9253    0.0763    0.4213  736.5490 9821.3650   -1.2200    3.0910 335.68 335.7 115.2 10     0.0000    0.0185
ML10         ?    BHN  e S      ? 20230914 1624   15.2423 GAU  8.73e-04 -1.00e+00 -1.00e+00 -1.00e+00    1.0000 >    1.6165    0.1038    0.3175  736.5490 9821.3650   -1.2200    3.0910 335.68 335.7 113.2 10     0.0000    0.0323
ML05         ?    BHZ  e P      c 20230914 1624   14.7418 GAU  1.74e-03 -1.00e+00 -1.00e+00 -1.00e+00    1.0000 >    1.1007    0.1191    0.1958  736.2660 9822.0830   -1.1500    3.8620 336.24 336.2 109.1 10     0.0000    0.0220
ML05         ?    BHE  e S      ? 20230914 1624   15.6447 GAU  2.24e-03 -1.00e+00 -1.00e+00 -1.00e+00    1.0000 >    1.9238    0.1990    0.0302  736.2660 9822.0830   -1.1500    3.8620 336.24 336.2 106.5 10     0.0000    0.0385
ML01         ?    BHZ  e P      c 20230914 1624   14.7406 GAU  2.24e-03 -1.00e+00 -1.00e+00 -1.00e+00    1.0000 >    1.1826    0.0361    0.9327  736.4090 9822.5140   -1.1200    4.2099 340.39 340.4 107.0 10     0.0000    0.0237
ML01         ?    BHN  e S      ? 20230914 1624   15.6384 GAU  1.12e-03 -1.00e+00  1.66e+03 -1.00e+00    1.0000 >    2.0670    0.0494    0.8057  736.4090 9822.5140   -1.1200    4.2099 340.39 340.4 104.2 10     0.0000    0.0413
ML07         ?    BHZ  i P      d 20230914 1624   14.7143 GAU  1.86e-03 -1.00e+00 -1.00e+00 -1.00e+00    1.0000 >    1.1969   -0.0045    1.3466  737.4430 9822.8030   -1.1120    4.2715 354.91 354.9 106.7 10     0.0000    0.0239
ML07         ?    BHN  e S      ? 20230914 1624   15.6288 GAU  3.71e-03 -1.00e+00 -1.00e+00 -1.00e+00    1.0000 >    2.0920    0.0148    1.0441  737.4430 9822.8030   -1.1120    4.2715 354.91 354.9 103.8 10     0.0000    0.0418
ML12         ?    BHZ  i P      c 20230914 1624   14.8918 GAU  3.00e-03 -1.00e+00 -1.00e+00 -1.00e+00    1.0000 >    1.3471    0.0228    1.1404  736.8520 9823.3800   -0.9890    4.9281 348.65 348.6 103.2 10     0.0000    0.0269
ML12         ?    BHE  e S      ? 20230914 1624   15.9429 GAU  2.40e-03 -1.00e+00  1.43e+02 -1.00e+00    1.0000 >    2.3482    0.0728    0.6066  736.8520 9823.3800   -0.9890    4.9281 348.65 348.6  67.2 10     0.0000    0.0470
END_PHASE
END_NLLOC

