NLLOC "./loc/SEML.20230928.083640.grid0" "LOCATED" "Location completed."
PUBLIC_ID None
SIGNATURE "Arham Zakki Edelo - edelo.17034@mhs.its.ac.id   obs:./obs/2023_09.obs   NLLoc:v7.00.10(30Aug2020)   run:22Jan2024 21h56m20"
COMMENT "SEML"
GRID  2001 2001 1001  727 9811 -2  0.01 0.01 0.01 PROB_DENSITY
SEARCH OCTREE nInitial 4851 nEvaluated 20011 smallestNodeSide 0.014881/0.014881/0.014205 oct_tree_integral 3.952082e-02 scatter_volume 3.952082e-02
HYPOCENTER  x 738.555 y 9818.05 z 0.0383523  OT 39.8753  ix -1 iy -1 iz -1 MAXIMUM_LIKELIHOOD
GEOGRAPHIC  OT 2023 09 28  08 36 39.875258  Lat 9818.046131 Long 738.555060 Depth 0.038352
QUALITY  Pmax 5.07303e+64 MFmin 74.0238 MFmax 88.5197 RMS 0.039589 Nphs 20 Gap 306.844 Dist 1.09855 Mamp -9.90 0 Mdur -9.90 0
VPVSRATIO  VpVsRatio 1.75067  Npair 10  Diff 0.701252
STATISTICS  ExpectX 738.523696 Y 9818.004328 Z -0.092684  CovXX 0.0281546 XY -0.010565 XZ -0.0218462 YY 0.0231529 YZ 0.0279701 ZZ 0.0832681 EllAz1  11.7564 Dip1  -17.7873 Len1  0.203993 Az2  274.682 Dip2  -21.0017 Len2  0.269696 Len3  6.005853e-01
STAT_GEOG  ExpectLat 9818.004328 Long 738.523696 Depth -0.092684
TRANSFORM  NONE
QML_OriginQuality  assocPhCt 20  usedPhCt 20  assocStaCt -1  usedStaCt 10  depthPhCt -1  stdErr 0.039589  azGap 306.844  secAzGap 306.844  gtLevel -  minDist 1.09855 maxDist 5.59916 medDist 2.73021
QML_OriginUncertainty  horUnc -1  minHorUnc 0.18448  maxHorUnc 0.289784  azMaxHorUnc 128.341
QML_ConfidenceEllipsoid  semiMajorAxisLength 0.600585  semiMinorAxisLength 0.203993  semiIntermediateAxisLength 0.269696  majorAxisPlunge -61.9058  majorAxisAzimuth 138.697  majorAxisRotation 123.138
FOCALMECH  Hyp  9818.046131 738.555060 0.038352 Mech  0 0 0 mf  0 nObs -1
PHASE ID Ins Cmp On Pha  FM Date     HrMn   Sec     Err  ErrMag    Coda      Amp       Per       PriorWt  >   TTpred    Res       Weight    StaLoc(X  Y         Z)        SDist    SAzim  RAz  RDip RQual    Tcorr       TTerr
ML06         ?    BHZ  i P      c 20230928 0836   40.4807 GAU  9.88e-04 -1.00e+00  5.11e+02 -1.00e+00    1.0000 >    0.4843    0.1211    0.2188  738.3100 9819.1170   -1.3960    1.0986 347.11 347.1 141.1 10     0.0000    0.0097
ML06         ?    BHN  e S      ? 20230928 0836   40.9707 GAU  1.73e-03 -1.00e+00 -1.00e+00 -1.00e+00    1.0000 >    0.8481    0.2473    0.0113  738.3100 9819.1170   -1.3960    1.0986 347.11 347.1 140.2 10     0.0000    0.0170
ML04         ?    BHZ  e P      c 20230928 0836   40.4590 GAU  1.58e-03 -1.00e+00 -1.00e+00 -1.00e+00    1.0000 >    0.6607   -0.0769    0.6146  737.1400 9819.2520   -1.5710    1.8592 310.44 310.4 128.2 10     0.0000    0.0132
ML04         ?    BHN  e S      ? 20230928 0836   40.9341 GAU  1.05e-03 -1.00e+00  7.37e+02 -1.00e+00    1.0000 >    1.1553   -0.0964    0.4825  737.1400 9819.2520   -1.5710    1.8592 310.44 310.4 126.9 10     0.0000    0.0231
ML14         ?    BHZ  i P      c 20230928 0836   40.5794 GAU  2.24e-03 -1.00e+00 -1.00e+00 -1.00e+00    1.0000 >    0.7053   -0.0011    1.7637  737.5530 9820.0110   -1.3980    2.2056 332.98 333.0 119.8 10     0.0000    0.0141
ML14         ?    BHE  e S      ? 20230928 0836   41.1090 GAU  6.92e-04 -1.00e+00  5.68e+02 -1.00e+00    1.0000 >    1.2356   -0.0018    1.5318  737.5530 9820.0110   -1.3980    2.2056 332.98 333.0 117.7 10     0.0000    0.0247
ML02         ?    BHZ  e P      c 20230928 0836   40.6346 GAU  8.26e-04 -1.00e+00 -1.00e+00 -1.00e+00    1.0000 >    0.7608   -0.0014    1.7440  736.5970 9819.4060   -1.4960    2.3840 304.78 304.8 119.3 10     0.0000    0.0152
ML02         ?    BHN  e S      ? 20230928 0836   41.2432 GAU  1.71e-03 -1.00e+00  1.61e+03 -1.00e+00    1.0000 >    1.3316    0.0364    0.9631  736.5970 9819.4060   -1.4960    2.3840 304.78 304.8 117.3 10     0.0000    0.0266
ML11         ?    BHZ  e P      c 20230928 0836   40.6308 GAU  2.15e-03 -1.00e+00 -1.00e+00 -1.00e+00    1.0000 >    0.7472    0.0083    1.6736  738.4670 9820.4900   -1.3120    2.4455 357.94 357.9 115.4 10     0.0000    0.0149
ML11         ?    BHN  e S      ? 20230928 0836   41.1956 GAU  6.47e-04 -1.00e+00 -1.00e+00 -1.00e+00    1.0000 >    1.3106    0.0098    1.4474  738.4670 9820.4900   -1.3120    2.4455 357.94 357.9 112.6 10     0.0000    0.0262
ML09         ?    BHZ  i P      c 20230928 0836   40.7391 GAU  2.93e-04 -1.00e+00  7.66e+01 -1.00e+00    1.0000 >    0.8779   -0.0141    1.5111  737.8820 9820.9850   -1.2700    3.0150 347.10 347.1 109.3 10     0.0000    0.0176
ML09         ?    BHE  e S      ? 20230928 0836   41.3751 GAU  5.71e-04 -1.00e+00  4.19e+02 -1.00e+00    1.0000 >    1.5413   -0.0414    1.0441  737.8820 9820.9850   -1.2700    3.0150 347.10 347.1 105.0 10     0.0000    0.0308
ML13         ?    BHZ  i P      c 20230928 0836   40.8601 GAU  5.42e-04 -1.00e+00 -1.00e+00 -1.00e+00    1.0000 >    1.0560   -0.0711    0.6708  737.1780 9821.5410   -1.2220    3.7564 338.49 338.5 103.9 10     0.0000    0.0211
ML13         ?    BHN  e S      ? 20230928 0836   41.6204 GAU  4.85e-03 -1.00e+00  4.41e+01 -1.00e+00    1.0000 >    1.8563   -0.1111    0.3879  737.1780 9821.5410   -1.2220    3.7564 338.49 338.5  96.4  9     0.0000    0.0371
ML05         ?    BHZ  e P      c 20230928 0836   41.1445 GAU  3.32e-03 -1.00e+00 -1.00e+00 -1.00e+00    1.0000 >    1.2722   -0.0030    1.5099  736.2660 9822.0830   -1.1500    4.6407 330.45 330.4  99.6 10     0.0000    0.0254
ML05         ?    BHN  e S      ? 20230928 0836   42.1043 GAU  5.94e-04 -1.00e+00  2.98e+02 -1.00e+00    1.0000 >    2.2367   -0.0077    1.2163  736.2660 9822.0830   -1.1500    4.6407 330.45 330.4  92.2  9     0.0000    0.0447
ML07         ?    BHZ  e P      c 20230928 0836   41.2124 GAU  5.66e-04 -1.00e+00 -1.00e+00 -1.00e+00    1.0000 >    1.3308    0.0063    1.4690  737.4430 9822.8030   -1.1120    4.8851 346.84 346.8  98.6 10     0.0000    0.0266
ML07         ?    BHN  e S      ? 20230928 0836   42.2341 GAU  1.46e-03 -1.00e+00 -1.00e+00 -1.00e+00    1.0000 >    2.3391    0.0197    1.1058  737.4430 9822.8030   -1.1120    4.8851 346.84 346.8  91.8  9     0.0000    0.0468
ML12         ?    BHZ  e P      c 20230928 0836   41.4684 GAU  3.04e-03 -1.00e+00 -1.00e+00 -1.00e+00    1.0000 >    1.5020    0.0912    0.3513  736.8520 9823.3800   -0.9890    5.5992 342.29 342.3  96.3 10     0.0000    0.0300
ML12         ?    BHE  e S      ? 20230928 0836   42.6448 GAU  9.98e-04 -1.00e+00  4.11e+02 -1.00e+00    1.0000 >    2.6366    0.1329    0.2828  736.8520 9823.3800   -0.9890    5.5992 342.29 342.3  91.2  9     0.0000    0.0527
END_PHASE
END_NLLOC

