NLLOC "./loc/SEML.20230920.204129.grid0" "LOCATED" "Location completed."
PUBLIC_ID None
SIGNATURE "Arham Zakki Edelo - edelo.17034@mhs.its.ac.id   obs:./obs/2023_09.obs   NLLoc:v7.00.10(30Aug2020)   run:22Jan2024 21h55m17"
COMMENT "SEML"
GRID  2001 2001 1001  727 9811 -2  0.01 0.01 0.01 PROB_DENSITY
SEARCH OCTREE nInitial 4851 nEvaluated 20011 smallestNodeSide 0.014881/0.014881/0.014205 oct_tree_integral 1.585732e-02 scatter_volume 1.558116e-02
HYPOCENTER  x 737.841 y 9818.6 z 0.606534  OT 28.6453  ix -1 iy -1 iz -1 MAXIMUM_LIKELIHOOD
GEOGRAPHIC  OT 2023 09 20  20 41 28.645259  Lat 9818.596726 Long 737.840774 Depth 0.606534
QUALITY  Pmax 1.06784e+65 MFmin 75.7716 MFmax 87.0967 RMS 0.0387509 Nphs 20 Gap 271.031 Dist 0.700613 Mamp -9.90 0 Mdur -9.90 0
VPVSRATIO  VpVsRatio 1.76145  Npair 10  Diff 0.522427
STATISTICS  ExpectX 737.784751 Y 9818.541093 Z 0.654910  CovXX 0.0285158 XY 0.00933999 XZ -0.00538859 YY 0.0113872 YZ -0.00412562 ZZ 0.0123064 EllAz1  342.08 Dip1  21.7866 Len1  0.153026 Az2  301.106 Dip2  -62.1033 Len2  0.196984 Len3  3.493992e-01
STAT_GEOG  ExpectLat 9818.541093 Long 737.784751 Depth 0.654910
TRANSFORM  NONE
QML_OriginQuality  assocPhCt 20  usedPhCt 20  assocStaCt -1  usedStaCt 10  depthPhCt -1  stdErr 0.0387509  azGap 271.031  secAzGap 271.031  gtLevel -  minDist 0.700613 maxDist 4.8844 medDist 2.70329
QML_OriginUncertainty  horUnc -1  minHorUnc 0.129393  maxHorUnc 0.273924  azMaxHorUnc 66.2597
QML_ConfidenceEllipsoid  semiMajorAxisLength 0.349399  semiMinorAxisLength 0.153026  semiIntermediateAxisLength 0.196984  majorAxisPlunge -16.5517  majorAxisAzimuth 65.2574  majorAxisRotation 153.374
FOCALMECH  Hyp  9818.596726 737.840774 0.606534 Mech  0 0 0 mf  0 nObs -1
PHASE ID Ins Cmp On Pha  FM Date     HrMn   Sec     Err  ErrMag    Coda      Amp       Per       PriorWt  >   TTpred    Res       Weight    StaLoc(X  Y         Z)        SDist    SAzim  RAz  RDip RQual    Tcorr       TTerr
ML06         ?    BHZ  i P      d 20230920 2041   29.2133 GAU  9.06e-04 -1.00e+00 -1.00e+00 -1.00e+00    1.0000 >    0.5630    0.0051    1.7594  738.3100 9819.1170   -1.3960    0.7006  42.05  42.0 160.0 10     0.0000    0.0113
ML06         ?    BHN  e S      ? 20230920 2041   29.7138 GAU  1.91e-03 -1.00e+00 -1.00e+00 -1.00e+00    1.0000 >    0.9774    0.0911    0.2004  738.3100 9819.1170   -1.3960    0.7006  42.05  42.0 158.2 10     0.0000    0.0195
ML04         ?    BHZ  e P      d 20230920 2041   29.2176 GAU  6.62e-04 -1.00e+00  1.66e+03 -1.00e+00    1.0000 >    0.6331   -0.0608    0.3731  737.1400 9819.2520   -1.5710    0.9594 313.08 313.1 155.3 10     0.0000    0.0127
ML04         ?    BHN  e S      ? 20230920 2041   29.7328 GAU  9.32e-04 -1.00e+00  7.31e+02 -1.00e+00    1.0000 >    1.0986   -0.0110    1.6029  737.1400 9819.2520   -1.5710    0.9594 313.08 313.1 153.1 10     0.0000    0.0220
ML14         ?    BHZ  i P      c 20230920 2041   29.3195 GAU  4.37e-04 -1.00e+00  3.24e+00 -1.00e+00    1.0000 >    0.6551    0.0191    1.3267  737.5530 9820.0110   -1.3980    1.4433 348.50 348.5 142.9 10     0.0000    0.0131
ML14         ?    BHE  e S      ? 20230920 2041   29.7871 GAU  5.66e-04 -1.00e+00  5.17e+02 -1.00e+00    1.0000 >    1.1373    0.0046    1.5842  737.5530 9820.0110   -1.3980    1.4433 348.50 348.5 139.3 10     0.0000    0.0227
ML11         ?    BHZ  i P      d 20230920 2041   29.3715 GAU  2.78e-03 -1.00e+00 -1.00e+00 -1.00e+00    1.0000 >    0.7324   -0.0061    1.7679  738.4670 9820.4900   -1.3120    1.9942  18.30  18.3 131.8 10     0.0000    0.0146
ML11         ?    BHE  i S      ? 20230920 2041   29.9011 GAU  2.01e-03 -1.00e+00 -1.00e+00 -1.00e+00    1.0000 >    1.2714   -0.0156    1.4918  738.4670 9820.4900   -1.3120    1.9942  18.30  18.3 126.4 10     0.0000    0.0254
ML09         ?    BHZ  i P      c 20230920 2041   29.4239 GAU  2.77e-03 -1.00e+00  5.00e+01 -1.00e+00    1.0000 >    0.8033   -0.0246    1.3779  737.8820 9820.9850   -1.2700    2.3886   0.99   1.0 125.6 10     0.0000    0.0161
ML09         ?    BHN  e S      ? 20230920 2041   30.0399 GAU  5.27e-04 -1.00e+00  5.36e+02 -1.00e+00    1.0000 >    1.3944    0.0003    1.5044  737.8820 9820.9850   -1.2700    2.3886   0.99   1.0 118.6 10     0.0000    0.0279
ML13         ?    BHZ  i P      c 20230920 2041   29.5702 GAU  1.12e-03 -1.00e+00 -1.00e+00 -1.00e+00    1.0000 >    0.9321   -0.0072    1.6978  737.1780 9821.5410   -1.2220    3.0179 347.31 347.3 118.2 10     0.0000    0.0186
ML13         ?    BHN  e S      ? 20230920 2041   30.2695 GAU  4.77e-04 -1.00e+00 -1.00e+00 -1.00e+00    1.0000 >    1.6171    0.0072    1.3758  737.1780 9821.5410   -1.2220    3.0179 347.31 347.3 108.5 10     0.0000    0.0323
ML10         ?    BHZ  e P      c 20230920 2041   29.7628 GAU  1.06e-03 -1.00e+00 -1.00e+00 -1.00e+00    1.0000 >    0.9401    0.1775    0.1597  736.5490 9821.3650   -1.2200    3.0548 334.98 335.0 117.8 10     0.0000    0.0188
ML10         ?    BHN  e S      ? 20230920 2041   30.5671 GAU  7.55e-04 -1.00e+00 -1.00e+00 -1.00e+00    1.0000 >    1.6309    0.2909    0.1021  736.5490 9821.3650   -1.2200    3.0548 334.98 335.0 107.9 10     0.0000    0.0326
ML05         ?    BHZ  e P      c 20230920 2041   29.8991 GAU  6.24e-04 -1.00e+00  5.24e+01 -1.00e+00    1.0000 >    1.1097    0.1441    0.2293  736.2660 9822.0830   -1.1500    3.8254 335.69 335.7 111.0 10     0.0000    0.0222
ML05         ?    BHN  e S      ? 20230920 2041   30.8561 GAU  7.49e-04 -1.00e+00  2.80e+02 -1.00e+00    1.0000 >    1.9212    0.2896    0.1056  736.2660 9822.0830   -1.1500    3.8254 335.69 335.7  98.2  9     0.0000    0.0384
ML07         ?    BHZ  i P      d 20230920 2041   29.8910 GAU  7.69e-04 -1.00e+00 -1.00e+00 -1.00e+00    1.0000 >    1.2010    0.0447    0.6968  737.4430 9822.8030   -1.1120    4.2250 354.60 354.6 108.3 10     0.0000    0.0240
ML07         ?    BHN  e S      ? 20230920 2041   30.8497 GAU  5.72e-04 -1.00e+00 -1.00e+00 -1.00e+00    1.0000 >    2.0748    0.1297    0.2979  737.4430 9822.8030   -1.1120    4.2250 354.60 354.6  95.6  9     0.0000    0.0415
ML12         ?    BHZ  i P      d 20230920 2041   29.9602 GAU  3.74e-04 -1.00e+00 -1.00e+00 -1.00e+00    1.0000 >    1.3483   -0.0334    1.1754  736.8520 9823.3800   -0.9890    4.8844 348.32 348.3 104.0 10     0.0000    0.0270
ML12         ?    BHE  e S      ? 20230920 2041   30.9502 GAU  1.42e-03 -1.00e+00  2.20e+01 -1.00e+00    1.0000 >    2.3152   -0.0103    1.1712  736.8520 9823.3800   -0.9890    4.8844 348.32 348.3  93.4  9     0.0000    0.0463
END_PHASE
END_NLLOC

