NLLOC "./loc/SEML.20230928.075557.grid0" "LOCATED" "Location completed."
PUBLIC_ID None
SIGNATURE "Arham Zakki Edelo - edelo.17034@mhs.its.ac.id   obs:./obs/2023_09.obs   NLLoc:v7.00.10(30Aug2020)   run:22Jan2024 21h55m46"
COMMENT "SEML"
GRID  2001 2001 1001  727 9811 -2  0.01 0.01 0.01 PROB_DENSITY
SEARCH OCTREE nInitial 4851 nEvaluated 20019 smallestNodeSide 0.014881/0.014881/0.014205 oct_tree_integral 2.404346e-02 scatter_volume 2.402868e-02
HYPOCENTER  x 738.838 y 9818.97 z 0.90483  OT 56.947  ix -1 iy -1 iz -1 MAXIMUM_LIKELIHOOD
GEOGRAPHIC  OT 2023 09 28  07 55 56.946956  Lat 9818.968750 Long 738.837798 Depth 0.904830
QUALITY  Pmax 6.72026e+56 MFmin 68.1564 MFmax 95.6481 RMS 0.0288021 Nphs 18 Gap 293.17 Dist 0.548223 Mamp -9.90 0 Mdur -9.90 0
VPVSRATIO  VpVsRatio 1.71463  Npair 9  Diff 0.494221
STATISTICS  ExpectX 738.891414 Y 9818.769339 Z 0.457205  CovXX 0.0350962 XY -0.0199458 XZ -0.0516229 YY 0.0634316 YZ 0.0941834 ZZ 0.234056 EllAz1  318.159 Dip1  -26.0034 Len1  0.263183 Az2  230.776 Dip2  5.34807 Len2  0.297385 Len3  1.008126e+00
STAT_GEOG  ExpectLat 9818.769339 Long 738.891414 Depth 0.457205
TRANSFORM  NONE
QML_OriginQuality  assocPhCt 18  usedPhCt 18  assocStaCt -1  usedStaCt 9  depthPhCt -1  stdErr 0.0288021  azGap 293.17  secAzGap 293.17  gtLevel -  minDist 0.548223 maxDist 4.08007 medDist 2.23133
QML_OriginUncertainty  horUnc -1  minHorUnc 0.238823  maxHorUnc 0.411798  azMaxHorUnc 152.693
QML_ConfidenceEllipsoid  semiMajorAxisLength 1.00813  semiMinorAxisLength 0.263183  semiIntermediateAxisLength 0.297385  majorAxisPlunge -63.3703  majorAxisAzimuth 151.537  majorAxisRotation 82.7525
FOCALMECH  Hyp  9818.968750 738.837798 0.904830 Mech  0 0 0 mf  0 nObs -1
PHASE ID Ins Cmp On Pha  FM Date     HrMn   Sec     Err  ErrMag    Coda      Amp       Per       PriorWt  >   TTpred    Res       Weight    StaLoc(X  Y         Z)        SDist    SAzim  RAz  RDip RQual    Tcorr       TTerr
ML06         ?    BHZ  i P      c 20230928 0755   57.5739 GAU  6.47e-04 -1.00e+00  3.24e+02 -1.00e+00    1.0000 >    0.6247    0.0023    1.9116  738.3100 9819.1170   -1.3960    0.5482 285.69 285.7 166.1 10     0.0000    0.0125
ML06         ?    BHN  e S      ? 20230928 0755   58.0315 GAU  1.08e-03 -1.00e+00 -1.00e+00 -1.00e+00    1.0000 >    1.0741    0.0105    1.6273  738.3100 9819.1170   -1.3960    0.5482 285.69 285.7 165.1 10     0.0000    0.0215
ML11         ?    BHZ  i P      c 20230928 0755   57.6660 GAU  5.24e-04 -1.00e+00 -1.00e+00 -1.00e+00    1.0000 >    0.7154    0.0036    1.8713  738.4670 9820.4900   -1.3120    1.5658 346.30 346.3 143.7 10     0.0000    0.0143
ML11         ?    BHN  e S      ? 20230928 0755   58.1879 GAU  9.06e-04 -1.00e+00 -1.00e+00 -1.00e+00    1.0000 >    1.2294    0.0115    1.5497  738.4670 9820.4900   -1.3120    1.5658 346.30 346.3 140.8 10     0.0000    0.0246
ML14         ?    BHZ  e P      c 20230928 0755   57.6842 GAU  1.67e-03 -1.00e+00 -1.00e+00 -1.00e+00    1.0000 >    0.7486   -0.0113    1.7369  737.5530 9820.0110   -1.3980    1.6544 309.05 309.0 143.2 10     0.0000    0.0150
ML14         ?    BHN  e S      ? 20230928 0755   58.1767 GAU  6.89e-04 -1.00e+00  4.13e+02 -1.00e+00    1.0000 >    1.2865   -0.0568    0.4937  737.5530 9820.0110   -1.3980    1.6544 309.05 309.0 140.1 10     0.0000    0.0257
ML04         ?    BHZ  e P      d 20230928 0755   57.6145 GAU  1.19e-03 -1.00e+00  1.16e+03 -1.00e+00    1.0000 >    0.7983   -0.1307    0.0237  737.1400 9819.2520   -1.5710    1.7213 279.47 279.5 143.9 10     0.0000    0.0160
ML04         ?    BHE  e S      ? 20230928 0755   58.1156 GAU  1.16e-03 -1.00e+00  3.81e+02 -1.00e+00    1.0000 >    1.3723   -0.2036    0.0133  737.1400 9819.2520   -1.5710    1.7213 279.47 279.5 141.0 10     0.0000    0.0274
ML09         ?    BHZ  i P      c 20230928 0755   57.7408 GAU  6.29e-04 -1.00e+00  4.97e+01 -1.00e+00    1.0000 >    0.8202   -0.0264    1.2277  737.8820 9820.9850   -1.2700    2.2313 334.64 334.6 132.6 10     0.0000    0.0164
ML09         ?    BHE  e S      ? 20230928 0755   58.3341 GAU  6.59e-04 -1.00e+00  3.61e+02 -1.00e+00    1.0000 >    1.4085   -0.0214    1.3336  737.8820 9820.9850   -1.2700    2.2313 334.64 334.6 128.4 10     0.0000    0.0282
ML02         ?    BHZ  e P      c 20230928 0755   57.8168 GAU  1.15e-03 -1.00e+00 -1.00e+00 -1.00e+00    1.0000 >    0.8757   -0.0058    1.7937  736.5970 9819.4060   -1.4960    2.2831 281.04 281.0 134.8 10     0.0000    0.0175
ML02         ?    BHE  e S      ? 20230928 0755   58.4643 GAU  1.40e-03 -1.00e+00  1.99e+03 -1.00e+00    1.0000 >    1.5046    0.0127    1.4281  736.5970 9819.4060   -1.4960    2.2831 281.04 281.0 130.7 10     0.0000    0.0301
ML13         ?    BHZ  i P      d 20230928 0755   57.9586 GAU  6.29e-04 -1.00e+00  1.77e+02 -1.00e+00    1.0000 >    0.9802    0.0314    1.0592  737.1780 9821.5410   -1.2220    3.0613 327.17 327.2 122.5 10     0.0000    0.0196
ML13         ?    BHE  e S      ? 20230928 0755   58.6502 GAU  8.87e-04 -1.00e+00 -1.00e+00 -1.00e+00    1.0000 >    1.6809    0.0223    1.2510  737.1780 9821.5410   -1.2220    3.0613 327.17 327.2 116.5 10     0.0000    0.0336
ML05         ?    BHZ  i P      c 20230928 0755   58.2382 GAU  1.54e-03 -1.00e+00 -1.00e+00 -1.00e+00    1.0000 >    1.1895    0.1018    0.2257  736.2660 9822.0830   -1.1500    4.0389 320.45 320.4 114.2 10     0.0000    0.0238
ML05         ?    BHE  e S      ? 20230928 0755   59.1765 GAU  5.60e-04 -1.00e+00 -1.00e+00 -1.00e+00    1.0000 >    2.0340    0.1955    0.1414  736.2660 9822.0830   -1.1500    4.0389 320.45 320.4 106.7 10     0.0000    0.0407
ML07         ?    BHZ  i P      c 20230928 0755   58.2613 GAU  2.99e-04 -1.00e+00 -1.00e+00 -1.00e+00    1.0000 >    1.1937    0.1206    0.2093  737.4430 9822.8030   -1.1120    4.0801 340.01 340.0 113.5 10     0.0000    0.0239
ML07         ?    BHN  e S      ? 20230928 0755   59.2131 GAU  6.18e-04 -1.00e+00 -1.00e+00 -1.00e+00    1.0000 >    2.0403    0.2259    0.1026  737.4430 9822.8030   -1.1120    4.0801 340.01 340.0 105.9 10     0.0000    0.0408
END_PHASE
END_NLLOC

