NLLOC "./loc/SEML.20230918.163314.grid0" "LOCATED" "Location completed."
PUBLIC_ID None
SIGNATURE "Arham Zakki Edelo - edelo.17034@mhs.its.ac.id   obs:./obs/2023_09.obs   NLLoc:v7.00.10(30Aug2020)   run:22Jan2024 21h55m13"
COMMENT "SEML"
GRID  2001 2001 1001  727 9811 -2  0.01 0.01 0.01 PROB_DENSITY
SEARCH OCTREE nInitial 4851 nEvaluated 20003 smallestNodeSide 0.029762/0.029762/0.028409 oct_tree_integral 9.306424e-02 scatter_volume 9.171499e-02
HYPOCENTER  x 738.057 y 9818.22 z 0.457386  OT 14.2184  ix -1 iy -1 iz -1 MAXIMUM_LIKELIHOOD
GEOGRAPHIC  OT 2023 09 18  16 33 14.218442  Lat 9818.217262 Long 738.056548 Depth 0.457386
QUALITY  Pmax 1.51815e+56 MFmin 64.5591 MFmax 76.6272 RMS 0.0420397 Nphs 18 Gap 318.677 Dist 0.934755 Mamp -9.90 0 Mdur -9.90 0
VPVSRATIO  VpVsRatio 1.74781  Npair 9  Diff 0.60875
STATISTICS  ExpectX 738.064454 Y 9818.308760 Z 0.616315  CovXX 0.0498424 XY 0.00236481 XZ 0.00277736 YY 0.0377845 YZ 0.0261322 ZZ 0.0630709 EllAz1  178.736 Dip1  32.0179 Len1  0.27477 Az2  272.741 Dip2  6.37229 Len2  0.41767 Len3  5.310522e-01
STAT_GEOG  ExpectLat 9818.308760 Long 738.064454 Depth 0.616315
TRANSFORM  NONE
QML_OriginQuality  assocPhCt 18  usedPhCt 18  assocStaCt -1  usedStaCt 9  depthPhCt -1  stdErr 0.0420397  azGap 318.677  secAzGap 318.677  gtLevel -  minDist 0.934755 maxDist 5.3014 medDist 3.43789
QML_OriginUncertainty  horUnc -1  minHorUnc 0.293046  maxHorUnc 0.340097  azMaxHorUnc 79.2914
QML_ConfidenceEllipsoid  semiMajorAxisLength 0.531052  semiMinorAxisLength 0.27477  semiIntermediateAxisLength 0.41767  majorAxisPlunge 57.2022  majorAxisAzimuth 12.7207  majorAxisRotation 274.943
FOCALMECH  Hyp  9818.217262 738.056548 0.457386 Mech  0 0 0 mf  0 nObs -1
PHASE ID Ins Cmp On Pha  FM Date     HrMn   Sec     Err  ErrMag    Coda      Amp       Per       PriorWt  >   TTpred    Res       Weight    StaLoc(X  Y         Z)        SDist    SAzim  RAz  RDip RQual    Tcorr       TTerr
ML06         ?    BHZ  i P      c 20230918 1633   14.9138 GAU  1.12e-03 -1.00e+00 -1.00e+00 -1.00e+00    1.0000 >    0.5522    0.1431    0.1572  738.3100 9819.1170   -1.3960    0.9348  15.73  15.7 152.5 10     0.0000    0.0110
ML06         ?    BHE  e S      ? 20230918 1633   15.3882 GAU  5.77e-04 -1.00e+00 -1.00e+00 -1.00e+00    1.0000 >    0.9631    0.2067    0.1139  738.3100 9819.1170   -1.3960    0.9348  15.73  15.7 152.1 10     0.0000    0.0193
ML14         ?    BHZ  e P      c 20230918 1633   14.9534 GAU  5.90e-04 -1.00e+00 -1.00e+00 -1.00e+00    1.0000 >    0.6988    0.0361    1.1130  737.5530 9820.0110   -1.3980    1.8631 344.32 344.3 133.3 10     0.0000    0.0140
ML14         ?    BHN  e S      ? 20230918 1633   15.4546 GAU  5.05e-04 -1.00e+00  3.30e+02 -1.00e+00    1.0000 >    1.2189    0.0173    1.4765  737.5530 9820.0110   -1.3980    1.8631 344.32 344.3 132.5 10     0.0000    0.0244
ML11         ?    BHZ  e P      c 20230918 1633   14.9942 GAU  1.60e-03 -1.00e+00 -1.00e+00 -1.00e+00    1.0000 >    0.7720    0.0037    1.6082  738.4670 9820.4900   -1.3120    2.3095  10.24  10.2 125.5 10     0.0000    0.0154
ML11         ?    BHE  e S      ? 20230918 1633   15.5744 GAU  1.44e-03 -1.00e+00 -1.00e+00 -1.00e+00    1.0000 >    1.3473    0.0087    1.5125  738.4670 9820.4900   -1.3120    2.3095  10.24  10.2 124.3 10     0.0000    0.0269
ML09         ?    BHZ  i P      c 20230918 1633   15.0620 GAU  2.58e-03 -1.00e+00  1.07e+01 -1.00e+00    1.0000 >    0.8662   -0.0227    1.3326  737.8820 9820.9850   -1.2700    2.7732 356.39 356.4 119.6 10     0.0000    0.0173
ML09         ?    BHE  e S      ? 20230918 1633   15.7290 GAU  4.27e-04 -1.00e+00  3.77e+02 -1.00e+00    1.0000 >    1.5120   -0.0014    1.4776  737.8820 9820.9850   -1.2700    2.7732 356.39 356.4 118.1 10     0.0000    0.0302
ML13         ?    BHZ  i P      c 20230918 1633   15.1593 GAU  6.76e-04 -1.00e+00 -1.00e+00 -1.00e+00    1.0000 >    1.0130   -0.0721    0.3926  737.1780 9821.5410   -1.2220    3.4379 345.19 345.2 113.5 10     0.0000    0.0203
ML13         ?    BHN  e S      ? 20230918 1633   15.9096 GAU  3.76e-04 -1.00e+00 -1.00e+00 -1.00e+00    1.0000 >    1.7687   -0.0775    0.4913  737.1780 9821.5410   -1.2220    3.4379 345.19 345.2 111.4 10     0.0000    0.0354
ML10         ?    BHZ  e P      c 20230918 1633   15.2199 GAU  2.79e-03 -1.00e+00 -1.00e+00 -1.00e+00    1.0000 >    1.0251   -0.0237    1.3200  736.5490 9821.3650   -1.2200    3.4901 334.41 334.4 113.0 10     0.0000    0.0205
ML10         ?    BHE  e S      ? 20230918 1633   16.0089 GAU  2.08e-03 -1.00e+00 -1.00e+00 -1.00e+00    1.0000 >    1.7899    0.0006    1.4042  736.5490 9821.3650   -1.2200    3.4901 334.41 334.4 111.0 10     0.0000    0.0358
ML05         ?    BHZ  i P      d 20230918 1633   15.5038 GAU  9.70e-04 -1.00e+00  2.45e+02 -1.00e+00    1.0000 >    1.2027    0.0826    0.3787  736.2660 9822.0830   -1.1500    4.2603 335.15 335.1 107.9 10     0.0000    0.0241
ML05         ?    BHE  e S      ? 20230918 1633   16.4960 GAU  3.13e-04 -1.00e+00 -1.00e+00 -1.00e+00    1.0000 >    2.1006    0.1770    0.2531  736.2660 9822.0830   -1.1500    4.2603 335.15 335.1  99.7  8     0.0000    0.0420
ML07         ?    BHZ  i P      d 20230918 1633   15.4927 GAU  3.73e-03 -1.00e+00 -1.00e+00 -1.00e+00    1.0000 >    1.2888   -0.0146    1.4357  737.4430 9822.8030   -1.1120    4.6266 352.38 352.4 106.0 10     0.0000    0.0258
ML07         ?    BHE  e S      ? 20230918 1633   16.4748 GAU  2.38e-03 -1.00e+00 -1.00e+00 -1.00e+00    1.0000 >    2.2442    0.0121    1.2699  737.4430 9822.8030   -1.1120    4.6266 352.38 352.4  67.2 10     0.0000    0.0449
ML12         ?    BHZ  i P      d 20230918 1633   15.6859 GAU  3.25e-04 -1.00e+00 -1.00e+00 -1.00e+00    1.0000 >    1.4442    0.0232    1.3715  736.8520 9823.3800   -0.9890    5.3014 346.87 346.9 102.8 10     0.0000    0.0289
ML12         ?    BHN  e S      ? 20230918 1633   16.7691 GAU  2.17e-04 -1.00e+00 -1.00e+00 -1.00e+00    1.0000 >    2.4920    0.0587    0.8917  736.8520 9823.3800   -0.9890    5.3014 346.87 346.9  67.2 10     0.0000    0.0498
END_PHASE
END_NLLOC

