NLLOC "./loc/SEML.20230914.163231.grid0" "LOCATED" "Location completed."
PUBLIC_ID None
SIGNATURE "Arham Zakki Edelo - edelo.17034@mhs.its.ac.id   obs:./obs/2023_09.obs   NLLoc:v7.00.10(30Aug2020)   run:22Jan2024 21h54m42"
COMMENT "SEML"
GRID  2001 2001 1001  727 9811 -2  0.01 0.01 0.01 PROB_DENSITY
SEARCH OCTREE nInitial 4851 nEvaluated 20003 smallestNodeSide 0.014881/0.014881/0.014205 oct_tree_integral 4.750041e-02 scatter_volume 4.739200e-02
HYPOCENTER  x 739.775 y 9818.61 z -0.757102  OT 30.6936  ix -1 iy -1 iz -1 MAXIMUM_LIKELIHOOD
GEOGRAPHIC  OT 2023 09 14  16 32 30.693599  Lat 9818.611607 Long 739.775298 Depth -0.757102
QUALITY  Pmax 3.39591e+41 MFmin 51.5207 MFmax 65.559 RMS 0.0176394 Nphs 14 Gap 318.123 Dist 1.55001 Mamp -9.90 0 Mdur -9.90 0
VPVSRATIO  VpVsRatio 1.68582  Npair 7  Diff 0.675777
STATISTICS  ExpectX 739.828009 Y 9818.638483 Z -1.126186  CovXX 0.0436663 XY 0.00406862 XZ -0.0585071 YY 0.011714 YZ -0.0135778 ZZ 0.203622 EllAz1  0.190218 Dip1  4.08442 Len1  0.194873 Az2  271.518 Dip2  -17.9843 Len2  0.294439 Len3  8.885987e-01
STAT_GEOG  ExpectLat 9818.638483 Long 739.828009 Depth -1.126186
TRANSFORM  NONE
QML_OriginQuality  assocPhCt 14  usedPhCt 14  assocStaCt -1  usedStaCt 7  depthPhCt -1  stdErr 0.0176394  azGap 318.123  secAzGap 318.123  gtLevel -  minDist 1.55001 maxDist 5.59314 medDist 3.03605
QML_OriginUncertainty  horUnc -1  minHorUnc 0.160528  maxHorUnc 0.318756  azMaxHorUnc 82.8561
QML_ConfidenceEllipsoid  semiMajorAxisLength 0.888599  semiMinorAxisLength 0.194873  semiIntermediateAxisLength 0.294439  majorAxisPlunge -71.5265  majorAxisAzimuth 77.8484  majorAxisRotation 196.101
FOCALMECH  Hyp  9818.611607 739.775298 -0.757102 Mech  0 0 0 mf  0 nObs -1
PHASE ID Ins Cmp On Pha  FM Date     HrMn   Sec     Err  ErrMag    Coda      Amp       Per       PriorWt  >   TTpred    Res       Weight    StaLoc(X  Y         Z)        SDist    SAzim  RAz  RDip RQual    Tcorr       TTerr
ML06         ?    BHZ  i P      c 20230914 1632   31.3730 GAU  1.42e-03 -1.00e+00 -1.00e+00 -1.00e+00    1.0000 >    0.4595    0.2199    0.0000  738.3100 9819.1170   -1.3960    1.5500 289.03 289.0 111.7 10     0.0000    0.0092
ML06         ?    BHN  e S      ? 20230914 1632   31.8679 GAU  5.78e-04 -1.00e+00 -1.00e+00 -1.00e+00    1.0000 >    0.7937    0.3806    0.0000  738.3100 9819.1170   -1.3960    1.5500 289.03 289.0 112.0 10     0.0000    0.0159
ML11         ?    BHZ  e P      c 20230914 1632   31.3462 GAU  1.42e-03 -1.00e+00 -1.00e+00 -1.00e+00    1.0000 >    0.6452    0.0074    1.7495  738.4670 9820.4900   -1.3120    2.2891 325.14 325.1 102.7 10     0.0000    0.0129
ML11         ?    BHN  e S      ? 20230914 1632   31.7867 GAU  2.03e-04 -1.00e+00 -1.00e+00 -1.00e+00    1.0000 >    1.1148   -0.0217    1.3506  738.4670 9820.4900   -1.3120    2.2891 325.14 325.1 103.1 10     0.0000    0.0223
ML14         ?    BHZ  e P      c 20230914 1632   31.4295 GAU  1.27e-03 -1.00e+00 -1.00e+00 -1.00e+00    1.0000 >    0.7407   -0.0048    1.7940  737.5530 9820.0110   -1.3980    2.6262 302.20 302.2 102.6 10     0.0000    0.0148
ML14         ?    BHE  e S      ? 20230914 1632   31.9830 GAU  8.08e-04 -1.00e+00  4.32e+02 -1.00e+00    1.0000 >    1.2796    0.0098    1.5451  737.5530 9820.0110   -1.3980    2.6262 302.20 302.2 103.1 10     0.0000    0.0256
ML09         ?    BHZ  i P      d 20230914 1632   31.5204 GAU  6.74e-04 -1.00e+00  2.48e+02 -1.00e+00    1.0000 >    0.8429   -0.0161    1.5422  737.8820 9820.9850   -1.2700    3.0360 321.42 321.4  98.5 10     0.0000    0.0169
ML09         ?    BHE  e S      ? 20230914 1632   32.1730 GAU  2.51e-04 -1.00e+00  3.49e+02 -1.00e+00    1.0000 >    1.4567    0.0227    1.2973  737.8820 9820.9850   -1.2700    3.0360 321.42 321.4  99.0 10     0.0000    0.0291
ML13         ?    BHZ  e P      d 20230914 1632   31.6181 GAU  5.62e-04 -1.00e+00  1.36e+02 -1.00e+00    1.0000 >    1.0784   -0.1539    0.0215  737.1780 9821.5410   -1.2220    3.9150 318.44 318.4  95.6 10     0.0000    0.0216
ML13         ?    BHN  e S      ? 20230914 1632   32.3058 GAU  2.14e-04 -1.00e+00 -1.00e+00 -1.00e+00    1.0000 >    1.8644   -0.2522    0.0128  737.1780 9821.5410   -1.2220    3.9150 318.44 318.4  96.0 10     0.0000    0.0373
ML07         ?    BHZ  i P      c 20230914 1632   32.0394 GAU  5.39e-04 -1.00e+00 -1.00e+00 -1.00e+00    1.0000 >    1.3135    0.0324    1.0978  737.4430 9822.8030   -1.1120    4.7966 330.91 330.9  93.6 10     0.0000    0.0263
ML07         ?    BHE  e S      ? 20230914 1632   32.9853 GAU  6.88e-05 -1.00e+00 -1.00e+00 -1.00e+00    1.0000 >    2.2722    0.0195    1.1249  737.4430 9822.8030   -1.1120    4.7966 330.91 330.9  93.8 10     0.0000    0.0454
ML12         ?    BHZ  e P      c 20230914 1632   32.1979 GAU  4.99e-04 -1.00e+00 -1.00e+00 -1.00e+00    1.0000 >    1.5129   -0.0086    1.4516  736.8520 9823.3800   -0.9890    5.5931 328.49 328.5  72.0 10     0.0000    0.0303
ML12         ?    BHN  e S      ? 20230914 1632   33.3142 GAU  6.04e-04 -1.00e+00 -1.00e+00 -1.00e+00    1.0000 >    2.6410   -0.0204    1.0125  736.8520 9823.3800   -0.9890    5.5931 328.49 328.5  92.6 10     0.0000    0.0528
END_PHASE
END_NLLOC

