NLLOC "./loc/SEML.20230928.084355.grid0" "LOCATED" "Location completed."
PUBLIC_ID None
SIGNATURE "Arham Zakki Edelo - edelo.17034@mhs.its.ac.id   obs:./obs/2023_09.obs   NLLoc:v7.00.10(30Aug2020)   run:22Jan2024 21h56m37"
COMMENT "SEML"
GRID  2001 2001 1001  727 9811 -2  0.01 0.01 0.01 PROB_DENSITY
SEARCH OCTREE nInitial 4851 nEvaluated 20003 smallestNodeSide 0.014881/0.014881/0.014205 oct_tree_integral 1.441606e-02 scatter_volume 1.423813e-02
HYPOCENTER  x 738.362 y 9818.39 z 0.890625  OT 54.7324  ix -1 iy -1 iz -1 MAXIMUM_LIKELIHOOD
GEOGRAPHIC  OT 2023 09 28  08 43 54.732379  Lat 9818.388393 Long 738.361607 Depth 0.890625
QUALITY  Pmax 1.2175e+58 MFmin 65.2337 MFmax 75.9755 RMS 0.0308954 Nphs 18 Gap 302.387 Dist 0.730433 Mamp -9.90 0 Mdur -9.90 0
VPVSRATIO  VpVsRatio 1.7207  Npair 9  Diff 0.730274
STATISTICS  ExpectX 738.498855 Y 9818.336671 Z 0.709150  CovXX 0.066697 XY -0.0205727 XZ -0.082877 YY 0.0152926 YZ 0.0290776 ZZ 0.132567 EllAz1  19.3978 Dip1  0.0453613 Len1  0.168814 Az2  289.431 Dip2  -35.7682 Len2  0.193853 Len3  8.314496e-01
STAT_GEOG  ExpectLat 9818.336671 Long 738.498855 Depth 0.709150
TRANSFORM  NONE
QML_OriginQuality  assocPhCt 18  usedPhCt 18  assocStaCt -1  usedStaCt 9  depthPhCt -1  stdErr 0.0308954  azGap 302.387  secAzGap 302.387  gtLevel -  minDist 0.730433 maxDist 5.21489 medDist 2.64053
QML_OriginUncertainty  horUnc -1  minHorUnc 0.136265  maxHorUnc 0.41232  azMaxHorUnc 109.337
QML_ConfidenceEllipsoid  semiMajorAxisLength 0.83145  semiMinorAxisLength 0.168814  semiIntermediateAxisLength 0.193853  majorAxisPlunge -54.2318  majorAxisAzimuth 109.335  majorAxisRotation 180.245
FOCALMECH  Hyp  9818.388393 738.361607 0.890625 Mech  0 0 0 mf  0 nObs -1
PHASE ID Ins Cmp On Pha  FM Date     HrMn   Sec     Err  ErrMag    Coda      Amp       Per       PriorWt  >   TTpred    Res       Weight    StaLoc(X  Y         Z)        SDist    SAzim  RAz  RDip RQual    Tcorr       TTerr
ML06         ?    BHZ  i P      c 20230928 0843   55.3703 GAU  9.55e-04 -1.00e+00 -1.00e+00 -1.00e+00    1.0000 >    0.6341    0.0038    1.7788  738.3100 9819.1170   -1.3960    0.7304 355.95 355.9 161.7 10     0.0000    0.0127
ML06         ?    BHN  e S      ? 20230928 0843   55.8371 GAU  5.20e-04 -1.00e+00 -1.00e+00 -1.00e+00    1.0000 >    1.0907    0.0139    1.3926  738.3100 9819.1170   -1.3960    0.7304 355.95 355.9 160.3 10     0.0000    0.0218
ML04         ?    BHZ  e P      c 20230928 0843   55.4911 GAU  3.50e-03 -1.00e+00  4.03e+02 -1.00e+00    1.0000 >    0.7628   -0.0041    1.7604  737.1400 9819.2520   -1.5710    1.4960 305.26 305.3 147.6 10     0.0000    0.0153
ML04         ?    BHN  e S      ? 20230928 0843   56.0325 GAU  1.14e-03 -1.00e+00  7.20e+02 -1.00e+00    1.0000 >    1.3121   -0.0120    1.4197  737.1400 9819.2520   -1.5710    1.4960 305.26 305.3 145.0 10     0.0000    0.0262
ML14         ?    BHZ  i P      c 20230928 0843   55.5094 GAU  1.25e-03 -1.00e+00 -1.00e+00 -1.00e+00    1.0000 >    0.7708    0.0062    1.6824  737.5530 9820.0110   -1.3980    1.8129 333.51 333.5 140.3 10     0.0000    0.0154
ML14         ?    BHE  e S      ? 20230928 0843   56.0377 GAU  4.70e-04 -1.00e+00  4.54e+02 -1.00e+00    1.0000 >    1.3252   -0.0199    1.2965  737.5530 9820.0110   -1.3980    1.8129 333.51 333.5 137.0 10     0.0000    0.0265
ML11         ?    BHZ  i P      c 20230928 0843   55.5112 GAU  1.79e-03 -1.00e+00 -1.00e+00 -1.00e+00    1.0000 >    0.8027   -0.0239    1.2779  738.4670 9820.4900   -1.3120    2.1042   2.87   2.9 134.8 10     0.0000    0.0161
ML11         ?    BHN  e S      ? 20230928 0843   56.0893 GAU  4.72e-04 -1.00e+00 -1.00e+00 -1.00e+00    1.0000 >    1.3795   -0.0225    1.2303  738.4670 9820.4900   -1.3120    2.1042   2.87   2.9 130.8 10     0.0000    0.0276
ML09         ?    BHZ  i P      c 20230928 0843   55.6298 GAU  4.69e-04 -1.00e+00  8.54e+01 -1.00e+00    1.0000 >    0.8983   -0.0008    1.7016  737.8820 9820.9850   -1.2700    2.6405 349.54 349.5 127.2 10     0.0000    0.0180
ML09         ?    BHE  e S      ? 20230928 0843   56.3081 GAU  1.60e-04 -1.00e+00  3.60e+02 -1.00e+00    1.0000 >    1.5424    0.0334    0.9239  737.8820 9820.9850   -1.2700    2.6405 349.54 349.5 122.0 10     0.0000    0.0308
ML13         ?    BHZ  e P      c 20230928 0843   55.7714 GAU  2.79e-03 -1.00e+00 -1.00e+00 -1.00e+00    1.0000 >    1.0455   -0.0065    1.6025  737.1780 9821.5410   -1.2220    3.3675 339.42 339.4 119.6 10     0.0000    0.0209
ML13         ?    BHE  e S      ? 20230928 0843   56.5363 GAU  1.67e-04 -1.00e+00 -1.00e+00 -1.00e+00    1.0000 >    1.7926    0.0113    1.1977  737.1780 9821.5410   -1.2220    3.3675 339.42 339.4 112.9 10     0.0000    0.0359
ML10         ?    BHZ  e P      c 20230928 0843   55.9184 GAU  1.41e-03 -1.00e+00 -1.00e+00 -1.00e+00    1.0000 >    1.0715    0.1145    0.1587  736.5490 9821.3650   -1.2200    3.4851 328.66 328.7 118.7 10     0.0000    0.0214
ML10         ?    BHN  e S      ? 20230928 0843   56.7967 GAU  6.07e-04 -1.00e+00  6.88e+01 -1.00e+00    1.0000 >    1.8366    0.2277    0.1352  736.5490 9821.3650   -1.2200    3.4851 328.66 328.7 111.8 10     0.0000    0.0367
ML07         ?    BHZ  i P      c 20230928 0843   56.1168 GAU  4.96e-04 -1.00e+00 -1.00e+00 -1.00e+00    1.0000 >    1.2939    0.0904    0.2217  737.4430 9822.8030   -1.1120    4.5092 348.25 348.2 111.0 10     0.0000    0.0259
ML07         ?    BHN  e S      ? 20230928 0843   57.1437 GAU  2.81e-04 -1.00e+00 -1.00e+00 -1.00e+00    1.0000 >    2.2092    0.2021    0.1382  737.4430 9822.8030   -1.1120    4.5092 348.25 348.2 102.9 10     0.0000    0.0442
ML12         ?    BHZ  e P      c 20230928 0843   56.4654 GAU  1.97e-03 -1.00e+00 -1.00e+00 -1.00e+00    1.0000 >    1.4492    0.2838    0.0812  736.8520 9823.3800   -0.9890    5.2149 343.17 343.2 106.8 10     0.0000    0.0290
ML12         ?    BHN  e S      ? 20230928 0843   57.6624 GAU  5.72e-04 -1.00e+00 -1.00e+00 -1.00e+00    1.0000 >    2.4629    0.4670    0.0006  736.8520 9823.3800   -0.9890    5.2149 343.17 343.2  99.1 10     0.0000    0.0493
END_PHASE
END_NLLOC

