NLLOC "./loc/SEML.20230914.162334.grid0" "LOCATED" "Location completed."
PUBLIC_ID None
SIGNATURE "Arham Zakki Edelo - edelo.17034@mhs.its.ac.id   obs:./obs/2023_09.obs   NLLoc:v7.00.10(30Aug2020)   run:22Jan2024 21h54m05"
COMMENT "SEML"
GRID  2001 2001 1001  727 9811 -2  0.01 0.01 0.01 PROB_DENSITY
SEARCH OCTREE nInitial 4851 nEvaluated 20011 smallestNodeSide 0.014881/0.014881/0.014205 oct_tree_integral 5.133731e-02 scatter_volume 5.133731e-02
HYPOCENTER  x 737.938 y 9818.07 z 0.911932  OT 33.8985  ix -1 iy -1 iz -1 MAXIMUM_LIKELIHOOD
GEOGRAPHIC  OT 2023 09 14  16 23 33.898537  Lat 9818.068452 Long 737.937500 Depth 0.911932
QUALITY  Pmax 5.83478e+81 MFmin 84.7466 MFmax 104.067 RMS 0.0362999 Nphs 24 Gap 295.379 Dist 1.11275 Mamp -9.90 0 Mdur -9.90 0
VPVSRATIO  VpVsRatio 1.78067  Npair 12  Diff 0.706352
STATISTICS  ExpectX 738.037429 Y 9818.054517 Z 0.880819  CovXX 0.0351654 XY 0.00650396 XZ -0.00241754 YY 0.0304107 YZ -0.00742269 ZZ 0.0290742 EllAz1  342.197 Dip1  40.4975 Len1  0.276541 Az2  294.265 Dip2  -38.116 Len2  0.326252 Len3  3.888447e-01
STAT_GEOG  ExpectLat 9818.054517 Long 738.037429 Depth 0.880819
TRANSFORM  NONE
QML_OriginQuality  assocPhCt 24  usedPhCt 24  assocStaCt -1  usedStaCt 12  depthPhCt -1  stdErr 0.0362999  azGap 295.379  secAzGap 295.379  gtLevel -  minDist 1.11275 maxDist 5.42133 medDist 2.9483
QML_OriginUncertainty  horUnc -1  minHorUnc 0.243896  maxHorUnc 0.302224  azMaxHorUnc 55.0392
QML_ConfidenceEllipsoid  semiMajorAxisLength 0.388845  semiMinorAxisLength 0.276541  semiIntermediateAxisLength 0.326252  majorAxisPlunge -26.368  majorAxisAzimuth 47.1514  majorAxisRotation 119.921
FOCALMECH  Hyp  9818.068452 737.937500 0.911932 Mech  0 0 0 mf  0 nObs -1
PHASE ID Ins Cmp On Pha  FM Date     HrMn   Sec     Err  ErrMag    Coda      Amp       Per       PriorWt  >   TTpred    Res       Weight    StaLoc(X  Y         Z)        SDist    SAzim  RAz  RDip RQual    Tcorr       TTerr
ML06         ?    BHZ  i P      c 20230914 1623   34.5598 GAU  5.15e-03 -1.00e+00  7.46e+04 -1.00e+00    1.0000 >    0.6766   -0.0153    1.5281  738.3100 9819.1170   -1.3960    1.1127  19.56  19.6 153.5 10     0.0000    0.0135
ML06         ?    BHE  e S      ? 20230914 1623   35.0760 GAU  4.27e-03 -1.00e+00  3.42e+03 -1.00e+00    1.0000 >    1.1629    0.0146    1.4875  738.3100 9819.1170   -1.3960    1.1127  19.56  19.6 151.5 10     0.0000    0.0233
ML04         ?    BHZ  e P      c 20230914 1623   34.6664 GAU  2.43e-03 -1.00e+00 -1.00e+00 -1.00e+00    1.0000 >    0.7582    0.0096    1.6205  737.1400 9819.2520   -1.5710    1.4272 326.03 326.0 149.1 10     0.0000    0.0152
ML04         ?    BHE  e S      ? 20230914 1623   35.1914 GAU  1.51e-03 -1.00e+00 -1.00e+00 -1.00e+00    1.0000 >    1.3034   -0.0106    1.4674  737.1400 9819.2520   -1.5710    1.4272 326.03 326.0 146.7 10     0.0000    0.0261
ML02         ?    BHZ  e P      c 20230914 1623   34.7745 GAU  2.02e-03 -1.00e+00 -1.00e+00 -1.00e+00    1.0000 >    0.8098    0.0661    0.6596  736.5970 9819.4060   -1.4960    1.8937 314.94 314.9 140.5 10     0.0000    0.0162
ML02         ?    BHE  e S      ? 20230914 1623   35.3835 GAU  1.51e-03 -1.00e+00  6.61e+04 -1.00e+00    1.0000 >    1.3916    0.0934    0.5302  736.5970 9819.4060   -1.4960    1.8937 314.94 314.9 137.2 10     0.0000    0.0278
ML14         ?    BHZ  e P      c 20230914 1623   34.7225 GAU  1.86e-03 -1.00e+00 -1.00e+00 -1.00e+00    1.0000 >    0.8029    0.0211    1.4057  737.5530 9820.0110   -1.3980    1.9802 348.80 348.8 138.0 10     0.0000    0.0161
ML14         ?    BHN  e S      ? 20230914 1623   35.1741 GAU  4.97e-03 -1.00e+00 -1.00e+00 -1.00e+00    1.0000 >    1.3793   -0.1037    0.2286  737.5530 9820.0110   -1.3980    1.9802 348.80 348.8 134.3 10     0.0000    0.0276
ML11         ?    BHZ  e P      d 20230914 1623   34.7699 GAU  7.88e-03 -1.00e+00  3.01e+03 -1.00e+00    1.0000 >    0.8772   -0.0059    1.6178  738.4670 9820.4900   -1.3120    2.4788  12.33  12.3 130.0 10     0.0000    0.0175
ML11         ?    BHN  i S      ? 20230914 1623   35.4493 GAU  5.89e-03 -1.00e+00 -1.00e+00 -1.00e+00    1.0000 >    1.5058    0.0450    1.0636  738.4670 9820.4900   -1.3120    2.4788  12.33  12.3 125.3 10     0.0000    0.0301
ML09         ?    BHZ  e P      c 20230914 1623   34.8661 GAU  2.24e-03 -1.00e+00 -1.00e+00 -1.00e+00    1.0000 >    0.9588    0.0088    1.5965  737.8820 9820.9850   -1.2700    2.9171 358.91 358.9 124.6 10     0.0000    0.0192
ML09         ?    BHE  e S      ? 20230914 1623   35.5147 GAU  2.37e-03 -1.00e+00  1.87e+03 -1.00e+00    1.0000 >    1.6446   -0.0284    1.1576  737.8820 9820.9850   -1.2700    2.9171 358.91 358.9 119.0 10     0.0000    0.0329
ML03         ?    BHZ  e P      c 20230914 1623   34.8588 GAU  6.03e-03 -1.00e+00 -1.00e+00 -1.00e+00    1.0000 >    0.9834   -0.0231    1.3256  736.8800 9820.8540   -1.3350    2.9795 339.21 339.2 124.7 10     0.0000    0.0197
ML03         ?    BHE  e S      ? 20230914 1623   35.5951 GAU  1.44e-02 -1.00e+00 -1.00e+00 -1.00e+00    1.0000 >    1.6871    0.0095    1.3568  736.8800 9820.8540   -1.3350    2.9795 339.21 339.2 119.1 10     0.0000    0.0337
ML13         ?    BHZ  e P      c 20230914 1623   34.9829 GAU  3.22e-03 -1.00e+00  5.40e+03 -1.00e+00    1.0000 >    1.0900   -0.0057    1.5750  737.1780 9821.5410   -1.2220    3.5546 347.66 347.7 118.4 10     0.0000    0.0218
ML13         ?    BHN  e S      ? 20230914 1623   35.7134 GAU  1.55e-03 -1.00e+00 -1.00e+00 -1.00e+00    1.0000 >    1.8669   -0.0521    0.8033  737.1780 9821.5410   -1.2220    3.5546 347.66 347.7 111.6 10     0.0000    0.0373
ML10         ?    BHZ  e P      c 20230914 1623   34.9655 GAU  2.22e-03 -1.00e+00 -1.00e+00 -1.00e+00    1.0000 >    1.0947   -0.0278    1.2133  736.5490 9821.3650   -1.2200    3.5770 337.16 337.2 118.2 10     0.0000    0.0219
ML10         ?    BHE  e S      ? 20230914 1623   35.8394 GAU  4.62e-03 -1.00e+00 -1.00e+00 -1.00e+00    1.0000 >    1.8749    0.0660    0.8471  736.5490 9821.3650   -1.2200    3.5770 337.16 337.2 111.4 10     0.0000    0.0375
ML01         ?    BHZ  e P      d 20230914 1623   35.1262 GAU  7.21e-03 -1.00e+00  1.66e+04 -1.00e+00    1.0000 >    1.3428   -0.1151    0.1853  736.4090 9822.5140   -1.1200    4.7010 341.03 341.0 110.4 10     0.0000    0.0269
ML01         ?    BHE  e S      ? 20230914 1623   35.9574 GAU  2.38e-03 -1.00e+00 -1.00e+00 -1.00e+00    1.0000 >    2.2898   -0.2310    0.0140  736.4090 9822.5140   -1.1200    4.7010 341.03 341.0 102.5 10     0.0000    0.0458
ML07         ?    BHZ  e P      c 20230914 1623   35.3503 GAU  2.07e-03 -1.00e+00 -1.00e+00 -1.00e+00    1.0000 >    1.3560    0.0958    0.5072  737.4430 9822.8030   -1.1120    4.7603 354.04 354.0 110.0 10     0.0000    0.0271
ML07         ?    BHE  e S      ? 20230914 1623   36.3685 GAU  2.17e-03 -1.00e+00 -1.00e+00 -1.00e+00    1.0000 >    2.3116    0.1584    0.2068  737.4430 9822.8030   -1.1120    4.7603 354.04 354.0 102.1 10     0.0000    0.0462
ML12         ?    BHZ  e P      c 20230914 1623   35.4279 GAU  3.48e-03 -1.00e+00 -1.00e+00 -1.00e+00    1.0000 >    1.5013    0.0281    1.2835  736.8520 9823.3800   -0.9890    5.4213 348.45 348.4 106.3 10     0.0000    0.0300
ML12         ?    BHE  e S      ? 20230914 1623   36.5859 GAU  4.42e-03 -1.00e+00  5.08e+02 -1.00e+00    1.0000 >    2.5475    0.1398    0.3189  736.8520 9823.3800   -0.9890    5.4213 348.45 348.4  84.2  9     0.0000    0.0510
END_PHASE
END_NLLOC

