NLLOC "./loc/SEML.20230921.035010.grid0" "LOCATED" "Location completed."
PUBLIC_ID None
SIGNATURE "Arham Zakki Edelo - edelo.17034@mhs.its.ac.id   obs:./obs/2023_09.obs   NLLoc:v7.00.10(30Aug2020)   run:22Jan2024 21h55m27"
COMMENT "SEML"
GRID  2001 2001 1001  727 9811 -2  0.01 0.01 0.01 PROB_DENSITY
SEARCH OCTREE nInitial 4851 nEvaluated 20003 smallestNodeSide 0.014881/0.014881/0.014205 oct_tree_integral 3.610480e-02 scatter_volume 3.610480e-02
HYPOCENTER  x 738.168 y 9818.79 z 1.01847  OT 10.3195  ix -1 iy -1 iz -1 MAXIMUM_LIKELIHOOD
GEOGRAPHIC  OT 2023 09 21  03 50 10.319493  Lat 9818.790179 Long 738.168155 Depth 1.018466
QUALITY  Pmax 3.92014e+49 MFmin 61.2974 MFmax 73.8827 RMS 0.0246029 Nphs 16 Gap 270.727 Dist 0.356276 Mamp -9.90 0 Mdur -9.90 0
VPVSRATIO  VpVsRatio 1.76076  Npair 8  Diff 0.463922
STATISTICS  ExpectX 738.110921 Y 9818.708164 Z 0.921724  CovXX 0.131541 XY 0.0318607 XZ 0.0149098 YY 0.0292029 YZ 0.0150618 ZZ 0.0353556 EllAz1  168.757 Dip1  29.3333 Len1  0.224203 Az2  326.763 Dip2  58.7823 Len2  0.366433 Len3  7.125254e-01
STAT_GEOG  ExpectLat 9818.708164 Long 738.110921 Depth 0.921724
TRANSFORM  NONE
QML_OriginQuality  assocPhCt 16  usedPhCt 16  assocStaCt -1  usedStaCt 8  depthPhCt -1  stdErr 0.0246029  azGap 270.727  secAzGap 270.727  gtLevel -  minDist 0.356276 maxDist 3.80274 medDist 1.96964
QML_OriginUncertainty  horUnc -1  minHorUnc 0.214982  maxHorUnc 0.568766  azMaxHorUnc 74.0457
QML_ConfidenceEllipsoid  semiMajorAxisLength 0.712525  semiMinorAxisLength 0.224203  semiIntermediateAxisLength 0.366433  majorAxisPlunge 9.74242  majorAxisAzimuth 73.2201  majorAxisRotation 31.2842
FOCALMECH  Hyp  9818.790179 738.168155 1.018466 Mech  0 0 0 mf  0 nObs -1
PHASE ID Ins Cmp On Pha  FM Date     HrMn   Sec     Err  ErrMag    Coda      Amp       Per       PriorWt  >   TTpred    Res       Weight    StaLoc(X  Y         Z)        SDist    SAzim  RAz  RDip RQual    Tcorr       TTerr
ML06         ?    BHZ  i P      d 20230921 0350   10.9600 GAU  2.42e-03 -1.00e+00  6.13e+02 -1.00e+00    1.0000 >    0.6432   -0.0027    1.8241  738.3100 9819.1170   -1.3960    0.3563  23.46  23.5 170.5 10     0.0000    0.0129
ML06         ?    BHN  e S      ? 20230921 0350   11.4293 GAU  1.73e-04 -1.00e+00 -1.00e+00 -1.00e+00    1.0000 >    1.1026    0.0071    1.6158  738.3100 9819.1170   -1.3960    0.3563  23.46  23.5 170.0 10     0.0000    0.0221
ML04         ?    BHZ  e P      d 20230921 0350   10.9815 GAU  4.59e-04 -1.00e+00  1.32e+03 -1.00e+00    1.0000 >    0.7464   -0.0844    0.0708  737.1400 9819.2520   -1.5710    1.1271 294.19 294.2 153.4 10     0.0000    0.0149
ML04         ?    BHE  e S      ? 20230921 0350   11.4621 GAU  6.93e-04 -1.00e+00  3.78e+02 -1.00e+00    1.0000 >    1.2799   -0.1373    0.0424  737.1400 9819.2520   -1.5710    1.1271 294.19 294.2 152.2 10     0.0000    0.0256
ML14         ?    BHZ  e P      c 20230921 0350   11.0730 GAU  2.89e-04 -1.00e+00 -1.00e+00 -1.00e+00    1.0000 >    0.7316    0.0218    1.3650  737.5530 9820.0110   -1.3980    1.3670 333.26 333.3 146.7 10     0.0000    0.0146
ML14         ?    BHE  e S      ? 20230921 0350   11.5568 GAU  8.11e-04 -1.00e+00  4.14e+02 -1.00e+00    1.0000 >    1.2539   -0.0166    1.3184  737.5530 9820.0110   -1.3980    1.3670 333.26 333.3 145.1 10     0.0000    0.0251
ML11         ?    BHZ  e P      c 20230921 0350   11.0825 GAU  5.39e-04 -1.00e+00 -1.00e+00 -1.00e+00    1.0000 >    0.7628    0.0002    1.8070  738.4670 9820.4900   -1.3120    1.7259   9.97  10.0 138.6 10     0.0000    0.0153
ML11         ?    BHN  e S      ? 20230921 0350   11.6449 GAU  1.24e-03 -1.00e+00 -1.00e+00 -1.00e+00    1.0000 >    1.3066    0.0187    1.3807  738.4670 9820.4900   -1.3120    1.7259   9.97  10.0 136.5 10     0.0000    0.0261
ML09         ?    BHZ  e P      c 20230921 0350   11.1404 GAU  8.98e-04 -1.00e+00 -1.00e+00 -1.00e+00    1.0000 >    0.8364   -0.0155    1.4377  737.8820 9820.9850   -1.2700    2.2134 352.57 352.6 129.3 10     0.0000    0.0167
ML09         ?    BHN  e S      ? 20230921 0350   11.7592 GAU  5.05e-04 -1.00e+00  4.82e+02 -1.00e+00    1.0000 >    1.4318    0.0079    1.4493  737.8820 9820.9850   -1.2700    2.2134 352.57 352.6 126.6 10     0.0000    0.0286
ML13         ?    BHZ  e P      d 20230921 0350   11.2870 GAU  1.28e-03 -1.00e+00  3.43e+02 -1.00e+00    1.0000 >    0.9666    0.0010    1.7049  737.1780 9821.5410   -1.2220    2.9236 340.20 340.2 117.8 10     0.0000    0.0193
ML13         ?    BHN  e S      ? 20230921 0350   11.9757 GAU  1.50e-04 -1.00e+00 -1.00e+00 -1.00e+00    1.0000 >    1.6526    0.0036    1.3602  737.1780 9821.5410   -1.2220    2.9236 340.20 340.2 113.9 10     0.0000    0.0331
ML10         ?    BHZ  e P      c 20230921 0350   11.3824 GAU  3.12e-04 -1.00e+00 -1.00e+00 -1.00e+00    1.0000 >    0.9909    0.0720    0.2403  736.5490 9821.3650   -1.2200    3.0416 327.84 327.8 116.2 10     0.0000    0.0198
ML10         ?    BHN  e S      ? 20230921 0350   12.1492 GAU  3.11e-04 -1.00e+00  6.54e+01 -1.00e+00    1.0000 >    1.6939    0.1358    0.2037  736.5490 9821.3650   -1.2200    3.0416 327.84 327.8 112.1 10     0.0000    0.0339
ML05         ?    BHZ  e P      c 20230921 0350   11.6030 GAU  5.09e-04 -1.00e+00 -1.00e+00 -1.00e+00    1.0000 >    1.1467    0.1368    0.1705  736.2660 9822.0830   -1.1500    3.8027 329.99 330.0 105.5 10     0.0000    0.0229
ML05         ?    BHN  e S      ? 20230921 0350   12.5362 GAU  1.31e-04 -1.00e+00  2.66e+02 -1.00e+00    1.0000 >    1.9558    0.2610    0.0093  736.2660 9822.0830   -1.1500    3.8027 329.99 330.0  99.2  9     0.0000    0.0391
END_PHASE
END_NLLOC

