NLLOC "./loc/SEML.20230928.080240.grid0" "LOCATED" "Location completed."
PUBLIC_ID None
SIGNATURE "Arham Zakki Edelo - edelo.17034@mhs.its.ac.id   obs:./obs/2023_09.obs   NLLoc:v7.00.10(30Aug2020)   run:22Jan2024 21h55m56"
COMMENT "SEML"
GRID  2001 2001 1001  727 9811 -2  0.01 0.01 0.01 PROB_DENSITY
SEARCH OCTREE nInitial 4851 nEvaluated 20019 smallestNodeSide 0.014881/0.014881/0.014205 oct_tree_integral 6.791991e-02 scatter_volume 6.791991e-02
HYPOCENTER  x 738.659 y 9818.17 z 0.237216  OT 40.3093  ix -1 iy -1 iz -1 MAXIMUM_LIKELIHOOD
GEOGRAPHIC  OT 2023 09 28  08 02 40.309346  Lat 9818.165179 Long 738.659226 Depth 0.237216
QUALITY  Pmax 1.94591e+73 MFmin 80.9144 MFmax 100.293 RMS 0.036633 Nphs 22 Gap 305.762 Dist 1.01387 Mamp -9.90 0 Mdur -9.90 0
VPVSRATIO  VpVsRatio 1.787  Npair 11  Diff 0.50663
STATISTICS  ExpectX 738.912164 Y 9818.258601 Z 0.189898  CovXX 0.0501729 XY 0.0115482 XZ -0.0202039 YY 0.0176971 YZ -0.00412299 ZZ 0.0512625 EllAz1  339.875 Dip1  -4.7037 Len1  0.220926 Az2  244.921 Dip2  -46.3868 Len2  0.336953 Len3  5.081265e-01
STAT_GEOG  ExpectLat 9818.258601 Long 738.912164 Depth 0.189898
TRANSFORM  NONE
QML_OriginQuality  assocPhCt 22  usedPhCt 22  assocStaCt -1  usedStaCt 11  depthPhCt -1  stdErr 0.036633  azGap 305.762  secAzGap 305.762  gtLevel -  minDist 1.01387 maxDist 4.89651 medDist 2.92497
QML_OriginUncertainty  horUnc -1  minHorUnc 0.179504  maxHorUnc 0.351965  azMaxHorUnc 72.29
QML_ConfidenceEllipsoid  semiMajorAxisLength 0.508126  semiMinorAxisLength 0.220926  semiIntermediateAxisLength 0.336953  majorAxisPlunge -43.2273  majorAxisAzimuth 74.3109  majorAxisRotation 241.366
FOCALMECH  Hyp  9818.165179 738.659226 0.237216 Mech  0 0 0 mf  0 nObs -1
PHASE ID Ins Cmp On Pha  FM Date     HrMn   Sec     Err  ErrMag    Coda      Amp       Per       PriorWt  >   TTpred    Res       Weight    StaLoc(X  Y         Z)        SDist    SAzim  RAz  RDip RQual    Tcorr       TTerr
ML06         ?    BHZ  i P      c 20230928 0802   40.9725 GAU  6.47e-04 -1.00e+00 -1.00e+00 -1.00e+00    1.0000 >    0.5132    0.1499    0.1422  738.3100 9819.1170   -1.3960    1.0139 339.85 339.9 147.1 10     0.0000    0.0103
ML06         ?    BHN  e S      ? 20230928 0802   41.4599 GAU  1.65e-03 -1.00e+00 -1.00e+00 -1.00e+00    1.0000 >    0.8967    0.2538    0.0001  738.3100 9819.1170   -1.3960    1.0139 339.85 339.9 146.5 10     0.0000    0.0179
ML04         ?    BHZ  e P      c 20230928 0802   40.9959 GAU  2.20e-03 -1.00e+00 -1.00e+00 -1.00e+00    1.0000 >    0.6955   -0.0089    1.6082  737.1400 9819.2520   -1.5710    1.8679 305.58 305.6 132.0 10     0.0000    0.0139
ML04         ?    BHE  e S      ? 20230928 0802   41.5161 GAU  8.67e-04 -1.00e+00  2.74e+02 -1.00e+00    1.0000 >    1.2139   -0.0071    1.5059  737.1400 9819.2520   -1.5710    1.8679 305.58 305.6 131.0 10     0.0000    0.0243
ML14         ?    BHZ  i P      c 20230928 0802   41.0381 GAU  4.18e-03 -1.00e+00 -1.00e+00 -1.00e+00    1.0000 >    0.7211    0.0077    1.6942  737.5530 9820.0110   -1.3980    2.1519 329.07 329.1 124.8 10     0.0000    0.0144
ML14         ?    BHN  e S      ? 20230928 0802   41.5761 GAU  5.72e-04 -1.00e+00  5.55e+02 -1.00e+00    1.0000 >    1.2601    0.0066    1.5488  737.5530 9820.0110   -1.3980    2.1519 329.07 329.1 123.4 10     0.0000    0.0252
ML11         ?    BHZ  i P      c 20230928 0802   41.0796 GAU  1.40e-03 -1.00e+00 -1.00e+00 -1.00e+00    1.0000 >    0.7459    0.0243    1.3915  738.4670 9820.4900   -1.3120    2.3328 355.27 355.3 121.0 10     0.0000    0.0149
ML11         ?    BHN  e S      ? 20230928 0802   41.6391 GAU  1.12e-03 -1.00e+00  1.00e+01 -1.00e+00    1.0000 >    1.3044    0.0253    1.3690  738.4670 9820.4900   -1.3120    2.3328 355.27 355.3 119.3 10     0.0000    0.0261
ML02         ?    BHZ  i P      d 20230928 0802   41.1890 GAU  3.47e-04 -1.00e+00  2.25e+02 -1.00e+00    1.0000 >    0.7925    0.0871    0.4708  736.5970 9819.4060   -1.4960    2.4067 301.03 301.0 123.1 10     0.0000    0.0159
ML02         ?    BHE  e S      ? 20230928 0802   41.8170 GAU  9.61e-04 -1.00e+00  5.43e+03 -1.00e+00    1.0000 >    1.3840    0.1236    0.3373  736.5970 9819.4060   -1.4960    2.4067 301.03 301.0 121.6 10     0.0000    0.0277
ML09         ?    BHZ  i P      c 20230928 0802   41.1739 GAU  1.83e-03 -1.00e+00  1.16e+02 -1.00e+00    1.0000 >    0.8754   -0.0108    1.5448  737.8820 9820.9850   -1.2700    2.9250 344.59 344.6 114.2 10     0.0000    0.0175
ML09         ?    BHE  e S      ? 20230928 0802   41.8192 GAU  1.21e-03 -1.00e+00  4.71e+02 -1.00e+00    1.0000 >    1.5317   -0.0218    1.2230  737.8820 9820.9850   -1.2700    2.9250 344.59 344.6 111.8 10     0.0000    0.0306
ML13         ?    BHZ  i P      c 20230928 0802   41.2850 GAU  1.52e-03 -1.00e+00 -1.00e+00 -1.00e+00    1.0000 >    1.0528   -0.0771    0.2177  737.1780 9821.5410   -1.2220    3.6865 336.31 336.3 108.1 10     0.0000    0.0211
ML13         ?    BHE  e S      ? 20230928 0802   41.9636 GAU  1.15e-03 -1.00e+00 -1.00e+00 -1.00e+00    1.0000 >    1.8431   -0.1888    0.0063  737.1780 9821.5410   -1.2220    3.6865 336.31 336.3 104.8 10     0.0000    0.0369
ML10         ?    BHZ  e P      d 20230928 0802   41.4647 GAU  1.56e-03 -1.00e+00  2.46e+03 -1.00e+00    1.0000 >    1.0887    0.0667    0.6947  736.5490 9821.3650   -1.2200    3.8330 326.60 326.6 107.3 10     0.0000    0.0218
ML10         ?    BHE  e S      ? 20230928 0802   42.2921 GAU  4.68e-04 -1.00e+00 -1.00e+00 -1.00e+00    1.0000 >    1.9058    0.0769    0.7374  736.5490 9821.3650   -1.2200    3.8330 326.60 326.6 103.7 10     0.0000    0.0381
ML05         ?    BHZ  e P      d 20230928 0802   41.6046 GAU  2.56e-03 -1.00e+00  7.04e+01 -1.00e+00    1.0000 >    1.2698    0.0255    1.3702  736.2660 9822.0830   -1.1500    4.5910 328.58 328.6 103.2 10     0.0000    0.0254
ML05         ?    BHE  e S      ? 20230928 0802   42.5840 GAU  5.62e-04 -1.00e+00 -1.00e+00 -1.00e+00    1.0000 >    2.2236    0.0511    1.0171  736.2660 9822.0830   -1.1500    4.5910 328.58 328.6  98.8 10     0.0000    0.0445
ML07         ?    BHZ  i P      d 20230928 0802   41.6104 GAU  9.98e-04 -1.00e+00 -1.00e+00 -1.00e+00    1.0000 >    1.3171   -0.0161    1.3542  737.4430 9822.8030   -1.1120    4.7946 345.31 345.3 102.2 10     0.0000    0.0263
ML07         ?    BHN  e S      ? 20230928 0802   42.6007 GAU  1.30e-03 -1.00e+00 -1.00e+00 -1.00e+00    1.0000 >    2.3066   -0.0152    1.1433  737.4430 9822.8030   -1.1120    4.7946 345.31 345.3  97.7 10     0.0000    0.0461
ML01         ?    BHZ  e P      d 20230928 0802   41.6511 GAU  5.98e-04 -1.00e+00  1.05e+03 -1.00e+00    1.0000 >    1.3437   -0.0020    1.5032  736.4090 9822.5140   -1.1200    4.8965 332.64 332.6 101.9 10     0.0000    0.0269
ML01         ?    BHE  e S      ? 20230928 0802   42.6451 GAU  1.95e-03 -1.00e+00  5.42e+02 -1.00e+00    1.0000 >    2.3528   -0.0171    1.1203  736.4090 9822.5140   -1.1200    4.8965 332.64 332.6  97.5 10     0.0000    0.0471
END_PHASE
END_NLLOC

