NLLOC "./loc/SEML.20230914.171603.grid0" "LOCATED" "Location completed."
PUBLIC_ID None
SIGNATURE "Arham Zakki Edelo - edelo.17034@mhs.its.ac.id   obs:./obs/2023_09.obs   NLLoc:v7.00.10(30Aug2020)   run:22Jan2024 21h54m57"
COMMENT "SEML"
GRID  2001 2001 1001  727 9811 -2  0.01 0.01 0.01 PROB_DENSITY
SEARCH OCTREE nInitial 4851 nEvaluated 20035 smallestNodeSide 0.007440/0.007440/0.007102 oct_tree_integral 3.860847e-03 scatter_volume 3.860847e-03
HYPOCENTER  x 737.83 y 9819.42 z -1.60582  OT 3.19379  ix -1 iy -1 iz -1 MAXIMUM_LIKELIHOOD
GEOGRAPHIC  OT 2023 09 14  17 16 3.193791  Lat 9819.418899 Long 737.829613 Depth -1.605824
QUALITY  Pmax 7.22067e+28 MFmin 57.2172 MFmax 66.7201 RMS 0.00788003 Nphs 10 Gap 212.812 Dist 0.567375 Mamp -9.90 0 Mdur -9.90 0
VPVSRATIO  VpVsRatio 1.91478  Npair 5  Diff 0.320687
STATISTICS  ExpectX 737.870894 Y 9819.375572 Z -1.339726  CovXX 0.0278455 XY -0.00330942 XZ 0.0229951 YY 0.00259867 YZ -0.00803498 ZZ 0.092332 EllAz1  183.593 Dip1  -4.15604 Len1  0.0798413 Az2  272.243 Dip2  17.9684 Len2  0.269085 Len3  5.954984e-01
STAT_GEOG  ExpectLat 9819.375572 Long 737.870894 Depth -1.339726
TRANSFORM  NONE
QML_OriginQuality  assocPhCt 10  usedPhCt 10  assocStaCt -1  usedStaCt 5  depthPhCt -1  stdErr 0.00788003  azGap 212.812  secAzGap 212.812  gtLevel -  minDist 0.567375 maxDist 3.40611 medDist 1.2464
QML_OriginUncertainty  horUnc -1  minHorUnc 0.0706808  maxHorUnc 0.255001  azMaxHorUnc 97.3452
QML_ConfidenceEllipsoid  semiMajorAxisLength 0.595498  semiMinorAxisLength 0.0798413  semiIntermediateAxisLength 0.269085  majorAxisPlunge 71.525  majorAxisAzimuth 106.155  majorAxisRotation 16.3816
FOCALMECH  Hyp  9819.418899 737.829613 -1.605824 Mech  0 0 0 mf  0 nObs -1
PHASE ID Ins Cmp On Pha  FM Date     HrMn   Sec     Err  ErrMag    Coda      Amp       Per       PriorWt  >   TTpred    Res       Weight    StaLoc(X  Y         Z)        SDist    SAzim  RAz  RDip RQual    Tcorr       TTerr
ML06         ?    BHZ  e P      c 20230914 1716    3.3400 GAU  2.01e-03 -1.00e+00 -1.00e+00 -1.00e+00    1.0000 >    0.1663   -0.0201    0.6477  738.3100 9819.1170   -1.3960    0.5674 122.15 122.1  69.7 10     0.0000    0.0033
ML06         ?    BHN  i S      ? 20230914 1716    3.4815 GAU  1.76e-04 -1.00e+00 -1.00e+00 -1.00e+00    1.0000 >    0.2869    0.0009    2.0391  738.3100 9819.1170   -1.3960    0.5674 122.15 122.1  69.7 10     0.0000    0.0057
ML14         ?    BHZ  e P      d 20230914 1716    3.5439 GAU  1.24e-03 -1.00e+00  9.98e+02 -1.00e+00    1.0000 >    0.1885    0.1615    0.0000  737.5530 9820.0110   -1.3980    0.6535 334.96 335.0  72.3 10     0.0000    0.0038
ML14         ?    BHE  e S      ? 20230914 1716    3.7560 GAU  1.12e-03 -1.00e+00  3.85e+02 -1.00e+00    1.0000 >    0.3252    0.2370    0.0000  737.5530 9820.0110   -1.3980    0.6535 334.96 335.0  72.3 10     0.0000    0.0065
ML11         ?    BHZ  e P      c 20230914 1716    3.5448 GAU  1.86e-03 -1.00e+00 -1.00e+00 -1.00e+00    1.0000 >    0.3521   -0.0011    2.0307  738.4670 9820.4900   -1.3120    1.2464  30.76  30.8  76.6 10     0.0000    0.0070
ML11         ?    BHE  e S      ? 20230914 1716    3.7974 GAU  2.41e-04 -1.00e+00 -1.00e+00 -1.00e+00    1.0000 >    0.6075   -0.0038    1.8065  738.4670 9820.4900   -1.3120    1.2464  30.76  30.8  76.6 10     0.0000    0.0121
ML09         ?    BHZ  e P      c 20230914 1716    3.6358 GAU  6.76e-04 -1.00e+00  5.97e+01 -1.00e+00    1.0000 >    0.4406    0.0014    1.8882  737.8820 9820.9850   -1.2700    1.5670   1.92   1.9  77.8 10     0.0000    0.0088
ML09         ?    BHN  e S      ? 20230914 1716    3.9451 GAU  1.92e-04 -1.00e+00  4.75e+02 -1.00e+00    1.0000 >    0.7602   -0.0089    1.5877  737.8820 9820.9850   -1.2700    1.5670   1.92   1.9  77.8 10     0.0000    0.0152
ML07         ?    BHZ  e P      c 20230914 1716    3.8022 GAU  3.01e-04 -1.00e+00 -1.00e+00 -1.00e+00    1.0000 >    0.9461   -0.3376    0.0000  737.4430 9822.8030   -1.1120    3.4061 353.48 353.5  81.6 10     0.0000    0.0189
ML07         ?    BHE  e S      ? 20230914 1716    4.2645 GAU  6.86e-04 -1.00e+00 -1.00e+00 -1.00e+00    1.0000 >    1.6321   -0.5614    0.0000  737.4430 9822.8030   -1.1120    3.4061 353.48 353.5  81.6 10     0.0000    0.0326
END_PHASE
END_NLLOC

