NLLOC "./loc/SEML.20230928.075612.grid0" "LOCATED" "Location completed."
PUBLIC_ID None
SIGNATURE "Arham Zakki Edelo - edelo.17034@mhs.its.ac.id   obs:./obs/2023_09.obs   NLLoc:v7.00.10(30Aug2020)   run:22Jan2024 21h55m50"
COMMENT "SEML"
GRID  2001 2001 1001  727 9811 -2  0.01 0.01 0.01 PROB_DENSITY
SEARCH OCTREE nInitial 4851 nEvaluated 20003 smallestNodeSide 0.014881/0.014881/0.014205 oct_tree_integral 3.771229e-02 scatter_volume 3.744422e-02
HYPOCENTER  x 738.659 y 9818.45 z 0.492898  OT 11.4866  ix -1 iy -1 iz -1 MAXIMUM_LIKELIHOOD
GEOGRAPHIC  OT 2023 09 28  07 56 11.486618  Lat 9818.447917 Long 738.659226 Depth 0.492898
QUALITY  Pmax 6.80708e+62 MFmin 76.6505 MFmax 92.7722 RMS 0.0427444 Nphs 20 Gap 300.297 Dist 0.754739 Mamp -9.90 0 Mdur -9.90 0
VPVSRATIO  VpVsRatio 1.72007  Npair 10  Diff 0.644934
STATISTICS  ExpectX 738.597041 Y 9818.419323 Z 0.686345  CovXX 0.0717092 XY -0.00308183 XZ -0.0552705 YY 0.0101139 YZ -0.0063792 ZZ 0.117126 EllAz1  10.2609 Dip1  8.44947 Len1  0.174165 Az2  285.677 Dip2  -32.4338 Len2  0.356956 Len3  7.379296e-01
STAT_GEOG  ExpectLat 9818.419323 Long 738.597041 Depth 0.686345
TRANSFORM  NONE
QML_OriginQuality  assocPhCt 20  usedPhCt 20  assocStaCt -1  usedStaCt 10  depthPhCt -1  stdErr 0.0427444  azGap 300.297  secAzGap 300.297  gtLevel -  minDist 0.754739 maxDist 4.52172 medDist 2.46369
QML_OriginUncertainty  horUnc -1  minHorUnc 0.151355  maxHorUnc 0.406553  azMaxHorUnc 92.8572
QML_ConfidenceEllipsoid  semiMajorAxisLength 0.73793  semiMinorAxisLength 0.174165  semiIntermediateAxisLength 0.356956  majorAxisPlunge -56.2143  majorAxisAzimuth 87.4332  majorAxisRotation 215.681
FOCALMECH  Hyp  9818.447917 738.659226 0.492898 Mech  0 0 0 mf  0 nObs -1
PHASE ID Ins Cmp On Pha  FM Date     HrMn   Sec     Err  ErrMag    Coda      Amp       Per       PriorWt  >   TTpred    Res       Weight    StaLoc(X  Y         Z)        SDist    SAzim  RAz  RDip RQual    Tcorr       TTerr
ML06         ?    BHZ  i P      c 20230928 0756   12.1209 GAU  1.12e-03 -1.00e+00 -1.00e+00 -1.00e+00    1.0000 >    0.5409    0.0934    0.5542  738.3100 9819.1170   -1.3960    0.7547 332.44 332.4 157.6 10     0.0000    0.0108
ML06         ?    BHN  e S      ? 20230928 0756   12.6354 GAU  1.14e-03 -1.00e+00  3.66e+01 -1.00e+00    1.0000 >    0.9431    0.2057    0.1009  738.3100 9819.1170   -1.3960    0.7547 332.44 332.4 157.0  9     0.0000    0.0189
ML04         ?    BHZ  e P      c 20230928 0756   12.1941 GAU  1.83e-03 -1.00e+00 -1.00e+00 -1.00e+00    1.0000 >    0.7157   -0.0082    1.7629  737.1400 9819.2520   -1.5710    1.7189 297.89 297.9 138.8 10     0.0000    0.0143
ML04         ?    BHE  e S      ? 20230928 0756   12.7374 GAU  1.16e-03 -1.00e+00  1.34e+02 -1.00e+00    1.0000 >    1.2468    0.0040    1.7100  737.1400 9819.2520   -1.5710    1.7189 297.89 297.9 137.6  9     0.0000    0.0249
ML14         ?    BHZ  i P      c 20230928 0756   12.1863 GAU  2.15e-03 -1.00e+00 -1.00e+00 -1.00e+00    1.0000 >    0.7149   -0.0152    1.5730  737.5530 9820.0110   -1.3980    1.9149 324.71 324.7 133.0 10     0.0000    0.0143
ML14         ?    BHN  e S      ? 20230928 0756   12.7203 GAU  2.21e-03 -1.00e+00  8.14e+02 -1.00e+00    1.0000 >    1.2465   -0.0129    1.5262  737.5530 9820.0110   -1.3980    1.9149 324.71 324.7 131.5  9     0.0000    0.0249
ML11         ?    BHZ  i P      c 20230928 0756   12.2304 GAU  9.06e-04 -1.00e+00 -1.00e+00 -1.00e+00    1.0000 >    0.7246    0.0191    1.6854  738.4670 9820.4900   -1.3120    2.0511 354.62 354.6 129.5 10     0.0000    0.0145
ML11         ?    BHE  e S      ? 20230928 0756   12.8576 GAU  1.68e-03 -1.00e+00 -1.00e+00 -1.00e+00    1.0000 >    1.2641    0.1068    0.4980  738.4670 9820.4900   -1.3120    2.0511 354.62 354.6 127.6  9     0.0000    0.0253
ML02         ?    BHZ  e P      c 20230928 0756   12.3153 GAU  1.08e-03 -1.00e+00 -1.00e+00 -1.00e+00    1.0000 >    0.8038    0.0249    1.5322  736.5970 9819.4060   -1.4960    2.2739 294.92 294.9 129.1 10     0.0000    0.0161
ML02         ?    BHE  i S      ? 20230928 0756   12.9876 GAU  8.62e-04 -1.00e+00  5.75e+03 -1.00e+00    1.0000 >    1.4008    0.1001    0.5552  736.5970 9819.4060   -1.4960    2.2739 294.92 294.9 127.4  9     0.0000    0.0280
ML09         ?    BHZ  i P      c 20230928 0756   12.3347 GAU  1.68e-03 -1.00e+00 -1.00e+00 -1.00e+00    1.0000 >    0.8442    0.0039    1.8638  737.8820 9820.9850   -1.2700    2.6535 342.97 343.0 121.3 10     0.0000    0.0169
ML09         ?    BHN  e S      ? 20230928 0756   12.9717 GAU  9.06e-04 -1.00e+00  5.66e+02 -1.00e+00    1.0000 >    1.4731    0.0119    1.5954  737.8820 9820.9850   -1.2700    2.6535 342.97 343.0 118.8  9     0.0000    0.0295
ML03         ?    BHZ  i P      c 20230928 0756   12.7889 GAU  2.35e-03 -1.00e+00 -1.00e+00 -1.00e+00    1.0000 >    0.9303    0.3721    0.0140  736.8800 9820.8540   -1.3350    2.9925 323.52 323.5 118.9 10     0.0000    0.0186
ML03         ?    BHE  e S      ? 20230928 0756   13.7689 GAU  6.32e-04 -1.00e+00  1.88e+02 -1.00e+00    1.0000 >    1.6227    0.6596    0.0003  736.8800 9820.8540   -1.3350    2.9925 323.52 323.5 116.0  9     0.0000    0.0325
ML13         ?    BHZ  i P      c 20230928 0756   12.4750 GAU  7.45e-04 -1.00e+00 -1.00e+00 -1.00e+00    1.0000 >    1.0147   -0.0263    1.1919  737.1780 9821.5410   -1.2220    3.4295 334.41 334.4 113.9  9     0.0000    0.0203
ML13         ?    BHN  e S      ? 20230928 0756   13.2582 GAU  1.50e-04 -1.00e+00 -1.00e+00 -1.00e+00    1.0000 >    1.7710    0.0005    1.4734  737.1780 9821.5410   -1.2220    3.4295 334.41 334.4 109.3  8     0.0000    0.0354
ML10         ?    BHZ  e P      c 20230928 0756   12.5742 GAU  1.06e-03 -1.00e+00 -1.00e+00 -1.00e+00    1.0000 >    1.0549    0.0327    1.3297  736.5490 9821.3650   -1.2200    3.6003 324.12 324.1 112.7  9     0.0000    0.0211
ML10         ?    BHN  e S      ? 20230928 0756   13.3929 GAU  7.76e-04 -1.00e+00 -1.00e+00 -1.00e+00    1.0000 >    1.8411    0.0652    0.9213  736.5490 9821.3650   -1.2200    3.6003 324.12 324.1 104.3  9     0.0000    0.0368
ML07         ?    BHZ  e P      c 20230928 0756   12.9953 GAU  1.55e-03 -1.00e+00 -1.00e+00 -1.00e+00    1.0000 >    1.2654    0.2433    0.0979  737.4430 9822.8030   -1.1120    4.5217 344.40 344.4 106.6  9     0.0000    0.0253
ML07         ?    BHN  e S      ? 20230928 0756   14.1548 GAU  7.57e-04 -1.00e+00  1.58e+02 -1.00e+00    1.0000 >    2.1951    0.4730    0.0143  737.4430 9822.8030   -1.1120    4.5217 344.40 344.4  70.5  8     0.0000    0.0439
END_PHASE
END_NLLOC

