NLLOC "./loc/SEML.20230928.083916.grid0" "LOCATED" "Location completed."
PUBLIC_ID None
SIGNATURE "Arham Zakki Edelo - edelo.17034@mhs.its.ac.id   obs:./obs/2023_09.obs   NLLoc:v7.00.10(30Aug2020)   run:22Jan2024 21h56m26"
COMMENT "SEML"
GRID  2001 2001 1001  727 9811 -2  0.01 0.01 0.01 PROB_DENSITY
SEARCH OCTREE nInitial 4851 nEvaluated 20019 smallestNodeSide 0.014881/0.014881/0.014205 oct_tree_integral 1.795145e-02 scatter_volume 1.795145e-02
HYPOCENTER  x 737.856 y 9818.58 z 0.705966  OT 16.255  ix -1 iy -1 iz -1 MAXIMUM_LIKELIHOOD
GEOGRAPHIC  OT 2023 09 28  08 39 16.254984  Lat 9818.581845 Long 737.855655 Depth 0.705966
QUALITY  Pmax 4.4477e+66 MFmin 76.1553 MFmax 88.5381 RMS 0.0311952 Nphs 20 Gap 262.885 Dist 0.702012 Mamp -9.90 0 Mdur -9.90 0
VPVSRATIO  VpVsRatio 1.74123  Npair 10  Diff 0.558239
STATISTICS  ExpectX 737.870337 Y 9818.545174 Z 0.733494  CovXX 0.0145141 XY -0.00441774 XZ -0.00815443 YY 0.00994677 YZ 0.00200714 ZZ 0.0252913 EllAz1  40.1859 Dip1  11.366 Len1  0.154287 Az2  316.602 Dip2  -29.0684 Len2  0.210803 Len3  3.276929e-01
STAT_GEOG  ExpectLat 9818.545174 Long 737.870337 Depth 0.733494
TRANSFORM  NONE
QML_OriginQuality  assocPhCt 20  usedPhCt 20  assocStaCt -1  usedStaCt 10  depthPhCt -1  stdErr 0.0311952  azGap 262.885  secAzGap 262.885  gtLevel -  minDist 0.702012 maxDist 4.902 medDist 2.2035
QML_OriginUncertainty  horUnc -1  minHorUnc 0.129197  maxHorUnc 0.198917  azMaxHorUnc 121.332
QML_ConfidenceEllipsoid  semiMajorAxisLength 0.327693  semiMinorAxisLength 0.154287  semiIntermediateAxisLength 0.210803  majorAxisPlunge -58.3787  majorAxisAzimuth 111.131  majorAxisRotation 222.018
FOCALMECH  Hyp  9818.581845 737.855655 0.705966 Mech  0 0 0 mf  0 nObs -1
PHASE ID Ins Cmp On Pha  FM Date     HrMn   Sec     Err  ErrMag    Coda      Amp       Per       PriorWt  >   TTpred    Res       Weight    StaLoc(X  Y         Z)        SDist    SAzim  RAz  RDip RQual    Tcorr       TTerr
ML06         ?    BHZ  i P      c 20230928 0839   16.8583 GAU  2.16e-03 -1.00e+00  5.56e+01 -1.00e+00    1.0000 >    0.5871    0.0163    1.4106  738.3100 9819.1170   -1.3960    0.7020  40.33  40.3 160.9 10     0.0000    0.0117
ML06         ?    BHN  e S      ? 20230928 0839   17.3487 GAU  6.21e-04 -1.00e+00 -1.00e+00 -1.00e+00    1.0000 >    1.0156    0.0781    0.4937  738.3100 9819.1170   -1.3960    0.7020  40.33  40.3 159.3 10     0.0000    0.0203
ML04         ?    BHZ  e P      c 20230928 0839   16.9267 GAU  8.25e-04 -1.00e+00 -1.00e+00 -1.00e+00    1.0000 >    0.6585    0.0132    1.4995  737.1400 9819.2520   -1.5710    0.9804 313.12 313.1 155.9 10     0.0000    0.0132
ML04         ?    BHN  e S      ? 20230928 0839   17.4738 GAU  4.33e-04 -1.00e+00  8.22e+02 -1.00e+00    1.0000 >    1.1389    0.0799    0.4975  737.1400 9819.2520   -1.5710    0.9804 313.12 313.1 153.8 10     0.0000    0.0228
ML14         ?    BHZ  e P      c 20230928 0839   16.9265 GAU  1.86e-03 -1.00e+00  2.61e+02 -1.00e+00    1.0000 >    0.6782   -0.0067    1.6361  737.5530 9820.0110   -1.3980    1.4609 348.04 348.0 144.0 10     0.0000    0.0136
ML14         ?    BHE  e S      ? 20230928 0839   17.4284 GAU  1.43e-03 -1.00e+00  3.97e+02 -1.00e+00    1.0000 >    1.1731    0.0003    1.4835  737.5530 9820.0110   -1.3980    1.4609 348.04 348.0 140.7 10     0.0000    0.0235
ML02         ?    BHZ  e P      c 20230928 0839   16.9426 GAU  4.68e-04 -1.00e+00 -1.00e+00 -1.00e+00    1.0000 >    0.7073   -0.0197    1.3280  736.5970 9819.4060   -1.4960    1.5045 303.22 303.2 144.4 10     0.0000    0.0141
ML02         ?    BHE  e S      ? 20230928 0839   17.4775 GAU  5.39e-04 -1.00e+00 -1.00e+00 -1.00e+00    1.0000 >    1.2233   -0.0008    1.4606  736.5970 9819.4060   -1.4960    1.5045 303.22 303.2 141.1 10     0.0000    0.0245
ML11         ?    BHZ  i P      c 20230928 0839   16.9805 GAU  2.48e-03 -1.00e+00 -1.00e+00 -1.00e+00    1.0000 >    0.7514   -0.0259    1.1098  738.4670 9820.4900   -1.3120    2.0037  17.76  17.8 133.4 10     0.0000    0.0150
ML11         ?    BHE  e S      ? 20230928 0839   17.5393 GAU  5.34e-04 -1.00e+00 -1.00e+00 -1.00e+00    1.0000 >    1.2994   -0.0150    1.2946  738.4670 9820.4900   -1.3120    2.0037  17.76  17.8 128.6 10     0.0000    0.0260
ML09         ?    BHZ  i P      c 20230928 0839   17.0734 GAU  5.99e-04 -1.00e+00  2.78e+02 -1.00e+00    1.0000 >    0.8214   -0.0029    1.6281  737.8820 9820.9850   -1.2700    2.4033   0.63   0.6 127.1 10     0.0000    0.0164
ML09         ?    BHN  e S      ? 20230928 0839   17.7026 GAU  1.05e-03 -1.00e+00  4.70e+02 -1.00e+00    1.0000 >    1.4199    0.0278    1.1478  737.8820 9820.9850   -1.2700    2.4033   0.63   0.6 121.1 10     0.0000    0.0284
ML13         ?    BHZ  e P      c 20230928 0839   17.1965 GAU  4.02e-03 -1.00e+00 -1.00e+00 -1.00e+00    1.0000 >    0.9484   -0.0068    1.5394  737.1780 9821.5410   -1.2220    3.0358 347.10 347.1 119.7 10     0.0000    0.0190
ML13         ?    BHE  e S      ? 20230928 0839   17.9002 GAU  8.23e-04 -1.00e+00 -1.00e+00 -1.00e+00    1.0000 >    1.6380    0.0072    1.2881  737.1780 9821.5410   -1.2220    3.0358 347.10 347.1 111.6 10     0.0000    0.0328
ML05         ?    BHZ  i P      c 20230928 0839   17.5315 GAU  8.09e-04 -1.00e+00  6.00e-01 -1.00e+00    1.0000 >    1.1238    0.1527    0.1388  736.2660 9822.0830   -1.1500    3.8451 335.58 335.6 112.5 10     0.0000    0.0225
ML05         ?    BHN  e S      ? 20230928 0839   18.5120 GAU  3.97e-04 -1.00e+00  2.91e+02 -1.00e+00    1.0000 >    1.9365    0.3205    0.0133  736.2660 9822.0830   -1.1500    3.8451 335.58 335.6 102.4 10     0.0000    0.0387
ML07         ?    BHZ  e P      c 20230928 0839   17.5542 GAU  1.39e-04 -1.00e+00 -1.00e+00 -1.00e+00    1.0000 >    1.2132    0.0860    0.4697  737.4430 9822.8030   -1.1120    4.2413 354.42 354.4 109.8 10     0.0000    0.0243
ML07         ?    BHN  e S      ? 20230928 0839   18.5551 GAU  1.16e-03 -1.00e+00 -1.00e+00 -1.00e+00    1.0000 >    2.0867    0.2134    0.0791  737.4430 9822.8030   -1.1120    4.2413 354.42 354.4  99.3 10     0.0000    0.0417
ML12         ?    BHZ  e P      d 20230928 0839   17.6465 GAU  5.99e-04 -1.00e+00 -1.00e+00 -1.00e+00    1.0000 >    1.3591    0.0323    1.0752  736.8520 9823.3800   -0.9890    4.9020 348.19 348.2 105.5 10     0.0000    0.0272
ML12         ?    BHE  e S      ? 20230928 0839   18.6951 GAU  1.19e-03 -1.00e+00  4.25e+02 -1.00e+00    1.0000 >    2.3258    0.1143    0.4067  736.8520 9823.3800   -0.9890    4.9020 348.19 348.2  96.0 10     0.0000    0.0465
END_PHASE
END_NLLOC

