NLLOC "./loc/SEML.20230928.075747.grid0" "LOCATED" "Location completed."
PUBLIC_ID None
SIGNATURE "Arham Zakki Edelo - edelo.17034@mhs.its.ac.id   obs:./obs/2023_09.obs   NLLoc:v7.00.10(30Aug2020)   run:22Jan2024 21h55m52"
COMMENT "SEML"
GRID  2001 2001 1001  727 9811 -2  0.01 0.01 0.01 PROB_DENSITY
SEARCH OCTREE nInitial 4851 nEvaluated 20011 smallestNodeSide 0.014881/0.014881/0.014205 oct_tree_integral 1.939627e-02 scatter_volume 1.928353e-02
HYPOCENTER  x 738.362 y 9818.97 z 1.52983  OT 46.2766  ix -1 iy -1 iz -1 MAXIMUM_LIKELIHOOD
GEOGRAPHIC  OT 2023 09 28  07 57 46.276622  Lat 9818.968750 Long 738.361607 Depth 1.529830
QUALITY  Pmax 2.36576e+56 MFmin 65.764 MFmax 77.6797 RMS 0.0308465 Nphs 18 Gap 279.091 Dist 0.156976 Mamp -9.90 0 Mdur -9.90 0
VPVSRATIO  VpVsRatio 1.70394  Npair 9  Diff 0.479813
STATISTICS  ExpectX 738.374992 Y 9818.886026 Z 1.535103  CovXX 0.0344753 XY 0.00243955 XZ 0.00584046 YY 0.0534144 YZ 0.0175636 ZZ 0.0283603 EllAz1  210.982 Dip1  60.7783 Len1  0.253855 Az2  285.448 Dip2  -8.52 Len2  0.350032 Len3  4.726501e-01
STAT_GEOG  ExpectLat 9818.886026 Long 738.374992 Depth 1.535103
TRANSFORM  NONE
QML_OriginQuality  assocPhCt 18  usedPhCt 18  assocStaCt -1  usedStaCt 9  depthPhCt -1  stdErr 0.0308465  azGap 279.091  secAzGap 279.091  gtLevel -  minDist 0.156976 maxDist 3.94275 medDist 1.81797
QML_OriginUncertainty  horUnc -1  minHorUnc 0.280325  maxHorUnc 0.351517  azMaxHorUnc 7.22322
QML_ConfidenceEllipsoid  semiMajorAxisLength 0.47265  semiMinorAxisLength 0.253855  semiIntermediateAxisLength 0.350032  majorAxisPlunge 27.721  majorAxisAzimuth 10.9333  majorAxisRotation 95.5003
FOCALMECH  Hyp  9818.968750 738.361607 1.529830 Mech  0 0 0 mf  0 nObs -1
PHASE ID Ins Cmp On Pha  FM Date     HrMn   Sec     Err  ErrMag    Coda      Amp       Per       PriorWt  >   TTpred    Res       Weight    StaLoc(X  Y         Z)        SDist    SAzim  RAz  RDip RQual    Tcorr       TTerr
ML06         ?    BHZ  i P      c 20230928 0757   47.0288 GAU  6.47e-04 -1.00e+00  1.70e+02 -1.00e+00    1.0000 >    0.7574   -0.0052    1.8427  738.3100 9819.1170   -1.3960    0.1570 340.81 340.8 176.4  9     0.0000    0.0151
ML06         ?    BHN  e S      ? 20230928 0757   47.5551 GAU  7.76e-04 -1.00e+00 -1.00e+00 -1.00e+00    1.0000 >    1.2896   -0.0111    1.5398  738.3100 9819.1170   -1.3960    0.1570 340.81 340.8 176.3  9     0.0000    0.0258
ML04         ?    BHZ  e P      d 20230928 0757   47.0632 GAU  4.18e-03 -1.00e+00  7.68e+02 -1.00e+00    1.0000 >    0.8678   -0.0812    0.1723  737.1400 9819.2520   -1.5710    1.2540 283.05 283.1 155.1 10     0.0000    0.0174
ML04         ?    BHE  e S      ? 20230928 0757   47.6092 GAU  6.87e-04 -1.00e+00  3.53e+02 -1.00e+00    1.0000 >    1.4783   -0.1458    0.0412  737.1400 9819.2520   -1.5710    1.2540 283.05 283.1 154.2 10     0.0000    0.0296
ML14         ?    BHZ  i P      c 20230928 0757   47.1385 GAU  1.40e-03 -1.00e+00 -1.00e+00 -1.00e+00    1.0000 >    0.8302    0.0316    1.1240  737.5530 9820.0110   -1.3980    1.3191 322.19 322.2 152.6 10     0.0000    0.0166
ML14         ?    BHN  e S      ? 20230928 0757   47.7689 GAU  1.61e-03 -1.00e+00  4.48e+02 -1.00e+00    1.0000 >    1.4132    0.0791    0.3443  737.5530 9820.0110   -1.3980    1.3191 322.19 322.2 151.6 10     0.0000    0.0283
ML11         ?    BHZ  i P      c 20230928 0757   47.1140 GAU  4.33e-04 -1.00e+00 -1.00e+00 -1.00e+00    1.0000 >    0.8322    0.0053    1.8526  738.4670 9820.4900   -1.3120    1.5249   3.96   4.0 148.2 10     0.0000    0.0166
ML11         ?    BHN  i S      ? 20230928 0757   47.7064 GAU  5.72e-04 -1.00e+00 -1.00e+00 -1.00e+00    1.0000 >    1.4157    0.0141    1.5071  738.4670 9820.4900   -1.3120    1.5249   3.96   4.0 147.0 10     0.0000    0.0283
ML02         ?    BHZ  e P      c 20230928 0757   47.1977 GAU  1.16e-03 -1.00e+00 -1.00e+00 -1.00e+00    1.0000 >    0.9141    0.0069    1.8025  736.5970 9819.4060   -1.4960    1.8180 283.92 283.9 144.8 10     0.0000    0.0183
ML02         ?    BHN  e S      ? 20230928 0757   47.8329 GAU  1.06e-03 -1.00e+00 -1.00e+00 -1.00e+00    1.0000 >    1.5563   -0.0000    1.5126  736.5970 9819.4060   -1.4960    1.8180 283.92 283.9 143.5 10     0.0000    0.0311
ML09         ?    BHZ  i P      c 20230928 0757   47.1726 GAU  6.24e-04 -1.00e+00 -1.00e+00 -1.00e+00    1.0000 >    0.8974   -0.0015    1.8279  737.8820 9820.9850   -1.2700    2.0725 346.62 346.6 138.5 10     0.0000    0.0179
ML09         ?    BHE  e S      ? 20230928 0757   47.8159 GAU  1.42e-03 -1.00e+00  3.65e+02 -1.00e+00    1.0000 >    1.5256    0.0136    1.4694  737.8820 9820.9850   -1.2700    2.0725 346.62 346.6 137.0 10     0.0000    0.0305
ML13         ?    BHZ  e P      d 20230928 0757   47.2772 GAU  6.38e-04 -1.00e+00  2.41e+02 -1.00e+00    1.0000 >    1.0150   -0.0145    1.5603  737.1780 9821.5410   -1.2220    2.8315 335.29 335.3 127.2 10     0.0000    0.0203
ML13         ?    BHN  e S      ? 20230928 0757   47.9610 GAU  1.71e-03 -1.00e+00  2.50e+01 -1.00e+00    1.0000 >    1.7236   -0.0392    0.9728  737.1780 9821.5410   -1.2220    2.8315 335.29 335.3 125.2 10     0.0000    0.0345
ML05         ?    BHZ  e P      d 20230928 0757   47.5773 GAU  2.22e-03 -1.00e+00  3.26e+02 -1.00e+00    1.0000 >    1.1823    0.1183    0.1394  736.2660 9822.0830   -1.1500    3.7537 326.06 326.1 115.8 10     0.0000    0.0236
ML05         ?    BHN  e S      ? 20230928 0757   48.4918 GAU  2.87e-04 -1.00e+00  2.90e+02 -1.00e+00    1.0000 >    2.0031    0.2121    0.1474  736.2660 9822.0830   -1.1500    3.7537 326.06 326.1 113.3 10     0.0000    0.0401
ML07         ?    BHZ  i P      c 20230928 0757   47.6860 GAU  3.04e-04 -1.00e+00 -1.00e+00 -1.00e+00    1.0000 >    1.2151    0.1942    0.1392  737.4430 9822.8030   -1.1120    3.9428 346.53 346.5 113.5 10     0.0000    0.0243
ML07         ?    BHE  e S      ? 20230928 0757   48.6922 GAU  2.43e-03 -1.00e+00 -1.00e+00 -1.00e+00    1.0000 >    2.0571    0.3584    0.0046  737.4430 9822.8030   -1.1120    3.9428 346.53 346.5 110.9 10     0.0000    0.0411
END_PHASE
END_NLLOC

