NLLOC "./loc/SEML.20230928.084215.grid0" "LOCATED" "Location completed."
PUBLIC_ID None
SIGNATURE "Arham Zakki Edelo - edelo.17034@mhs.its.ac.id   obs:./obs/2023_09.obs   NLLoc:v7.00.10(30Aug2020)   run:22Jan2024 21h56m35"
COMMENT "SEML"
GRID  2001 2001 1001  727 9811 -2  0.01 0.01 0.01 PROB_DENSITY
SEARCH OCTREE nInitial 4851 nEvaluated 20019 smallestNodeSide 0.014881/0.014881/0.014205 oct_tree_integral 2.873829e-02 scatter_volume 2.866059e-02
HYPOCENTER  x 738.272 y 9818.76 z 1.50142  OT 14.573  ix -1 iy -1 iz -1 MAXIMUM_LIKELIHOOD
GEOGRAPHIC  OT 2023 09 28  08 42 14.572999  Lat 9818.760417 Long 738.272321 Depth 1.501420
QUALITY  Pmax 1.07725e+42 MFmin 49.8352 MFmax 59.7188 RMS 0.0352451 Nphs 14 Gap 322.453 Dist 0.358568 Mamp -9.90 0 Mdur -9.90 0
VPVSRATIO  VpVsRatio 1.69852  Npair 7  Diff 0.460535
STATISTICS  ExpectX 738.320761 Y 9818.754673 Z 1.495364  CovXX 0.0576766 XY 0.00779285 XZ 0.000337711 YY 0.0169923 YZ 0.00746773 ZZ 0.0233727 EllAz1  170.732 Dip1  30.9653 Len1  0.198663 Az2  344.413 Dip2  58.8804 Len2  0.312476 Len3  4.571420e-01
STAT_GEOG  ExpectLat 9818.754673 Long 738.320761 Depth 1.495364
TRANSFORM  NONE
QML_OriginQuality  assocPhCt 14  usedPhCt 14  assocStaCt -1  usedStaCt 7  depthPhCt -1  stdErr 0.0352451  azGap 322.453  secAzGap 322.453  gtLevel -  minDist 0.358568 maxDist 4.12677 medDist 2.25857
QML_OriginUncertainty  horUnc -1  minHorUnc 0.189121  maxHorUnc 0.368744  azMaxHorUnc 79.5194
QML_ConfidenceEllipsoid  semiMajorAxisLength 0.457142  semiMinorAxisLength 0.198663  semiIntermediateAxisLength 0.312476  majorAxisPlunge 2.79595  majorAxisAzimuth 79.0526  majorAxisRotation 31.1271
FOCALMECH  Hyp  9818.760417 738.272321 1.501420 Mech  0 0 0 mf  0 nObs -1
PHASE ID Ins Cmp On Pha  FM Date     HrMn   Sec     Err  ErrMag    Coda      Amp       Per       PriorWt  >   TTpred    Res       Weight    StaLoc(X  Y         Z)        SDist    SAzim  RAz  RDip RQual    Tcorr       TTerr
ML06         ?    BHZ  e P      d 20230928 0842   15.3316 GAU  5.20e-04 -1.00e+00 -1.00e+00 -1.00e+00    1.0000 >    0.7556    0.0030    1.6672  738.3100 9819.1170   -1.3960    0.3586   6.03   6.0 172.0 10     0.0000    0.0151
ML06         ?    BHN  e S      ? 20230928 0842   15.8755 GAU  6.32e-04 -1.00e+00 -1.00e+00 -1.00e+00    1.0000 >    1.2870    0.0155    1.2954  738.3100 9819.1170   -1.3960    0.3586   6.03   6.0 171.7 10     0.0000    0.0257
ML14         ?    BHZ  i P      d 20230928 0842   15.4111 GAU  8.99e-04 -1.00e+00  9.09e+02 -1.00e+00    1.0000 >    0.8381   -0.0000    1.6552  737.5530 9820.0110   -1.3980    1.4427 330.09 330.1 150.4 10     0.0000    0.0168
ML14         ?    BHN  e S      ? 20230928 0842   15.9792 GAU  6.74e-04 -1.00e+00  3.76e+02 -1.00e+00    1.0000 >    1.4270   -0.0208    1.2090  737.5530 9820.0110   -1.3980    1.4427 330.09 330.1 149.3 10     0.0000    0.0285
ML11         ?    BHZ  e P      c 20230928 0842   15.4205 GAU  1.59e-03 -1.00e+00 -1.00e+00 -1.00e+00    1.0000 >    0.8544   -0.0069    1.6159  738.4670 9820.4900   -1.3120    1.7405   6.42   6.4 144.5 10     0.0000    0.0171
ML11         ?    BHE  e S      ? 20230928 0842   16.0355 GAU  4.33e-04 -1.00e+00 -1.00e+00 -1.00e+00    1.0000 >    1.4537    0.0087    1.3272  738.4670 9820.4900   -1.3120    1.7405   6.42   6.4 143.1 10     0.0000    0.0291
ML09         ?    BHZ  e P      c 20230928 0842   15.4665 GAU  1.62e-04 -1.00e+00 -1.00e+00 -1.00e+00    1.0000 >    0.9219   -0.0284    1.0630  737.8820 9820.9850   -1.2700    2.2586 350.05 350.0 135.9 10     0.0000    0.0184
ML09         ?    BHN  e S      ? 20230928 0842   16.1248 GAU  1.72e-04 -1.00e+00  5.14e+02 -1.00e+00    1.0000 >    1.5674   -0.0156    1.2392  737.8820 9820.9850   -1.2700    2.2586 350.05 350.0 134.2 10     0.0000    0.0313
ML13         ?    BHZ  e P      c 20230928 0842   15.6247 GAU  1.08e-03 -1.00e+00 -1.00e+00 -1.00e+00    1.0000 >    1.0404    0.0113    1.4481  737.1780 9821.5410   -1.2220    2.9882 338.52 338.5 125.4  9     0.0000    0.0208
ML13         ?    BHE  e S      ? 20230928 0842   16.3676 GAU  1.93e-04 -1.00e+00 -1.00e+00 -1.00e+00    1.0000 >    1.7667    0.0279    0.9868  737.1780 9821.5410   -1.2220    2.9882 338.52 338.5 123.4  9     0.0000    0.0353
ML05         ?    BHZ  e P      c 20230928 0842   15.9428 GAU  1.77e-03 -1.00e+00  7.34e+01 -1.00e+00    1.0000 >    1.2062    0.1635    0.1562  736.2660 9822.0830   -1.1500    3.8814 328.87 328.9 115.1  9     0.0000    0.0241
ML05         ?    BHN  e S      ? 20230928 0842   16.9339 GAU  3.30e-04 -1.00e+00  2.87e+02 -1.00e+00    1.0000 >    2.0437    0.3172    0.0863  736.2660 9822.0830   -1.1500    3.8814 328.87 328.9 112.6  9     0.0000    0.0409
ML07         ?    BHZ  e P      c 20230928 0842   15.9666 GAU  8.48e-05 -1.00e+00 -1.00e+00 -1.00e+00    1.0000 >    1.2518    0.1418    0.1549  737.4430 9822.8030   -1.1120    4.1268 348.41 348.4 112.4  9     0.0000    0.0250
ML07         ?    BHN  e S      ? 20230928 0842   16.9710 GAU  6.08e-04 -1.00e+00  1.19e+01 -1.00e+00    1.0000 >    2.1190    0.2790    0.0957  737.4430 9822.8030   -1.1120    4.1268 348.41 348.4 109.9  9     0.0000    0.0424
END_PHASE
END_NLLOC

