NLLOC "./loc/SEML.20230914.172339.grid0" "LOCATED" "Location completed."
PUBLIC_ID None
SIGNATURE "Arham Zakki Edelo - edelo.17034@mhs.its.ac.id   obs:./obs/2023_09.obs   NLLoc:v7.00.10(30Aug2020)   run:22Jan2024 21h55m05"
COMMENT "SEML"
GRID  2001 2001 1001  727 9811 -2  0.01 0.01 0.01 PROB_DENSITY
SEARCH OCTREE nInitial 4851 nEvaluated 20003 smallestNodeSide 0.007440/0.007440/0.007102 oct_tree_integral 9.037115e-03 scatter_volume 9.037115e-03
HYPOCENTER  x 737.815 y 9818.45 z 0.659801  OT 38.4817  ix -1 iy -1 iz -1 MAXIMUM_LIKELIHOOD
GEOGRAPHIC  OT 2023 09 14  17 23 38.481678  Lat 9818.451637 Long 737.814732 Depth 0.659801
QUALITY  Pmax 4.74252e+92 MFmin 97.1164 MFmax 113.354 RMS 0.0352827 Nphs 26 Gap 271.424 Dist 0.829457 Mamp -9.90 0 Mdur -9.90 0
VPVSRATIO  VpVsRatio 1.7373  Npair 13  Diff 0.571125
STATISTICS  ExpectX 737.821575 Y 9818.447061 Z 0.658944  CovXX 0.00741514 XY -0.000776176 XZ -0.000768037 YY 0.0070751 YZ -0.00250141 ZZ 0.00925083 EllAz1  27.9139 Dip1  30.9546 Len1  0.132402 Az2  112.144 Dip2  -9.51591 Len2  0.166677 Len3  1.962007e-01
STAT_GEOG  ExpectLat 9818.447061 Long 737.821575 Depth 0.658944
TRANSFORM  NONE
QML_OriginQuality  assocPhCt 26  usedPhCt 26  assocStaCt -1  usedStaCt 13  depthPhCt -1  stdErr 0.0352827  azGap 271.424  secAzGap 271.424  gtLevel -  minDist 0.829457 maxDist 5.02152 medDist 2.5778
QML_OriginUncertainty  horUnc -1  minHorUnc 0.121804  maxHorUnc 0.135983  azMaxHorUnc 128.822
QML_ConfidenceEllipsoid  semiMajorAxisLength 0.196201  semiMinorAxisLength 0.132402  semiIntermediateAxisLength 0.166677  majorAxisPlunge -57.2977  majorAxisAzimuth 7.00913  majorAxisRotation 277.619
FOCALMECH  Hyp  9818.451637 737.814732 0.659801 Mech  0 0 0 mf  0 nObs -1
PHASE ID Ins Cmp On Pha  FM Date     HrMn   Sec     Err  ErrMag    Coda      Amp       Per       PriorWt  >   TTpred    Res       Weight    StaLoc(X  Y         Z)        SDist    SAzim  RAz  RDip RQual    Tcorr       TTerr
ML06         ?    BHZ  i P      c 20230914 1723   39.0691 GAU  2.62e-03 -1.00e+00 -1.00e+00 -1.00e+00    1.0000 >    0.5877   -0.0003    1.7055  738.3100 9819.1170   -1.3960    0.8295  36.66  36.7 157.2 10     0.0000    0.0118
ML06         ?    BHE  e S      ? 20230914 1723   39.5375 GAU  1.03e-03 -1.00e+00 -1.00e+00 -1.00e+00    1.0000 >    1.0183    0.0375    0.9315  738.3100 9819.1170   -1.3960    0.8295  36.66  36.7 155.3 10     0.0000    0.0204
ML04         ?    BHZ  e P      c 20230914 1723   39.1411 GAU  1.88e-03 -1.00e+00  2.54e+03 -1.00e+00    1.0000 >    0.6550    0.0044    1.6619  737.1400 9819.2520   -1.5710    1.0468 319.87 319.9 153.9 10     0.0000    0.0131
ML04         ?    BHE  e S      ? 20230914 1723   39.5923 GAU  8.36e-04 -1.00e+00 -1.00e+00 -1.00e+00    1.0000 >    1.1346   -0.0240    1.2293  737.1400 9819.2520   -1.5710    1.0468 319.87 319.9 151.6 10     0.0000    0.0227
ML02         ?    BHZ  i P      d 20230914 1723   39.1726 GAU  1.40e-03 -1.00e+00 -1.00e+00 -1.00e+00    1.0000 >    0.7043   -0.0134    1.5273  736.5970 9819.4060   -1.4960    1.5472 308.09 308.1 143.0 10     0.0000    0.0141
ML02         ?    BHN  e S      ? 20230914 1723   39.7233 GAU  8.09e-04 -1.00e+00 -1.00e+00 -1.00e+00    1.0000 >    1.2199    0.0218    1.2632  736.5970 9819.4060   -1.4960    1.5472 308.09 308.1 139.5 10     0.0000    0.0244
ML14         ?    BHZ  i P      c 20230914 1723   39.1663 GAU  1.61e-03 -1.00e+00  2.92e+02 -1.00e+00    1.0000 >    0.6876   -0.0030    1.6752  737.5530 9820.0110   -1.3980    1.5812 350.47 350.5 141.1 10     0.0000    0.0138
ML14         ?    BHN  e S      ? 20230914 1723   39.6814 GAU  1.17e-03 -1.00e+00  2.34e+03 -1.00e+00    1.0000 >    1.1912    0.0085    1.4472  737.5530 9820.0110   -1.3980    1.5812 350.47 350.5 137.3 10     0.0000    0.0238
ML11         ?    BHZ  i P      c 20230914 1723   39.2616 GAU  1.81e-03 -1.00e+00  2.28e+02 -1.00e+00    1.0000 >    0.7694    0.0105    1.5445  738.4670 9820.4900   -1.3120    2.1402  17.74  17.7 130.5 10     0.0000    0.0154
ML11         ?    BHN  e S      ? 20230914 1723   39.7954 GAU  4.45e-03 -1.00e+00  2.74e+02 -1.00e+00    1.0000 >    1.3328   -0.0191    1.2718  738.4670 9820.4900   -1.3120    2.1402  17.74  17.7 125.0 10     0.0000    0.0267
ML09         ?    BHZ  i P      c 20230914 1723   39.2967 GAU  2.68e-03 -1.00e+00 -1.00e+00 -1.00e+00    1.0000 >    0.8416   -0.0265    1.1814  737.8820 9820.9850   -1.2700    2.5343   1.52   1.5 124.8 10     0.0000    0.0168
ML09         ?    BHE  e S      ? 20230914 1723   39.9401 GAU  1.44e-03 -1.00e+00 -1.00e+00 -1.00e+00    1.0000 >    1.4573    0.0011    1.3797  737.8820 9820.9850   -1.2700    2.5343   1.52   1.5 117.9 10     0.0000    0.0291
ML03         ?    BHZ  i P      c 20230914 1723   39.4113 GAU  6.29e-04 -1.00e+00 -1.00e+00 -1.00e+00    1.0000 >    0.8622    0.0674    0.3832  736.8800 9820.8540   -1.3350    2.5778 338.74 338.7 125.1 10     0.0000    0.0172
ML03         ?    BHE  e S      ? 20230914 1723   40.1310 GAU  1.29e-03 -1.00e+00  7.82e+02 -1.00e+00    1.0000 >    1.4929    0.1564    0.2551  736.8800 9820.8540   -1.3350    2.5778 338.74 338.7 118.4 10     0.0000    0.0299
ML13         ?    BHZ  i P      c 20230914 1723   39.4123 GAU  1.55e-03 -1.00e+00 -1.00e+00 -1.00e+00    1.0000 >    0.9693   -0.0387    0.8602  737.1780 9821.5410   -1.2220    3.1543 348.35 348.4 117.9 10     0.0000    0.0194
ML13         ?    BHE  e S      ? 20230914 1723   40.1105 GAU  8.24e-04 -1.00e+00 -1.00e+00 -1.00e+00    1.0000 >    1.6771   -0.0482    0.7315  737.1780 9821.5410   -1.2220    3.1543 348.35 348.4 108.7 10     0.0000    0.0335
ML10         ?    BHZ  i P      d 20230914 1723   39.6109 GAU  4.45e-03 -1.00e+00  2.14e+03 -1.00e+00    1.0000 >    0.9740    0.1552    0.2472  736.5490 9821.3650   -1.2200    3.1764 336.52 336.5 117.6 10     0.0000    0.0195
ML10         ?    BHE  e S      ? 20230914 1723   40.4000 GAU  5.63e-04 -1.00e+00  3.27e+02 -1.00e+00    1.0000 >    1.6851    0.2332    0.0957  736.5490 9821.3650   -1.2200    3.1764 336.52 336.5 108.4 10     0.0000    0.0337
ML05         ?    BHZ  e P      c 20230914 1723   39.6463 GAU  2.25e-03 -1.00e+00 -1.00e+00 -1.00e+00    1.0000 >    1.1438    0.0208    1.2898  736.2660 9822.0830   -1.1500    3.9478 336.90 336.9 111.1 10     0.0000    0.0229
ML05         ?    BHN  e S      ? 20230914 1723   40.4841 GAU  2.24e-03 -1.00e+00  4.16e+02 -1.00e+00    1.0000 >    1.9742    0.0282    1.0616  736.2660 9822.0830   -1.1500    3.9478 336.90 336.9  99.8  9     0.0000    0.0395
ML01         ?    BHZ  i P      d 20230914 1723   39.8314 GAU  1.61e-03 -1.00e+00  1.77e+03 -1.00e+00    1.0000 >    1.2242    0.1255    0.2470  736.4090 9822.5140   -1.1200    4.2987 340.91 340.9 108.8 10     0.0000    0.0245
ML01         ?    BHN  e S      ? 20230914 1723   40.8095 GAU  4.21e-04 -1.00e+00  1.53e+03 -1.00e+00    1.0000 >    2.1092    0.2186    0.1413  736.4090 9822.5140   -1.1200    4.2987 340.91 340.9  97.4  9     0.0000    0.0422
ML07         ?    BHZ  i P      d 20230914 1723   39.7475 GAU  1.34e-03 -1.00e+00 -1.00e+00 -1.00e+00    1.0000 >    1.2398    0.0260    1.1855  737.4430 9822.8030   -1.1120    4.3672 355.12 355.1 108.4 10     0.0000    0.0248
ML07         ?    BHE  e S      ? 20230914 1723   40.7262 GAU  6.74e-04 -1.00e+00 -1.00e+00 -1.00e+00    1.0000 >    2.1351    0.1094    0.3622  737.4430 9822.8030   -1.1120    4.3672 355.12 355.1  97.0  9     0.0000    0.0427
ML12         ?    BHZ  e P      d 20230914 1723   39.8485 GAU  4.08e-03 -1.00e+00 -1.00e+00 -1.00e+00    1.0000 >    1.3857   -0.0188    1.2631  736.8520 9823.3800   -0.9890    5.0215 348.95 348.9 104.3 10     0.0000    0.0277
ML12         ?    BHE  e S      ? 20230914 1723   40.8708 GAU  2.90e-03 -1.00e+00 -1.00e+00 -1.00e+00    1.0000 >    2.3728    0.0163    1.0581  736.8520 9823.3800   -0.9890    5.0215 348.95 348.9  94.6  9     0.0000    0.0475
END_PHASE
END_NLLOC

