NLLOC "./loc/SEML.20230921.032803.grid0" "LOCATED" "Location completed."
PUBLIC_ID None
SIGNATURE "Arham Zakki Edelo - edelo.17034@mhs.its.ac.id   obs:./obs/2023_09.obs   NLLoc:v7.00.10(30Aug2020)   run:22Jan2024 21h55m20"
COMMENT "SEML"
GRID  2001 2001 1001  727 9811 -2  0.01 0.01 0.01 PROB_DENSITY
SEARCH OCTREE nInitial 4851 nEvaluated 20003 smallestNodeSide 0.014881/0.014881/0.014205 oct_tree_integral 3.163392e-02 scatter_volume 3.150785e-02
HYPOCENTER  x 738.57 y 9818.11 z -0.0326705  OT 2.72871  ix -1 iy -1 iz -1 MAXIMUM_LIKELIHOOD
GEOGRAPHIC  OT 2023 09 21  03 28 2.728707  Lat 9818.105655 Long 738.569940 Depth -0.032670
QUALITY  Pmax 1.19735e+55 MFmin 66.501 MFmax 79.3298 RMS 0.041209 Nphs 18 Gap 311.19 Dist 1.04422 Mamp -9.90 0 Mdur -9.90 0
VPVSRATIO  VpVsRatio 1.67978  Npair 9  Diff 0.560341
STATISTICS  ExpectX 739.158146 Y 9818.498788 Z 0.302975  CovXX 0.468323 XY 0.310703 XZ 0.251107 YY 0.230637 YZ 0.177948 ZZ 0.166876 EllAz1  156.63 Dip1  22.77 Len1  0.230187 Az2  283.476 Dip2  55.0091 Len2  0.296917 Len3  1.707413e+00
STAT_GEOG  ExpectLat 9818.498788 Long 739.158146 Depth 0.302975
TRANSFORM  NONE
QML_OriginQuality  assocPhCt 18  usedPhCt 18  assocStaCt -1  usedStaCt 9  depthPhCt -1  stdErr 0.041209  azGap 311.19  secAzGap 311.19  gtLevel -  minDist 1.04422 maxDist 5.54707 medDist 2.96039
QML_OriginUncertainty  horUnc -1  minHorUnc 0.196713  maxHorUnc 1.25256  azMaxHorUnc 55.4659
QML_ConfidenceEllipsoid  semiMajorAxisLength 1.70741  semiMinorAxisLength 0.230187  semiIntermediateAxisLength 0.296917  majorAxisPlunge 25.0329  majorAxisAzimuth 55.3256  majorAxisRotation 36.3521
FOCALMECH  Hyp  9818.105655 738.569940 -0.032670 Mech  0 0 0 mf  0 nObs -1
PHASE ID Ins Cmp On Pha  FM Date     HrMn   Sec     Err  ErrMag    Coda      Amp       Per       PriorWt  >   TTpred    Res       Weight    StaLoc(X  Y         Z)        SDist    SAzim  RAz  RDip RQual    Tcorr       TTerr
ML06         ?    BHZ  i P      d 20230921 0328    3.4085 GAU  5.18e-04 -1.00e+00 -1.00e+00 -1.00e+00    1.0000 >    0.4612    0.2186    0.0923  738.3100 9819.1170   -1.3960    1.0442 345.59 345.6 141.1 10     0.0000    0.0092
ML06         ?    BHE  e S      ? 20230921 0328    3.9123 GAU  1.03e-03 -1.00e+00 -1.00e+00 -1.00e+00    1.0000 >    0.8075    0.3761    0.0000  738.3100 9819.1170   -1.3960    1.0442 345.59 345.6 142.2 10     0.0000    0.0162
ML04         ?    BHZ  e P      c 20230921 0328    3.6194 GAU  6.50e-04 -1.00e+00 -1.00e+00 -1.00e+00    1.0000 >    0.6440    0.2466    0.0923  737.1400 9819.2520   -1.5710    1.8327 308.72 308.7 127.3 10     0.0000    0.0129
ML04         ?    BHN  e S      ? 20230921 0328    4.3676 GAU  4.87e-04 -1.00e+00  7.10e+02 -1.00e+00    1.0000 >    1.1260    0.5129    0.0000  737.1400 9819.2520   -1.5710    1.8327 308.72 308.7 129.1 10     0.0000    0.0225
ML14         ?    BHZ  e P      c 20230921 0328    3.4168 GAU  1.55e-03 -1.00e+00 -1.00e+00 -1.00e+00    1.0000 >    0.6859    0.0022    1.9595  737.5530 9820.0110   -1.3980    2.1597 331.91 331.9 119.0 10     0.0000    0.0137
ML14         ?    BHN  e S      ? 20230921 0328    3.9340 GAU  8.56e-04 -1.00e+00  3.16e+02 -1.00e+00    1.0000 >    1.2016    0.0037    1.7601  737.5530 9820.0110   -1.3980    2.1597 331.91 331.9 121.2 10     0.0000    0.0240
ML11         ?    BHZ  i P      d 20230921 0328    3.4443 GAU  1.49e-03 -1.00e+00  4.13e+01 -1.00e+00    1.0000 >    0.7257   -0.0101    1.7818  738.4670 9820.4900   -1.3120    2.3866 357.53 357.5 114.7 10     0.0000    0.0145
ML11         ?    BHN  e S      ? 20230921 0328    4.0181 GAU  1.09e-03 -1.00e+00 -1.00e+00 -1.00e+00    1.0000 >    1.2729    0.0164    1.6197  738.4670 9820.4900   -1.3120    2.3866 357.53 357.5 117.1 10     0.0000    0.0255
ML09         ?    BHZ  i P      c 20230921 0328    3.5875 GAU  1.55e-03 -1.00e+00 -1.00e+00 -1.00e+00    1.0000 >    0.8585    0.0003    1.9036  737.8820 9820.9850   -1.2700    2.9604 346.56 346.6 108.5 10     0.0000    0.0172
ML09         ?    BHE  e S      ? 20230921 0328    4.2158 GAU  3.01e-04 -1.00e+00  3.68e+02 -1.00e+00    1.0000 >    1.5079   -0.0208    1.4167  737.8820 9820.9850   -1.2700    2.9604 346.56 346.6 111.3 10     0.0000    0.0302
ML13         ?    BHZ  i P      c 20230921 0328    3.7015 GAU  4.19e-04 -1.00e+00 -1.00e+00 -1.00e+00    1.0000 >    1.0391   -0.0663    0.4294  737.1780 9821.5410   -1.2220    3.7066 337.94 337.9 103.3 10     0.0000    0.0208
ML13         ?    BHE  e S      ? 20230921 0328    4.4025 GAU  5.12e-04 -1.00e+00 -1.00e+00 -1.00e+00    1.0000 >    1.8286   -0.1547    0.0884  737.1780 9821.5410   -1.2220    3.7066 337.94 337.9 106.2 10     0.0000    0.0366
ML05         ?    BHZ  e P      c 20230921 0328    4.0183 GAU  4.68e-04 -1.00e+00 -1.00e+00 -1.00e+00    1.0000 >    1.2579    0.0317    1.3055  736.2660 9822.0830   -1.1500    4.5965 329.92 329.9  99.3 10     0.0000    0.0252
ML05         ?    BHE  e S      ? 20230921 0328    4.9905 GAU  4.86e-04 -1.00e+00 -1.00e+00 -1.00e+00    1.0000 >    2.2201    0.0417    1.0457  736.2660 9822.0830   -1.1500    4.5965 329.92 329.9  92.8  9     0.0000    0.0444
ML07         ?    BHZ  e P      c 20230921 0328    4.0771 GAU  1.02e-03 -1.00e+00 -1.00e+00 -1.00e+00    1.0000 >    1.3142    0.0342    1.2429  737.4430 9822.8030   -1.1120    4.8306 346.51 346.5  98.4 10     0.0000    0.0263
ML07         ?    BHN  e S      ? 20230921 0328    5.0664 GAU  1.74e-04 -1.00e+00 -1.00e+00 -1.00e+00    1.0000 >    2.3190    0.0187    1.2692  737.4430 9822.8030   -1.1120    4.8306 346.51 346.5  74.1  9     0.0000    0.0464
ML12         ?    BHZ  e P      c 20230921 0328    4.1953 GAU  5.18e-04 -1.00e+00 -1.00e+00 -1.00e+00    1.0000 >    1.4866   -0.0200    1.4335  736.8520 9823.3800   -0.9890    5.5471 341.96 342.0  96.6 10     0.0000    0.0297
ML12         ?    BHE  e S      ? 20230921 0328    5.2595 GAU  6.64e-04 -1.00e+00  1.91e+02 -1.00e+00    1.0000 >    2.6177   -0.0870    0.5595  736.8520 9823.3800   -0.9890    5.5471 341.96 342.0  72.9 10     0.0000    0.0524
END_PHASE
END_NLLOC

