NLLOC "./loc/SEML.20230921.180006.grid0" "LOCATED" "Location completed."
PUBLIC_ID None
SIGNATURE "Arham Zakki Edelo - edelo.17034@mhs.its.ac.id   obs:./obs/2023_09.obs   NLLoc:v7.00.10(30Aug2020)   run:22Jan2024 21h55m31"
COMMENT "SEML"
GRID  2001 2001 1001  727 9811 -2  0.01 0.01 0.01 PROB_DENSITY
SEARCH OCTREE nInitial 4851 nEvaluated 20011 smallestNodeSide 0.029762/0.029762/0.028409 oct_tree_integral 1.024587e-01 scatter_volume 1.024587e-01
HYPOCENTER  x 737.312 y 9817.47 z -1.9858  OT 5.39241  ix -1 iy -1 iz -1 MAXIMUM_LIKELIHOOD
GEOGRAPHIC  OT 2023 09 21  18 00 5.392410  Lat 9817.473214 Long 737.312500 Depth -1.985795
QUALITY  Pmax 1.03189e+51 MFmin 54.5391 MFmax 63.8065 RMS 0.0205625 Nphs 16 Gap 315.959 Dist 1.92277 Mamp -9.90 0 Mdur -9.90 0
VPVSRATIO  VpVsRatio 1.64998  Npair 8  Diff 0.688607
STATISTICS  ExpectX 737.401169 Y 9817.426122 Z -1.375593  CovXX 0.0433394 XY 0.000327185 XZ 0.0230305 YY 0.0105859 YZ 0.00148479 ZZ 0.141321 EllAz1  179.869 Dip1  0.627538 Len1  0.193153 Az2  270.009 Dip2  12.589 Len2  0.367195 Len3  7.190813e-01
STAT_GEOG  ExpectLat 9817.426122 Long 737.401169 Depth -1.375593
TRANSFORM  NONE
QML_OriginQuality  assocPhCt 16  usedPhCt 16  assocStaCt -1  usedStaCt 8  depthPhCt -1  stdErr 0.0205625  azGap 315.959  secAzGap 315.959  gtLevel -  minDist 1.92277 maxDist 5.92471 medDist 3.81384
QML_OriginUncertainty  horUnc -1  minHorUnc 0.156013  maxHorUnc 0.315734  azMaxHorUnc 89.4277
QML_ConfidenceEllipsoid  semiMajorAxisLength 0.719081  semiMinorAxisLength 0.193153  semiIntermediateAxisLength 0.367195  majorAxisPlunge 77.3949  majorAxisAzimuth 87.0615  majorAxisRotation 356.821
FOCALMECH  Hyp  9817.473214 737.312500 -1.985795 Mech  0 0 0 mf  0 nObs -1
PHASE ID Ins Cmp On Pha  FM Date     HrMn   Sec     Err  ErrMag    Coda      Amp       Per       PriorWt  >   TTpred    Res       Weight    StaLoc(X  Y         Z)        SDist    SAzim  RAz  RDip RQual    Tcorr       TTerr
ML06         ?    BHZ  i P      d 20230921 1800    6.1653 GAU  3.25e-03 -1.00e+00 -1.00e+00 -1.00e+00    1.0000 >    0.5529    0.2200    0.0002  738.3100 9819.1170   -1.3960    1.9228  31.25  31.3  72.9 10     0.0000    0.0111
ML06         ?    BHE  i S      ? 20230921 1800    6.7750 GAU  1.79e-03 -1.00e+00 -1.00e+00 -1.00e+00    1.0000 >    0.9539    0.4288    0.0000  738.3100 9819.1170   -1.3960    1.9228  31.25  31.3  72.9 10     0.0000    0.0191
ML14         ?    BHZ  e P      c 20230921 1800    6.1086 GAU  1.79e-03 -1.00e+00 -1.00e+00 -1.00e+00    1.0000 >    0.7191   -0.0029    1.5267  737.5530 9820.0110   -1.3980    2.5492   5.41   5.4  77.0 10     0.0000    0.0144
ML14         ?    BHN  e S      ? 20230921 1800    6.6413 GAU  1.40e-03 -1.00e+00  3.24e+02 -1.00e+00    1.0000 >    1.2406    0.0084    1.3437  737.5530 9820.0110   -1.3980    2.5492   5.41   5.4  76.9 10     0.0000    0.0248
ML11         ?    BHZ  i P      d 20230921 1800    6.3082 GAU  1.60e-03 -1.00e+00 -1.00e+00 -1.00e+00    1.0000 >    0.9070    0.0088    1.4235  738.4670 9820.4900   -1.3120    3.2301  20.94  20.9  78.1 10     0.0000    0.0181
ML11         ?    BHE  i S      ? 20230921 1800    6.9684 GAU  4.85e-04 -1.00e+00 -1.00e+00 -1.00e+00    1.0000 >    1.5647    0.0114    1.2251  738.4670 9820.4900   -1.3120    3.2301  20.94  20.9  78.1 10     0.0000    0.0313
ML09         ?    BHZ  i P      d 20230921 1800    6.3379 GAU  1.57e-03 -1.00e+00  1.84e+02 -1.00e+00    1.0000 >    0.9975   -0.0520    0.6895  737.8820 9820.9850   -1.2700    3.5577   9.21   9.2  78.5 10     0.0000    0.0199
ML09         ?    BHE  e S      ? 20230921 1800    7.0655 GAU  1.62e-04 -1.00e+00  3.71e+02 -1.00e+00    1.0000 >    1.7208   -0.0477    0.8497  737.8820 9820.9850   -1.2700    3.5577   9.21   9.2  78.5 10     0.0000    0.0344
ML13         ?    BHZ  i P      d 20230921 1800    6.5113 GAU  1.18e-03 -1.00e+00  2.14e+02 -1.00e+00    1.0000 >    1.1382   -0.0194    1.3070  737.1780 9821.5410   -1.2220    4.0700 358.11 358.1  79.2 10     0.0000    0.0228
ML13         ?    BHN  e S      ? 20230921 1800    7.3480 GAU  1.02e-04 -1.00e+00 -1.00e+00 -1.00e+00    1.0000 >    1.9636   -0.0080    1.1733  737.1780 9821.5410   -1.2220    4.0700 358.11 358.1  79.2 10     0.0000    0.0393
ML05         ?    BHZ  i P      c 20230921 1800    6.7200 GAU  4.22e-04 -1.00e+00  1.18e+02 -1.00e+00    1.0000 >    1.3194    0.0082    1.3233  736.2660 9822.0830   -1.1500    4.7271 347.21 347.2  79.8 10     0.0000    0.0264
ML05         ?    BHN  e S      ? 20230921 1800    7.7050 GAU  2.97e-04 -1.00e+00  2.64e+02 -1.00e+00    1.0000 >    2.2762    0.0364    0.8319  736.2660 9822.0830   -1.1500    4.7271 347.21 347.2  79.8 10     0.0000    0.0455
ML07         ?    BHZ  i P      c 20230921 1800    6.8870 GAU  6.03e-04 -1.00e+00 -1.00e+00 -1.00e+00    1.0000 >    1.4849    0.0097    1.2624  737.4430 9822.8030   -1.1120    5.3314   1.40   1.4  80.5 10     0.0000    0.0297
ML07         ?    BHE  e S      ? 20230921 1800    7.9145 GAU  2.24e-04 -1.00e+00 -1.00e+00 -1.00e+00    1.0000 >    2.5616   -0.0395    0.8747  737.4430 9822.8030   -1.1120    5.3314   1.40   1.4  80.5 10     0.0000    0.0512
ML12         ?    BHZ  e P      c 20230921 1800    7.0306 GAU  1.24e-03 -1.00e+00 -1.00e+00 -1.00e+00    1.0000 >    1.6510   -0.0128    1.2487  736.8520 9823.3800   -0.9890    5.9247 355.54 355.5  80.1 10     0.0000    0.0330
ML12         ?    BHE  e S      ? 20230921 1800    8.2519 GAU  6.92e-04 -1.00e+00  2.38e+01 -1.00e+00    1.0000 >    2.8486    0.0110    0.9202  736.8520 9823.3800   -0.9890    5.9247 355.54 355.5  80.2 10     0.0000    0.0570
END_PHASE
END_NLLOC

