NLLOC "./loc/SEML.20230928.081551.grid0" "LOCATED" "Location completed."
PUBLIC_ID None
SIGNATURE "Arham Zakki Edelo - edelo.17034@mhs.its.ac.id   obs:./obs/2023_09.obs   NLLoc:v7.00.10(30Aug2020)   run:22Jan2024 21h55m59"
COMMENT "SEML"
GRID  2001 2001 1001  727 9811 -2  0.01 0.01 0.01 PROB_DENSITY
SEARCH OCTREE nInitial 4851 nEvaluated 20011 smallestNodeSide 0.014881/0.014881/0.014205 oct_tree_integral 2.941626e-02 scatter_volume 2.907837e-02
HYPOCENTER  x 738.868 y 9818.57 z 0.180398  OT 50.8479  ix -1 iy -1 iz -1 MAXIMUM_LIKELIHOOD
GEOGRAPHIC  OT 2023 09 28  08 15 50.847877  Lat 9818.566964 Long 738.867560 Depth 0.180398
QUALITY  Pmax 6.27411e+41 MFmin 53.3362 MFmax 66.3725 RMS 0.0226748 Nphs 14 Gap 326.377 Dist 0.783206 Mamp -9.90 0 Mdur -9.90 0
VPVSRATIO  VpVsRatio 1.72097  Npair 7  Diff 0.47411
STATISTICS  ExpectX 738.929825 Y 9818.663626 Z 0.300087  CovXX 0.0556441 XY 0.0228783 XZ 0.0262006 YY 0.0435627 YZ 0.0476361 ZZ 0.0790264 EllAz1  172.352 Dip1  32.3642 Len1  0.188171 Az2  279.325 Dip2  24.7326 Len2  0.374149 Len3  6.736224e-01
STAT_GEOG  ExpectLat 9818.663626 Long 738.929825 Depth 0.300087
TRANSFORM  NONE
QML_OriginQuality  assocPhCt 14  usedPhCt 14  assocStaCt -1  usedStaCt 7  depthPhCt -1  stdErr 0.0226748  azGap 326.377  secAzGap 326.377  gtLevel -  minDist 0.783206 maxDist 4.46916 medDist 2.61117
QML_OriginUncertainty  horUnc -1  minHorUnc 0.244263  maxHorUnc 0.410501  azMaxHorUnc 52.3953
QML_ConfidenceEllipsoid  semiMajorAxisLength 0.673622  semiMinorAxisLength 0.188171  semiIntermediateAxisLength 0.374149  majorAxisPlunge 47.2029  majorAxisAzimuth 39.1599  majorAxisRotation 273.436
FOCALMECH  Hyp  9818.566964 738.867560 0.180398 Mech  0 0 0 mf  0 nObs -1
PHASE ID Ins Cmp On Pha  FM Date     HrMn   Sec     Err  ErrMag    Coda      Amp       Per       PriorWt  >   TTpred    Res       Weight    StaLoc(X  Y         Z)        SDist    SAzim  RAz  RDip RQual    Tcorr       TTerr
ML06         ?    BHZ  i P      c 20230928 0815   51.4157 GAU  9.88e-04 -1.00e+00  1.05e+02 -1.00e+00    1.0000 >    0.4706    0.0972    0.1113  738.3100 9819.1170   -1.3960    0.7832 314.61 314.6 152.7 10     0.0000    0.0094
ML06         ?    BHN  e S      ? 20230928 0815   51.8922 GAU  5.20e-04 -1.00e+00 -1.00e+00 -1.00e+00    1.0000 >    0.8227    0.2216    0.0002  738.3100 9819.1170   -1.3960    0.7832 314.61 314.6 152.2 10     0.0000    0.0165
ML14         ?    BHZ  e P      c 20230928 0815   51.5371 GAU  6.79e-04 -1.00e+00 -1.00e+00 -1.00e+00    1.0000 >    0.6707    0.0186    1.4995  737.5530 9820.0110   -1.3980    1.9528 317.69 317.7 126.6 10     0.0000    0.0134
ML14         ?    BHN  e S      ? 20230928 0815   52.0228 GAU  1.26e-03 -1.00e+00  4.13e+02 -1.00e+00    1.0000 >    1.1727    0.0023    1.5887  737.5530 9820.0110   -1.3980    1.9528 317.69 317.7 125.2 10     0.0000    0.0235
ML11         ?    BHZ  e P      c 20230928 0815   51.5002 GAU  1.60e-03 -1.00e+00 -1.00e+00 -1.00e+00    1.0000 >    0.6579   -0.0055    1.6836  738.4670 9820.4900   -1.3120    1.9643 348.23 348.2 124.8 10     0.0000    0.0132
ML11         ?    BHE  e S      ? 20230928 0815   52.0088 GAU  7.58e-04 -1.00e+00 -1.00e+00 -1.00e+00    1.0000 >    1.1512    0.0097    1.5730  738.4670 9820.4900   -1.3120    1.9643 348.23 348.2 123.2 10     0.0000    0.0230
ML09         ?    BHZ  i P      c 20230928 0815   51.6245 GAU  2.95e-03 -1.00e+00  8.67e+01 -1.00e+00    1.0000 >    0.7957   -0.0191    1.2957  737.8820 9820.9850   -1.2700    2.6112 337.82 337.8 116.0 10     0.0000    0.0159
ML09         ?    BHN  e S      ? 20230928 0815   52.2395 GAU  1.88e-04 -1.00e+00  5.18e+02 -1.00e+00    1.0000 >    1.3932   -0.0015    1.4739  737.8820 9820.9850   -1.2700    2.6112 337.82 337.8 113.7 10     0.0000    0.0279
ML13         ?    BHZ  i P      c 20230928 0815   51.7126 GAU  2.93e-04 -1.00e+00 -1.00e+00 -1.00e+00    1.0000 >    0.9829   -0.1182    0.0397  737.1780 9821.5410   -1.2220    3.4205 330.40 330.4 108.7 10     0.0000    0.0197
ML13         ?    BHE  e S      ? 20230928 0815   52.3758 GAU  2.26e-04 -1.00e+00 -1.00e+00 -1.00e+00    1.0000 >    1.7223   -0.1944    0.0278  737.1780 9821.5410   -1.2220    3.4205 330.40 330.4 105.1 10     0.0000    0.0344
ML05         ?    BHZ  e P      c 20230928 0815   52.0563 GAU  2.71e-04 -1.00e+00 -1.00e+00 -1.00e+00    1.0000 >    1.2118   -0.0034    1.5421  736.2660 9822.0830   -1.1500    4.3739 323.50 323.5 103.1 10     0.0000    0.0242
ML05         ?    BHN  e S      ? 20230928 0815   52.9603 GAU  1.62e-04 -1.00e+00  3.14e+02 -1.00e+00    1.0000 >    2.1244   -0.0119    1.1353  736.2660 9822.0830   -1.1500    4.3739 323.50 323.5  98.2 10     0.0000    0.0425
ML07         ?    BHZ  e P      c 20230928 0815   52.1095 GAU  1.47e-03 -1.00e+00 -1.00e+00 -1.00e+00    1.0000 >    1.2318    0.0298    1.1936  737.4430 9822.8030   -1.1120    4.4692 341.41 341.4 102.4 10     0.0000    0.0246
ML07         ?    BHE  e S      ? 20230928 0815   53.0601 GAU  1.69e-04 -1.00e+00 -1.00e+00 -1.00e+00    1.0000 >    2.1598    0.0524    0.8356  737.4430 9822.8030   -1.1120    4.4692 341.41 341.4  97.4 10     0.0000    0.0432
END_PHASE
END_NLLOC

