NLLOC "./loc/SEML.20230928.083606.grid0" "LOCATED" "Location completed."
PUBLIC_ID None
SIGNATURE "Arham Zakki Edelo - edelo.17034@mhs.its.ac.id   obs:./obs/2023_09.obs   NLLoc:v7.00.10(30Aug2020)   run:22Jan2024 21h56m15"
COMMENT "SEML"
GRID  2001 2001 1001  727 9811 -2  0.01 0.01 0.01 PROB_DENSITY
SEARCH OCTREE nInitial 4851 nEvaluated 20011 smallestNodeSide 0.014881/0.014881/0.014205 oct_tree_integral 1.226605e-02 scatter_volume 1.214371e-02
HYPOCENTER  x 737.565 y 9818.29 z 0.585227  OT 6.2663  ix -1 iy -1 iz -1 MAXIMUM_LIKELIHOOD
GEOGRAPHIC  OT 2023 09 28  08 36 6.266300  Lat 9818.291667 Long 737.565476 Depth 0.585227
QUALITY  Pmax 7.58196e+35 MFmin 46.0842 MFmax 58.0643 RMS 0.00834873 Nphs 12 Gap 294.051 Dist 1.05037 Mamp -9.90 0 Mdur -9.90 0
VPVSRATIO  VpVsRatio 1.71562  Npair 6  Diff 0.523361
STATISTICS  ExpectX 736.973852 Y 9818.588102 Z 0.503402  CovXX 0.756168 XY -0.331201 XZ -0.0384694 YY 0.155812 YZ 0.00149591 ZZ 0.0733064 EllAz1  204.399 Dip1  -12.1694 Len1  0.14471 Az2  192.598 Dip2  77.5759 Len2  0.513966 Len3  1.786885e+00
STAT_GEOG  ExpectLat 9818.588102 Long 736.973852 Depth 0.503402
TRANSFORM  NONE
QML_OriginQuality  assocPhCt 12  usedPhCt 12  assocStaCt -1  usedStaCt 6  depthPhCt -1  stdErr 0.00834873  azGap 294.051  secAzGap 294.051  gtLevel -  minDist 1.05037 maxDist 4.00785 medDist 2.21562
QML_OriginUncertainty  horUnc -1  minHorUnc 0.14387  maxHorUnc 1.44113  azMaxHorUnc 113.906
QML_ConfidenceEllipsoid  semiMajorAxisLength 1.78689  semiMinorAxisLength 0.14471  semiIntermediateAxisLength 0.513966  majorAxisPlunge -2.46515  majorAxisAzimuth 113.867  majorAxisRotation 347.775
FOCALMECH  Hyp  9818.291667 737.565476 0.585227 Mech  0 0 0 mf  0 nObs -1
PHASE ID Ins Cmp On Pha  FM Date     HrMn   Sec     Err  ErrMag    Coda      Amp       Per       PriorWt  >   TTpred    Res       Weight    StaLoc(X  Y         Z)        SDist    SAzim  RAz  RDip RQual    Tcorr       TTerr
ML04         ?    BHZ  e P      d 20230928 0836    6.9070 GAU  1.55e-03 -1.00e+00  1.81e+03 -1.00e+00    1.0000 >    0.6384    0.0024    1.7456  737.1400 9819.2520   -1.5710    1.0504 336.10 336.1 152.9 10     0.0000    0.0128
ML04         ?    BHN  e S      ? 20230928 0836    7.3676 GAU  3.39e-03 -1.00e+00  7.32e+02 -1.00e+00    1.0000 >    1.1085   -0.0072    1.3826  737.1400 9819.2520   -1.5710    1.0504 336.10 336.1 150.5 10     0.0000    0.0222
ML06         ?    BHZ  e P      c 20230928 0836    6.8696 GAU  2.92e-03 -1.00e+00 -1.00e+00 -1.00e+00    1.0000 >    0.6029    0.0004    1.7747  738.3100 9819.1170   -1.3960    1.1115  42.05  42.1 149.6 10     0.0000    0.0121
ML06         ?    BHE  e S      ? 20230928 0836    7.3134 GAU  3.97e-04 -1.00e+00  8.50e+01 -1.00e+00    1.0000 >    1.0476   -0.0005    1.4760  738.3100 9819.1170   -1.3960    1.1115  42.05  42.1 146.8 10     0.0000    0.0210
ML14         ?    BHZ  e P      c 20230928 0836    6.9618 GAU  1.36e-03 -1.00e+00 -1.00e+00 -1.00e+00    1.0000 >    0.6962   -0.0007    1.7255  737.5530 9820.0110   -1.3980    1.7194 359.58 359.6 137.4 10     0.0000    0.0139
ML14         ?    BHE  e S      ? 20230928 0836    7.4896 GAU  8.55e-04 -1.00e+00  4.81e+02 -1.00e+00    1.0000 >    1.2095    0.0137    1.2134  737.5530 9820.0110   -1.3980    1.7194 359.58 359.6 132.9 10     0.0000    0.0242
ML09         ?    BHZ  i P      c 20230928 0836    7.1254 GAU  1.32e-03 -1.00e+00  1.49e+02 -1.00e+00    1.0000 >    0.8692   -0.0101    1.4726  737.8820 9820.9850   -1.2700    2.7119   6.70   6.7 121.5 10     0.0000    0.0174
ML09         ?    BHE  e S      ? 20230928 0836    7.7790 GAU  9.25e-04 -1.00e+00  3.66e+02 -1.00e+00    1.0000 >    1.5099    0.0028    1.1870  737.8820 9820.9850   -1.2700    2.7119   6.70   6.7 112.9 10     0.0000    0.0302
ML13         ?    BHZ  e P      c 20230928 0836    7.1347 GAU  2.78e-03 -1.00e+00 -1.00e+00 -1.00e+00    1.0000 >    0.9877   -0.1193    0.0082  737.1780 9821.5410   -1.2220    3.2724 353.20 353.2 115.6 10     0.0000    0.0198
ML13         ?    BHN  e S      ? 20230928 0836    7.7640 GAU  2.51e-04 -1.00e+00  2.22e+01 -1.00e+00    1.0000 >    1.7148   -0.2170    0.0074  737.1780 9821.5410   -1.2220    3.2724 353.20 353.2 104.1 10     0.0000    0.0343
ML05         ?    BHZ  e P      c 20230928 0836    7.5786 GAU  6.53e-04 -1.00e+00 -1.00e+00 -1.00e+00    1.0000 >    1.1516    0.1607    0.0035  736.2660 9822.0830   -1.1500    4.0078 341.08 341.1 109.6 10     0.0000    0.0230
ML05         ?    BHN  e S      ? 20230928 0836    8.5457 GAU  2.78e-04 -1.00e+00  3.08e+02 -1.00e+00    1.0000 >    1.9944    0.2850    0.0035  736.2660 9822.0830   -1.1500    4.0078 341.08 341.1  95.9  9     0.0000    0.0399
END_PHASE
END_NLLOC

