NLLOC "./loc/SEML.20230921.180044.grid0" "LOCATED" "Location completed."
PUBLIC_ID None
SIGNATURE "Arham Zakki Edelo - edelo.17034@mhs.its.ac.id   obs:./obs/2023_09.obs   NLLoc:v7.00.10(30Aug2020)   run:22Jan2024 21h55m32"
COMMENT "SEML"
GRID  2001 2001 1001  727 9811 -2  0.01 0.01 0.01 PROB_DENSITY
SEARCH OCTREE nInitial 4851 nEvaluated 20011 smallestNodeSide 0.029762/0.029762/0.028409 oct_tree_integral 1.171935e-01 scatter_volume 1.171935e-01
HYPOCENTER  x 739.932 y 9818.6 z -1.95739  OT 43.8701  ix -1 iy -1 iz -1 MAXIMUM_LIKELIHOOD
GEOGRAPHIC  OT 2023 09 21  18 00 43.870139  Lat 9818.604167 Long 739.931548 Depth -1.957386
QUALITY  Pmax 5.71385e+48 MFmin 56.3074 MFmax 72.2281 RMS 0.0294975 Nphs 16 Gap 318.204 Dist 1.70071 Mamp -9.90 0 Mdur -9.90 0
VPVSRATIO  VpVsRatio 1.73679  Npair 8  Diff 0.644108
STATISTICS  ExpectX 739.669398 Y 9818.461629 Z -1.029029  CovXX 0.143904 XY 0.0419486 XZ -0.201536 YY 0.0377308 YZ -0.0691245 ZZ 0.451497 EllAz1  340.025 Dip1  -0.519122 Len1  0.285865 Az2  249.752 Dip2  -27.7372 Len2  0.404808 Len3  1.410448e+00
STAT_GEOG  ExpectLat 9818.461629 Long 739.669398 Depth -1.029029
TRANSFORM  NONE
QML_OriginQuality  assocPhCt 16  usedPhCt 16  assocStaCt -1  usedStaCt 8  depthPhCt -1  stdErr 0.0294975  azGap 318.204  secAzGap 318.204  gtLevel -  minDist 1.70071 maxDist 5.68262 medDist 3.58365
QML_OriginUncertainty  horUnc -1  minHorUnc 0.230785  maxHorUnc 0.603736  azMaxHorUnc 70.8422
QML_ConfidenceEllipsoid  semiMajorAxisLength 1.41045  semiMinorAxisLength 0.285865  semiIntermediateAxisLength 0.404808  majorAxisPlunge -62.2571  majorAxisAzimuth 71.0119  majorAxisRotation 178.032
FOCALMECH  Hyp  9818.604167 739.931548 -1.957386 Mech  0 0 0 mf  0 nObs -1
PHASE ID Ins Cmp On Pha  FM Date     HrMn   Sec     Err  ErrMag    Coda      Amp       Per       PriorWt  >   TTpred    Res       Weight    StaLoc(X  Y         Z)        SDist    SAzim  RAz  RDip RQual    Tcorr       TTerr
ML06         ?    BHZ  i P      d 20230921 1800   44.5784 GAU  8.24e-04 -1.00e+00  2.55e+01 -1.00e+00    1.0000 >    0.4924    0.2158    0.0328  738.3100 9819.1170   -1.3960    1.7007 287.55 287.6  71.7 10     0.0000    0.0098
ML06         ?    BHN  e S      ? 20230921 1800   45.0916 GAU  1.86e-03 -1.00e+00 -1.00e+00 -1.00e+00    1.0000 >    0.8494    0.3720    0.0000  738.3100 9819.1170   -1.3960    1.7007 287.55 287.6  71.7 10     0.0000    0.0170
ML11         ?    BHZ  e P      d 20230921 1800   44.6598 GAU  1.42e-03 -1.00e+00  1.47e+02 -1.00e+00    1.0000 >    0.6800    0.1097    0.1159  738.4670 9820.4900   -1.3120    2.3877 322.17 322.2  74.8 10     0.0000    0.0136
ML11         ?    BHE  e S      ? 20230921 1800   45.2068 GAU  5.67e-04 -1.00e+00 -1.00e+00 -1.00e+00    1.0000 >    1.1731    0.1635    0.0794  738.4670 9820.4900   -1.3120    2.3877 322.17 322.2  74.8 10     0.0000    0.0235
ML14         ?    BHZ  e P      d 20230921 1800   44.6395 GAU  6.84e-04 -1.00e+00  4.81e+02 -1.00e+00    1.0000 >    0.7750   -0.0057    1.7282  737.5530 9820.0110   -1.3980    2.7635 300.60 300.6  78.5 10     0.0000    0.0155
ML14         ?    BHE  e S      ? 20230921 1800   45.2249 GAU  3.00e-04 -1.00e+00  3.78e+02 -1.00e+00    1.0000 >    1.3369    0.0178    1.4285  737.5530 9820.0110   -1.3980    2.7635 300.60 300.6  78.5 10     0.0000    0.0267
ML09         ?    BHZ  i P      d 20230921 1800   44.7666 GAU  1.40e-03 -1.00e+00  1.79e+02 -1.00e+00    1.0000 >    0.8840    0.0125    1.6208  737.8820 9820.9850   -1.2700    3.1415 319.28 319.3  77.6 10     0.0000    0.0177
ML09         ?    BHN  e S      ? 20230921 1800   45.3776 GAU  1.91e-04 -1.00e+00  4.74e+02 -1.00e+00    1.0000 >    1.5250   -0.0175    1.3809  737.8820 9820.9850   -1.2700    3.1415 319.28 319.3  77.6 10     0.0000    0.0305
ML13         ?    BHZ  e P      d 20230921 1800   44.9732 GAU  7.80e-04 -1.00e+00 -1.00e+00 -1.00e+00    1.0000 >    1.1248   -0.0218    1.3826  737.1780 9821.5410   -1.2220    4.0258 316.84 316.8  79.5 10     0.0000    0.0225
ML13         ?    BHE  e S      ? 20230921 1800   45.7286 GAU  2.06e-04 -1.00e+00 -1.00e+00 -1.00e+00    1.0000 >    1.9405   -0.0820    0.3769  737.1780 9821.5410   -1.2220    4.0258 316.84 316.8  79.5 10     0.0000    0.0388
ML07         ?    BHZ  e P      d 20230921 1800   45.2359 GAU  1.16e-03 -1.00e+00 -1.00e+00 -1.00e+00    1.0000 >    1.3616    0.0042    1.5572  737.4430 9822.8030   -1.1120    4.8809 329.35 329.3  80.0 10     0.0000    0.0272
ML07         ?    BHE  e S      ? 20230921 1800   46.2048 GAU  5.12e-04 -1.00e+00 -1.00e+00 -1.00e+00    1.0000 >    2.3489   -0.0142    1.1832  737.4430 9822.8030   -1.1120    4.8809 329.35 329.3  80.0 10     0.0000    0.0470
ML05         ?    BHZ  e P      d 20230921 1800   45.2751 GAU  5.24e-04 -1.00e+00  2.39e+02 -1.00e+00    1.0000 >    1.4066   -0.0016    1.5460  736.2660 9822.0830   -1.1500    5.0536 313.50 313.5  80.8 10     0.0000    0.0281
ML05         ?    BHE  e S      ? 20230921 1800   46.3146 GAU  1.83e-04 -1.00e+00 -1.00e+00 -1.00e+00    1.0000 >    2.4265    0.0180    1.1558  736.2660 9822.0830   -1.1500    5.0536 313.50 313.5  80.8 10     0.0000    0.0485
ML12         ?    BHZ  e P      d 20230921 1800   45.4725 GAU  1.48e-03 -1.00e+00 -1.00e+00 -1.00e+00    1.0000 >    1.5842    0.0182    1.3605  736.8520 9823.3800   -0.9890    5.6826 327.19 327.2  80.0 10     0.0000    0.0317
ML12         ?    BHE  e S      ? 20230921 1800   46.6299 GAU  6.92e-04 -1.00e+00 -1.00e+00 -1.00e+00    1.0000 >    2.7332    0.0265    1.0513  736.8520 9823.3800   -0.9890    5.6826 327.19 327.2  80.1 10     0.0000    0.0547
END_PHASE
END_NLLOC

