NLLOC "./loc/SEML.20230914.164341.grid0" "LOCATED" "Location completed."
PUBLIC_ID None
SIGNATURE "Arham Zakki Edelo - edelo.17034@mhs.its.ac.id   obs:./obs/2023_09.obs   NLLoc:v7.00.10(30Aug2020)   run:22Jan2024 21h54m52"
COMMENT "SEML"
GRID  2001 2001 1001  727 9811 -2  0.01 0.01 0.01 PROB_DENSITY
SEARCH OCTREE nInitial 4851 nEvaluated 20011 smallestNodeSide 0.014881/0.014881/0.014205 oct_tree_integral 1.850328e-02 scatter_volume 1.850328e-02
HYPOCENTER  x 738.719 y 9818.02 z -0.103693  OT 40.4148  ix -1 iy -1 iz -1 MAXIMUM_LIKELIHOOD
GEOGRAPHIC  OT 2023 09 14  16 43 40.414810  Lat 9818.016369 Long 738.718750 Depth -0.103693
QUALITY  Pmax 3.46304e+65 MFmin 72.4093 MFmax 83.0098 RMS 0.0283226 Nphs 20 Gap 313.86 Dist 1.17408 Mamp -9.90 0 Mdur -9.90 0
VPVSRATIO  VpVsRatio 1.75169  Npair 10  Diff 0.578075
STATISTICS  ExpectX 738.740553 Y 9818.020195 Z -0.106137  CovXX 0.0158057 XY -0.00131516 XZ -0.00960377 YY 0.00954928 YZ 0.004274 ZZ 0.0251435 EllAz1  335.981 Dip1  -24.5041 Len1  0.168074 Az2  235.99 Dip2  -20.8377 Len2  0.192601 Len3  3.360289e-01
STAT_GEOG  ExpectLat 9818.020195 Long 738.740553 Depth -0.106137
TRANSFORM  NONE
QML_OriginQuality  assocPhCt 20  usedPhCt 20  assocStaCt -1  usedStaCt 10  depthPhCt -1  stdErr 0.0283226  azGap 313.86  secAzGap 313.86  gtLevel -  minDist 1.17408 maxDist 5.6792 medDist 3.46549
QML_OriginUncertainty  horUnc -1  minHorUnc 0.146128  maxHorUnc 0.192258  azMaxHorUnc 101.401
QML_ConfidenceEllipsoid  semiMajorAxisLength 0.336029  semiMinorAxisLength 0.168074  semiIntermediateAxisLength 0.192601  majorAxisPlunge -56.879  majorAxisAzimuth 110.3  majorAxisRotation 109.062
FOCALMECH  Hyp  9818.016369 738.718750 -0.103693 Mech  0 0 0 mf  0 nObs -1
PHASE ID Ins Cmp On Pha  FM Date     HrMn   Sec     Err  ErrMag    Coda      Amp       Per       PriorWt  >   TTpred    Res       Weight    StaLoc(X  Y         Z)        SDist    SAzim  RAz  RDip RQual    Tcorr       TTerr
ML06         ?    BHZ  i P      c 20230914 1643   41.0647 GAU  1.29e-03 -1.00e+00  4.90e+01 -1.00e+00    1.0000 >    0.4697    0.1802    0.0002  738.3100 9819.1170   -1.3960    1.1741 339.63 339.6 135.9 10     0.0000    0.0094
ML06         ?    BHE  e S      ? 20230914 1643   41.5850 GAU  1.57e-03 -1.00e+00 -1.00e+00 -1.00e+00    1.0000 >    0.8213    0.3489    0.0000  738.3100 9819.1170   -1.3960    1.1741 339.63 339.6 137.3 10     0.0000    0.0164
ML04         ?    BHZ  e P      c 20230914 1643   41.0543 GAU  1.03e-03 -1.00e+00 -1.00e+00 -1.00e+00    1.0000 >    0.6699   -0.0305    1.3406  737.1400 9819.2520   -1.5710    2.0048 308.05 308.0 123.0 10     0.0000    0.0134
ML04         ?    BHN  e S      ? 20230914 1643   41.5805 GAU  3.90e-04 -1.00e+00  7.19e+02 -1.00e+00    1.0000 >    1.1699   -0.0041    1.5902  737.1400 9819.2520   -1.5710    2.0048 308.05 308.0 125.2 10     0.0000    0.0234
ML14         ?    BHZ  i P      c 20230914 1643   41.1495 GAU  1.29e-03 -1.00e+00 -1.00e+00 -1.00e+00    1.0000 >    0.7122    0.0225    1.2412  737.5530 9820.0110   -1.3980    2.3103 329.70 329.7 115.4 10     0.0000    0.0142
ML14         ?    BHE  e S      ? 20230914 1643   41.6436 GAU  9.73e-04 -1.00e+00  4.55e+02 -1.00e+00    1.0000 >    1.2462   -0.0174    1.5098  737.5530 9820.0110   -1.3980    2.3103 329.70 329.7 118.0 10     0.0000    0.0249
ML11         ?    BHZ  i P      c 20230914 1643   41.1631 GAU  1.68e-03 -1.00e+00 -1.00e+00 -1.00e+00    1.0000 >    0.7422    0.0061    1.6007  738.4670 9820.4900   -1.3120    2.4864 354.19 354.2 111.8 10     0.0000    0.0148
ML11         ?    BHE  e S      ? 20230914 1643   41.7200 GAU  2.93e-04 -1.00e+00 -1.00e+00 -1.00e+00    1.0000 >    1.3004    0.0049    1.4975  738.4670 9820.4900   -1.3120    2.4864 354.19 354.2 114.6 10     0.0000    0.0260
ML09         ?    BHZ  i P      c 20230914 1643   41.2686 GAU  1.09e-03 -1.00e+00  7.25e+01 -1.00e+00    1.0000 >    0.8837   -0.0299    1.3629  737.8820 9820.9850   -1.2700    3.0843 344.26 344.3 106.0 10     0.0000    0.0177
ML09         ?    BHN  e S      ? 20230914 1643   41.9461 GAU  3.01e-04 -1.00e+00  4.59e+02 -1.00e+00    1.0000 >    1.5506   -0.0192    1.4052  737.8820 9820.9850   -1.2700    3.0843 344.26 344.3 109.2 10     0.0000    0.0310
ML13         ?    BHZ  i P      c 20230914 1643   41.3768 GAU  5.59e-04 -1.00e+00 -1.00e+00 -1.00e+00    1.0000 >    1.0707   -0.1088    0.2129  737.1780 9821.5410   -1.2220    3.8467 336.39 336.4 101.1 10     0.0000    0.0214
ML13         ?    BHE  e S      ? 20230914 1643   42.0421 GAU  2.71e-04 -1.00e+00 -1.00e+00 -1.00e+00    1.0000 >    1.8827   -0.2554    0.0368  737.1780 9821.5410   -1.2220    3.8467 336.39 336.4 104.4 10     0.0000    0.0377
ML10         ?    BHZ  e P      c 20230914 1643   41.5173 GAU  1.12e-03 -1.00e+00 -1.00e+00 -1.00e+00    1.0000 >    1.1070   -0.0045    1.6094  736.5490 9821.3650   -1.2200    3.9901 327.06 327.1 100.5 10     0.0000    0.0221
ML10         ?    BHN  e S      ? 20230914 1643   42.3786 GAU  2.72e-04 -1.00e+00 -1.00e+00 -1.00e+00    1.0000 >    1.9471    0.0167    1.1851  736.5490 9821.3650   -1.2200    3.9901 327.06 327.1 103.7 10     0.0000    0.0389
ML05         ?    BHZ  i P      c 20230914 1643   41.7396 GAU  8.11e-04 -1.00e+00  4.02e+01 -1.00e+00    1.0000 >    1.2943    0.0305    1.0455  736.2660 9822.0830   -1.1500    4.7490 328.90 328.9  97.7 10     0.0000    0.0259
ML05         ?    BHE  e S      ? 20230914 1643   42.7118 GAU  2.26e-04 -1.00e+00 -1.00e+00 -1.00e+00    1.0000 >    2.2834    0.0136    1.1317  736.2660 9822.0830   -1.1500    4.7490 328.90 328.9 100.3 10     0.0000    0.0457
ML07         ?    BHZ  e P      c 20230914 1643   41.7488 GAU  8.89e-04 -1.00e+00 -1.00e+00 -1.00e+00    1.0000 >    1.3433   -0.0093    1.5295  737.4430 9822.8030   -1.1120    4.9537 345.08 345.1  97.0 10     0.0000    0.0269
ML07         ?    BHE  e S      ? 20230914 1643   42.7482 GAU  2.79e-04 -1.00e+00 -1.00e+00 -1.00e+00    1.0000 >    2.3727   -0.0394    1.0539  737.4430 9822.8030   -1.1120    4.9537 345.08 345.1  99.4 10     0.0000    0.0475
ML12         ?    BHZ  i P      c 20230914 1643   41.8541 GAU  2.71e-04 -1.00e+00 -1.00e+00 -1.00e+00    1.0000 >    1.5187   -0.0794    0.5068  736.8520 9823.3800   -0.9890    5.6792 340.81 340.8  95.5 10     0.0000    0.0304
ML12         ?    BHE  e S      ? 20230914 1643   42.9263 GAU  4.51e-04 -1.00e+00  5.67e+01 -1.00e+00    1.0000 >    2.6862   -0.1747    0.1402  736.8520 9823.3800   -0.9890    5.6792 340.81 340.8  72.9 10     0.0000    0.0537
END_PHASE
END_NLLOC

