NLLOC "./loc/SEML.20230921.032619.grid0" "LOCATED" "Location completed."
PUBLIC_ID None
SIGNATURE "Arham Zakki Edelo - edelo.17034@mhs.its.ac.id   obs:./obs/2023_09.obs   NLLoc:v7.00.10(30Aug2020)   run:22Jan2024 21h55m17"
COMMENT "SEML"
GRID  2001 2001 1001  727 9811 -2  0.01 0.01 0.01 PROB_DENSITY
SEARCH OCTREE nInitial 4851 nEvaluated 20011 smallestNodeSide 0.014881/0.014881/0.014205 oct_tree_integral 1.545345e-02 scatter_volume 1.533719e-02
HYPOCENTER  x 738.89 y 9818.16 z -0.224432  OT 18.5921  ix -1 iy -1 iz -1 MAXIMUM_LIKELIHOOD
GEOGRAPHIC  OT 2023 09 21  03 26 18.592066  Lat 9818.157738 Long 738.889881 Depth -0.224432
QUALITY  Pmax 1.31223e+48 MFmin 59.7961 MFmax 75.0172 RMS 0.0239465 Nphs 16 Gap 308.841 Dist 1.12091 Mamp -9.90 0 Mdur -9.90 0
VPVSRATIO  VpVsRatio 1.768  Npair 8  Diff 0.645025
STATISTICS  ExpectX 738.894707 Y 9818.137797 Z -0.223382  CovXX 0.0235757 XY -0.00397311 XZ -0.0224252 YY 0.0112284 YZ 0.00894241 ZZ 0.0574487 EllAz1  356.545 Dip1  -12.1094 Len1  0.18357 Az2  260.872 Dip2  -24.7376 Len2  0.209828 Len3  4.979222e-01
STAT_GEOG  ExpectLat 9818.137797 Long 738.894707 Depth -0.223382
TRANSFORM  NONE
QML_OriginQuality  assocPhCt 16  usedPhCt 16  assocStaCt -1  usedStaCt 8  depthPhCt -1  stdErr 0.0239465  azGap 308.841  secAzGap 308.841  gtLevel -  minDist 1.12091 maxDist 5.6058 medDist 2.80609
QML_OriginUncertainty  horUnc -1  minHorUnc 0.152115  maxHorUnc 0.238559  azMaxHorUnc 106.382
QML_ConfidenceEllipsoid  semiMajorAxisLength 0.497922  semiMinorAxisLength 0.18357  semiIntermediateAxisLength 0.209828  majorAxisPlunge -62.0889  majorAxisAzimuth 110.438  majorAxisRotation 138.255
FOCALMECH  Hyp  9818.157738 738.889881 -0.224432 Mech  0 0 0 mf  0 nObs -1
PHASE ID Ins Cmp On Pha  FM Date     HrMn   Sec     Err  ErrMag    Coda      Amp       Per       PriorWt  >   TTpred    Res       Weight    StaLoc(X  Y         Z)        SDist    SAzim  RAz  RDip RQual    Tcorr       TTerr
ML06         ?    BHZ  i P      d 20230921 0326   19.2739 GAU  7.55e-04 -1.00e+00  2.47e+01 -1.00e+00    1.0000 >    0.4378    0.2439    0.0005  738.3100 9819.1170   -1.3960    1.1209 328.85 328.8 134.0 10     0.0000    0.0088
ML06         ?    BHE  e S      ? 20230921 0326   19.7886 GAU  2.17e-04 -1.00e+00 -1.00e+00 -1.00e+00    1.0000 >    0.7636    0.4329    0.0000  738.3100 9819.1170   -1.3960    1.1209 328.85 328.8 135.7 10     0.0000    0.0153
ML14         ?    BHZ  e P      d 20230921 0326   19.3410 GAU  5.13e-04 -1.00e+00  9.63e+02 -1.00e+00    1.0000 >    0.6935    0.0554    0.8030  737.5530 9820.0110   -1.3980    2.2851 324.19 324.2 112.5 10     0.0000    0.0139
ML14         ?    BHN  e S      ? 20230921 0326   19.9543 GAU  9.69e-04 -1.00e+00  4.00e+02 -1.00e+00    1.0000 >    1.2103    0.1519    0.0172  737.5530 9820.0110   -1.3980    2.2851 324.19 324.2 115.8 10     0.0000    0.0242
ML11         ?    BHZ  e P      c 20230921 0326   19.2896 GAU  3.64e-04 -1.00e+00 -1.00e+00 -1.00e+00    1.0000 >    0.7029   -0.0054    1.7311  738.4670 9820.4900   -1.3120    2.3703 349.72 349.7 109.7 10     0.0000    0.0141
ML11         ?    BHN  e S      ? 20230921 0326   19.8181 GAU  2.02e-03 -1.00e+00 -1.00e+00 -1.00e+00    1.0000 >    1.2282   -0.0021    1.6402  738.4670 9820.4900   -1.3120    2.3703 349.72 349.7 113.1 10     0.0000    0.0246
ML02         ?    BHZ  e P      c 20230921 0326   19.3752 GAU  7.07e-04 -1.00e+00 -1.00e+00 -1.00e+00    1.0000 >    0.7848   -0.0017    1.7854  736.5970 9819.4060   -1.4960    2.6106 298.56 298.6 110.9 10     0.0000    0.0157
ML02         ?    BHN  e S      ? 20230921 0326   19.9727 GAU  1.20e-03 -1.00e+00 -1.00e+00 -1.00e+00    1.0000 >    1.3687    0.0119    1.6612  736.5970 9819.4060   -1.4960    2.6106 298.56 298.6 114.4 10     0.0000    0.0274
ML09         ?    BHZ  e P      c 20230921 0326   19.4750 GAU  6.74e-04 -1.00e+00 -1.00e+00 -1.00e+00    1.0000 >    0.8550    0.0279    1.5440  737.8820 9820.9850   -1.2700    3.0015 340.38 340.4 103.4 10     0.0000    0.0171
ML09         ?    BHN  e S      ? 20230921 0326   20.1206 GAU  9.07e-05 -1.00e+00  4.78e+02 -1.00e+00    1.0000 >    1.4964    0.0321    1.4376  737.8820 9820.9850   -1.2700    3.0015 340.38 340.4 107.3 10     0.0000    0.0299
ML13         ?    BHZ  e P      c 20230921 0326   19.4960 GAU  2.60e-04 -1.00e+00 -1.00e+00 -1.00e+00    1.0000 >    1.0513   -0.1474    0.0121  737.1780 9821.5410   -1.2220    3.7917 333.16 333.2  98.6 10     0.0000    0.0210
ML13         ?    BHN  e S      ? 20230921 0326   20.1823 GAU  2.09e-04 -1.00e+00 -1.00e+00 -1.00e+00    1.0000 >    1.8448   -0.2545    0.0074  737.1780 9821.5410   -1.2220    3.7917 333.16 333.2 102.4 10     0.0000    0.0369
ML05         ?    BHZ  e P      c 20230921 0326   19.8615 GAU  6.96e-04 -1.00e+00  9.59e+01 -1.00e+00    1.0000 >    1.2836   -0.0142    1.4038  736.2660 9822.0830   -1.1500    4.7215 326.24 326.2  95.6 10     0.0000    0.0257
ML05         ?    BHE  e S      ? 20230921 0326   20.8438 GAU  4.45e-04 -1.00e+00 -1.00e+00 -1.00e+00    1.0000 >    2.2616   -0.0099    1.2226  736.2660 9822.0830   -1.1500    4.7215 326.24 326.2  98.4 10     0.0000    0.0452
ML12         ?    BHZ  e P      d 20230921 0326   20.1120 GAU  6.86e-04 -1.00e+00 -1.00e+00 -1.00e+00    1.0000 >    1.4972    0.0228    1.5542  736.8520 9823.3800   -0.9890    5.6058 338.68 338.7  94.0 10     0.0000    0.0299
ML12         ?    BHN  e S      ? 20230921 0326   21.2718 GAU  5.78e-04 -1.00e+00 -1.00e+00 -1.00e+00    1.0000 >    2.6536    0.0261    1.1797  736.8520 9823.3800   -0.9890    5.6058 338.68 338.7  95.3 10     0.0000    0.0531
END_PHASE
END_NLLOC

