NLLOC "./loc/SEML.20230928.084102.grid0" "LOCATED" "Location completed."
PUBLIC_ID None
SIGNATURE "Arham Zakki Edelo - edelo.17034@mhs.its.ac.id   obs:./obs/2023_09.obs   NLLoc:v7.00.10(30Aug2020)   run:22Jan2024 21h56m33"
COMMENT "SEML"
GRID  2001 2001 1001  727 9811 -2  0.01 0.01 0.01 PROB_DENSITY
SEARCH OCTREE nInitial 4851 nEvaluated 20003 smallestNodeSide 0.014881/0.014881/0.014205 oct_tree_integral 1.588401e-02 scatter_volume 1.587748e-02
HYPOCENTER  x 738.525 y 9817.91 z 0.137784  OT 2.16467  ix -1 iy -1 iz -1 MAXIMUM_LIKELIHOOD
GEOGRAPHIC  OT 2023 09 28  08 41 2.164666  Lat 9817.912202 Long 738.525298 Depth 0.137784
QUALITY  Pmax 5.84143e+68 MFmin 72.6109 MFmax 83.8167 RMS 0.0222684 Nphs 20 Gap 309.059 Dist 1.22388 Mamp -9.90 0 Mdur -9.90 0
VPVSRATIO  VpVsRatio 1.72976  Npair 10  Diff 0.638176
STATISTICS  ExpectX 738.538349 Y 9817.914190 Z 0.133656  CovXX 0.0134769 XY -0.0026296 XZ -0.00783374 YY 0.00921474 YZ 0.000238127 ZZ 0.0164955 EllAz1  53.5798 Dip1  30.1435 Len1  0.144115 Az2  339.309 Dip2  -25.0244 Len2  0.188718 Len3  2.862641e-01
STAT_GEOG  ExpectLat 9817.914190 Long 738.538349 Depth 0.133656
TRANSFORM  NONE
QML_OriginQuality  assocPhCt 20  usedPhCt 20  assocStaCt -1  usedStaCt 10  depthPhCt -1  stdErr 0.0222684  azGap 309.059  secAzGap 309.059  gtLevel -  minDist 1.22388 maxDist 5.71811 medDist 2.85894
QML_OriginUncertainty  horUnc -1  minHorUnc 0.135316  maxHorUnc 0.184066  azMaxHorUnc 115.489
QML_ConfidenceEllipsoid  semiMajorAxisLength 0.286264  semiMinorAxisLength 0.144115  semiIntermediateAxisLength 0.188718  majorAxisPlunge -48.96  majorAxisAzimuth 101.738  majorAxisRotation 263.379
FOCALMECH  Hyp  9817.912202 738.525298 0.137784 Mech  0 0 0 mf  0 nObs -1
PHASE ID Ins Cmp On Pha  FM Date     HrMn   Sec     Err  ErrMag    Coda      Amp       Per       PriorWt  >   TTpred    Res       Weight    StaLoc(X  Y         Z)        SDist    SAzim  RAz  RDip RQual    Tcorr       TTerr
ML06         ?    BHZ  i P      c 20230928 0841    2.8759 GAU  1.16e-03 -1.00e+00 -1.00e+00 -1.00e+00    1.0000 >    0.5248    0.1864    0.0029  738.3100 9819.1170   -1.3960    1.2239 349.87 349.9 140.0 10     0.0000    0.0105
ML06         ?    BHN  i S      ? 20230928 0841    3.4285 GAU  1.09e-03 -1.00e+00 -1.00e+00 -1.00e+00    1.0000 >    0.9179    0.3459    0.0000  738.3100 9819.1170   -1.3960    1.2239 349.87 349.9 139.2 10     0.0000    0.0184
ML04         ?    BHZ  e P      d 20230928 0841    2.8480 GAU  7.93e-04 -1.00e+00  1.76e+03 -1.00e+00    1.0000 >    0.6905   -0.0071    1.3978  737.1400 9819.2520   -1.5710    1.9272 314.04 314.0 129.1 10     0.0000    0.0138
ML04         ?    BHN  e S      ? 20230928 0841    3.3689 GAU  2.42e-03 -1.00e+00  6.98e+02 -1.00e+00    1.0000 >    1.2061   -0.0019    1.3208  737.1400 9819.2520   -1.5710    1.9272 314.04 314.0 127.9 10     0.0000    0.0241
ML14         ?    BHZ  i P      c 20230928 0841    2.9465 GAU  2.02e-03 -1.00e+00 -1.00e+00 -1.00e+00    1.0000 >    0.7422    0.0396    0.9444  737.5530 9820.0110   -1.3980    2.3131 335.14 335.1 120.6 10     0.0000    0.0148
ML14         ?    BHE  e S      ? 20230928 0841    3.5268 GAU  7.50e-04 -1.00e+00  4.40e+02 -1.00e+00    1.0000 >    1.2986    0.0635    0.5572  737.5530 9820.0110   -1.3980    2.3131 335.14 335.1 118.8 10     0.0000    0.0260
ML02         ?    BHZ  e P      c 20230928 0841    2.9510 GAU  1.27e-03 -1.00e+00 -1.00e+00 -1.00e+00    1.0000 >    0.7860    0.0003    1.4592  736.5970 9819.4060   -1.4960    2.4392 307.76 307.8 120.8 10     0.0000    0.0157
ML02         ?    BHN  e S      ? 20230928 0841    3.5574 GAU  1.36e-03 -1.00e+00  1.76e+03 -1.00e+00    1.0000 >    1.3741    0.0186    1.2511  736.5970 9819.4060   -1.4960    2.4392 307.76 307.8 119.0 10     0.0000    0.0275
ML11         ?    BHZ  i P      c 20230928 0841    2.9735 GAU  3.08e-03 -1.00e+00  2.71e+01 -1.00e+00    1.0000 >    0.7894    0.0194    1.3482  738.4670 9820.4900   -1.3120    2.5785 358.70 358.7 116.2 10     0.0000    0.0158
ML11         ?    BHN  e S      ? 20230928 0841    3.5546 GAU  3.51e-04 -1.00e+00  3.70e+00 -1.00e+00    1.0000 >    1.3824    0.0076    1.2951  738.4670 9820.4900   -1.3120    2.5785 358.70 358.7 113.8 10     0.0000    0.0276
ML09         ?    BHZ  i P      c 20230928 0841    3.0708 GAU  2.90e-03 -1.00e+00  8.24e+01 -1.00e+00    1.0000 >    0.9169   -0.0108    1.2915  737.8820 9820.9850   -1.2700    3.1394 348.18 348.2 110.5 10     0.0000    0.0183
ML09         ?    BHN  e S      ? 20230928 0841    3.7657 GAU  3.12e-04 -1.00e+00  4.60e+02 -1.00e+00    1.0000 >    1.6067   -0.0057    1.1689  737.8820 9820.9850   -1.2700    3.1394 348.18 348.2 107.1 10     0.0000    0.0321
ML13         ?    BHZ  i P      c 20230928 0841    3.2391 GAU  1.17e-03 -1.00e+00 -1.00e+00 -1.00e+00    1.0000 >    1.0911   -0.0167    1.1495  737.1780 9821.5410   -1.2220    3.8708 339.63 339.6 105.3 10     0.0000    0.0218
ML13         ?    BHN  e S      ? 20230928 0841    4.0438 GAU  4.93e-04 -1.00e+00  7.96e+00 -1.00e+00    1.0000 >    1.9133   -0.0342    0.7825  737.1780 9821.5410   -1.2220    3.8708 339.63 339.6 100.5 10     0.0000    0.0383
ML05         ?    BHZ  i P      d 20230928 0841    3.4951 GAU  1.29e-03 -1.00e+00  1.12e+02 -1.00e+00    1.0000 >    1.3029    0.0275    1.1719  736.2660 9822.0830   -1.1500    4.7434 331.56 331.6 101.0 10     0.0000    0.0261
ML05         ?    BHN  e S      ? 20230928 0841    4.5099 GAU  3.69e-04 -1.00e+00  3.08e+02 -1.00e+00    1.0000 >    2.2852    0.0599    0.6826  736.2660 9822.0830   -1.1500    4.7434 331.56 331.6  95.5  9     0.0000    0.0457
ML07         ?    BHZ  i P      d 20230928 0841    3.5355 GAU  1.08e-03 -1.00e+00 -1.00e+00 -1.00e+00    1.0000 >    1.3666    0.0042    1.2972  737.4430 9822.8030   -1.1120    5.0091 347.52 347.5 100.0 10     0.0000    0.0273
ML07         ?    BHE  e S      ? 20230928 0841    4.5340 GAU  9.73e-04 -1.00e+00 -1.00e+00 -1.00e+00    1.0000 >    2.3966   -0.0273    0.8152  737.4430 9822.8030   -1.1120    5.0091 347.52 347.5  94.5  9     0.0000    0.0479
ML12         ?    BHZ  e P      c 20230928 0841    3.7227 GAU  4.69e-04 -1.00e+00 -1.00e+00 -1.00e+00    1.0000 >    1.5356    0.0225    1.1774  736.8520 9823.3800   -0.9890    5.7181 342.98 343.0  97.6 10     0.0000    0.0307
ML12         ?    BHN  e S      ? 20230928 0841    4.8818 GAU  9.88e-04 -1.00e+00 -1.00e+00 -1.00e+00    1.0000 >    2.6911    0.0261    0.8865  736.8520 9823.3800   -0.9890    5.7181 342.98 343.0  93.1  9     0.0000    0.0538
END_PHASE
END_NLLOC

