NLLOC "./loc/SEML.20230914.164822.grid0" "LOCATED" "Location completed."
PUBLIC_ID None
SIGNATURE "Arham Zakki Edelo - edelo.17034@mhs.its.ac.id   obs:./obs/2023_09.obs   NLLoc:v7.00.10(30Aug2020)   run:22Jan2024 21h54m54"
COMMENT "SEML"
GRID  2001 2001 1001  727 9811 -2  0.01 0.01 0.01 PROB_DENSITY
SEARCH OCTREE nInitial 4851 nEvaluated 20003 smallestNodeSide 0.007440/0.007440/0.007102 oct_tree_integral 5.837612e-03 scatter_volume 5.837612e-03
HYPOCENTER  x 737.301 y 9818.7 z 0.46804  OT 22.3478  ix -1 iy -1 iz -1 MAXIMUM_LIKELIHOOD
GEOGRAPHIC  OT 2023 09 14  16 48 22.347757  Lat 9818.697173 Long 737.301339 Depth 0.468040
QUALITY  Pmax 1.1897e+66 MFmin 77.4899 MFmax 87.0262 RMS 0.0251296 Nphs 20 Gap 275.595 Dist 0.577809 Mamp -9.90 0 Mdur -9.90 0
VPVSRATIO  VpVsRatio 1.72197  Npair 10  Diff 0.565409
STATISTICS  ExpectX 737.503453 Y 9818.668116 Z 0.514851  CovXX 0.302272 XY 0.0583479 XZ 0.00854521 YY 0.0223824 YZ -0.00210534 ZZ 0.00944487 EllAz1  346.882 Dip1  50.5332 Len1  0.147459 Az2  349.934 Dip2  -39.4269 Len2  0.220574 Len3  1.053078e+00
STAT_GEOG  ExpectLat 9818.668116 Long 737.503453 Depth 0.514851
TRANSFORM  NONE
QML_OriginQuality  assocPhCt 20  usedPhCt 20  assocStaCt -1  usedStaCt 10  depthPhCt -1  stdErr 0.0251296  azGap 275.595  secAzGap 275.595  gtLevel -  minDist 0.577809 maxDist 4.70434 medDist 2.56612
QML_OriginUncertainty  horUnc -1  minHorUnc 0.156919  maxHorUnc 0.849754  azMaxHorUnc 78.6835
QML_ConfidenceEllipsoid  semiMajorAxisLength 1.05308  semiMinorAxisLength 0.147459  semiIntermediateAxisLength 0.220574  majorAxisPlunge 1.49774  majorAxisAzimuth 78.702  majorAxisRotation 129.405
FOCALMECH  Hyp  9818.697173 737.301339 0.468040 Mech  0 0 0 mf  0 nObs -1
PHASE ID Ins Cmp On Pha  FM Date     HrMn   Sec     Err  ErrMag    Coda      Amp       Per       PriorWt  >   TTpred    Res       Weight    StaLoc(X  Y         Z)        SDist    SAzim  RAz  RDip RQual    Tcorr       TTerr
ML04         ?    BHZ  e P      c 20230914 1648   22.9130 GAU  9.27e-04 -1.00e+00 -1.00e+00 -1.00e+00    1.0000 >    0.5653    0.0000    1.9750  737.1400 9819.2520   -1.5710    0.5778 343.79 343.8 163.6 10     0.0000    0.0113
ML04         ?    BHE  e S      ? 20230914 1648   23.3380 GAU  9.40e-04 -1.00e+00  3.90e+02 -1.00e+00    1.0000 >    0.9849    0.0054    1.6907  737.1400 9819.2520   -1.5710    0.5778 343.79 343.8 163.4 10     0.0000    0.0197
ML06         ?    BHZ  i P      c 20230914 1648   22.9236 GAU  6.47e-04 -1.00e+00 -1.00e+00 -1.00e+00    1.0000 >    0.5746    0.0012    1.9655  738.3100 9819.1170   -1.3960    1.0925  67.40  67.4 148.8 10     0.0000    0.0115
ML06         ?    BHE  e S      ? 20230914 1648   23.3605 GAU  2.79e-03 -1.00e+00 -1.00e+00 -1.00e+00    1.0000 >    1.0021    0.0107    1.6015  738.3100 9819.1170   -1.3960    1.0925  67.40  67.4 148.3 10     0.0000    0.0200
ML14         ?    BHZ  e P      c 20230914 1648   22.9574 GAU  9.68e-04 -1.00e+00 -1.00e+00 -1.00e+00    1.0000 >    0.6105   -0.0008    1.9519  737.5530 9820.0110   -1.3980    1.3377  10.84  10.8 143.3 10     0.0000    0.0122
ML14         ?    BHE  e S      ? 20230914 1648   23.4730 GAU  1.12e-03 -1.00e+00  5.13e+02 -1.00e+00    1.0000 >    1.0646    0.0606    0.4223  737.5530 9820.0110   -1.3980    1.3377  10.84  10.8 142.7 10     0.0000    0.0213
ML11         ?    BHZ  i P      c 20230914 1648   22.9976 GAU  3.76e-03 -1.00e+00 -1.00e+00 -1.00e+00    1.0000 >    0.7382   -0.0884    0.0739  738.4670 9820.4900   -1.3120    2.1385  33.03  33.0 127.9 10     0.0000    0.0148
ML11         ?    BHE  e S      ? 20230914 1648   23.5023 GAU  2.71e-03 -1.00e+00 -1.00e+00 -1.00e+00    1.0000 >    1.2881   -0.1336    0.0530  738.4670 9820.4900   -1.3120    2.1385  33.03  33.0 126.8 10     0.0000    0.0258
ML09         ?    BHZ  i P      c 20230914 1648   23.1045 GAU  1.34e-03 -1.00e+00  8.71e+01 -1.00e+00    1.0000 >    0.7771   -0.0204    1.3390  737.8820 9820.9850   -1.2700    2.3604  14.24  14.2 124.4 10     0.0000    0.0155
ML09         ?    BHE  e S      ? 20230914 1648   23.6864 GAU  5.15e-04 -1.00e+00  3.33e+02 -1.00e+00    1.0000 >    1.3563   -0.0177    1.3074  737.8820 9820.9850   -1.2700    2.3604  14.24  14.2 123.1 10     0.0000    0.0271
ML10         ?    BHZ  i P      d 20230914 1648   23.4070 GAU  1.16e-03 -1.00e+00  8.47e+02 -1.00e+00    1.0000 >    0.8594    0.1999    0.0647  736.5490 9821.3650   -1.2200    2.7719 344.25 344.3 119.1 10     0.0000    0.0172
ML10         ?    BHE  e S      ? 20230914 1648   24.2507 GAU  2.72e-03 -1.00e+00 -1.00e+00 -1.00e+00    1.0000 >    1.5005    0.4025    0.0152  736.5490 9821.3650   -1.2200    2.7719 344.25 344.3 117.5 10     0.0000    0.0300
ML13         ?    BHZ  i P      c 20230914 1648   23.2033 GAU  9.01e-04 -1.00e+00 -1.00e+00 -1.00e+00    1.0000 >    0.8766   -0.0210    1.3140  737.1780 9821.5410   -1.2220    2.8465 357.52 357.5 118.4 10     0.0000    0.0175
ML13         ?    BHE  e S      ? 20230914 1648   23.8868 GAU  7.22e-04 -1.00e+00 -1.00e+00 -1.00e+00    1.0000 >    1.5305    0.0085    1.3925  737.1780 9821.5410   -1.2220    2.8465 357.52 357.5 116.8 10     0.0000    0.0306
ML05         ?    BHZ  i P      d 20230914 1648   23.5374 GAU  9.88e-04 -1.00e+00  3.14e+02 -1.00e+00    1.0000 >    1.0287    0.1609    0.0727  736.2660 9822.0830   -1.1500    3.5406 343.00 343.0 112.1 10     0.0000    0.0206
ML05         ?    BHN  e S      ? 20230914 1648   24.4559 GAU  2.61e-04 -1.00e+00  2.88e+02 -1.00e+00    1.0000 >    1.7969    0.3113    0.0177  736.2660 9822.0830   -1.1500    3.5406 343.00 343.0 109.9 10     0.0000    0.0359
ML07         ?    BHZ  i P      d 20230914 1648   23.5202 GAU  1.05e-03 -1.00e+00 -1.00e+00 -1.00e+00    1.0000 >    1.1616    0.0108    1.5347  737.4430 9822.8030   -1.1120    4.1083   1.98   2.0 108.4 10     0.0000    0.0232
ML07         ?    BHE  e S      ? 20230914 1648   24.4217 GAU  1.69e-04 -1.00e+00 -1.00e+00 -1.00e+00    1.0000 >    2.0291    0.0448    0.8564  737.4430 9822.8030   -1.1120    4.1083   1.98   2.0  91.7  9     0.0000    0.0406
ML12         ?    BHZ  e P      d 20230914 1648   23.6490 GAU  6.29e-04 -1.00e+00 -1.00e+00 -1.00e+00    1.0000 >    1.2950    0.0062    1.5176  736.8520 9823.3800   -0.9890    4.7043 354.52 354.5 104.8 10     0.0000    0.0259
ML12         ?    BHE  e S      ? 20230914 1648   24.6393 GAU  1.35e-03 -1.00e+00  4.60e+01 -1.00e+00    1.0000 >    2.2455    0.0461    0.8343  736.8520 9823.3800   -0.9890    4.7043 354.52 354.5  67.2 10     0.0000    0.0449
END_PHASE
END_NLLOC

