NLLOC "./loc/SEML.20230928.080750.grid0" "LOCATED" "Location completed."
PUBLIC_ID None
SIGNATURE "Arham Zakki Edelo - edelo.17034@mhs.its.ac.id   obs:./obs/2023_09.obs   NLLoc:v7.00.10(30Aug2020)   run:22Jan2024 21h55m58"
COMMENT "SEML"
GRID  2001 2001 1001  727 9811 -2  0.01 0.01 0.01 PROB_DENSITY
SEARCH OCTREE nInitial 4851 nEvaluated 20011 smallestNodeSide 0.014881/0.014881/0.014205 oct_tree_integral 1.240721e-02 scatter_volume 1.225254e-02
HYPOCENTER  x 738.793 y 9818.66 z 0.109375  OT 49.7104  ix -1 iy -1 iz -1 MAXIMUM_LIKELIHOOD
GEOGRAPHIC  OT 2023 09 28  08 07 49.710402  Lat 9818.656250 Long 738.793155 Depth 0.109375
QUALITY  Pmax 1.07789e+61 MFmin 71.7474 MFmax 86.4576 RMS 0.0211478 Nphs 18 Gap 298.935 Dist 0.667629 Mamp -9.90 0 Mdur -9.90 0
VPVSRATIO  VpVsRatio 1.73182  Npair 9  Diff 0.469559
STATISTICS  ExpectX 738.797871 Y 9818.664754 Z 0.095694  CovXX 0.013848 XY -0.00399969 XZ -0.0104744 YY 0.00733418 YZ 0.00174033 ZZ 0.0182836 EllAz1  49.6982 Dip1  25.5096 Len1  0.117365 Az2  335.661 Dip2  -29.9568 Len2  0.168493 Len3  3.116888e-01
STAT_GEOG  ExpectLat 9818.664754 Long 738.797871 Depth 0.095694
TRANSFORM  NONE
QML_OriginQuality  assocPhCt 18  usedPhCt 18  assocStaCt -1  usedStaCt 9  depthPhCt -1  stdErr 0.0211478  azGap 298.935  secAzGap 298.935  gtLevel -  minDist 0.667629 maxDist 4.36102 medDist 2.32061
QML_OriginUncertainty  horUnc -1  minHorUnc 0.111786  maxHorUnc 0.190323  azMaxHorUnc 115.422
QML_ConfidenceEllipsoid  semiMajorAxisLength 0.311689  semiMinorAxisLength 0.117365  semiIntermediateAxisLength 0.168493  majorAxisPlunge -48.7453  majorAxisAzimuth 106.74  majorAxisRotation 261.404
FOCALMECH  Hyp  9818.656250 738.793155 0.109375 Mech  0 0 0 mf  0 nObs -1
PHASE ID Ins Cmp On Pha  FM Date     HrMn   Sec     Err  ErrMag    Coda      Amp       Per       PriorWt  >   TTpred    Res       Weight    StaLoc(X  Y         Z)        SDist    SAzim  RAz  RDip RQual    Tcorr       TTerr
ML06         ?    BHZ  i P      c 20230928 0807   50.2348 GAU  6.47e-04 -1.00e+00  8.75e+01 -1.00e+00    1.0000 >    0.4410    0.0835    0.1153  738.3100 9819.1170   -1.3960    0.6676 313.64 313.6 155.3 10     0.0000    0.0088
ML06         ?    BHE  e S      ? 20230928 0807   50.7053 GAU  5.40e-04 -1.00e+00  2.83e+00 -1.00e+00    1.0000 >    0.7715    0.2234    0.0000  738.3100 9819.1170   -1.3960    0.6676 313.64 313.6 154.8 10     0.0000    0.0154
ML04         ?    BHZ  e P      d 20230928 0807   50.3530 GAU  1.91e-03 -1.00e+00  1.19e+03 -1.00e+00    1.0000 >    0.6522   -0.0096    1.4048  737.1400 9819.2520   -1.5710    1.7572 289.82 289.8 131.4 10     0.0000    0.0130
ML04         ?    BHE  e S      ? 20230928 0807   50.8613 GAU  8.58e-04 -1.00e+00  3.37e+02 -1.00e+00    1.0000 >    1.1395    0.0114    1.2488  737.1400 9819.2520   -1.5710    1.7572 289.82 289.8 130.3 10     0.0000    0.0228
ML14         ?    BHZ  i P      c 20230928 0807   50.3007 GAU  5.27e-04 -1.00e+00 -1.00e+00 -1.00e+00    1.0000 >    0.6356   -0.0454    0.5060  737.5530 9820.0110   -1.3980    1.8367 317.53 317.5 126.9 10     0.0000    0.0127
ML14         ?    BHN  e S      ? 20230928 0807   50.8006 GAU  6.24e-04 -1.00e+00  3.22e+02 -1.00e+00    1.0000 >    1.1123   -0.0221    1.1234  737.5530 9820.0110   -1.3980    1.8367 317.53 317.5 125.4 10     0.0000    0.0222
ML11         ?    BHZ  i P      c 20230928 0807   50.3426 GAU  1.79e-03 -1.00e+00 -1.00e+00 -1.00e+00    1.0000 >    0.6258    0.0064    1.4440  738.4670 9820.4900   -1.3120    1.8625 349.91 349.9 124.8 10     0.0000    0.0125
ML11         ?    BHE  e S      ? 20230928 0807   50.8344 GAU  2.71e-04 -1.00e+00 -1.00e+00 -1.00e+00    1.0000 >    1.0961    0.0280    0.9624  738.4670 9820.4900   -1.3120    1.8625 349.91 349.9 123.1 10     0.0000    0.0219
ML02         ?    BHZ  e P      c 20230928 0807   50.4783 GAU  1.42e-03 -1.00e+00 -1.00e+00 -1.00e+00    1.0000 >    0.7560    0.0119    1.3348  736.5970 9819.4060   -1.4960    2.3206 288.85 288.8 121.7 10     0.0000    0.0151
ML02         ?    BHN  e S      ? 20230928 0807   51.0460 GAU  1.29e-03 -1.00e+00 -1.00e+00 -1.00e+00    1.0000 >    1.3220    0.0136    1.1729  736.5970 9819.4060   -1.4960    2.3206 288.85 288.8 119.9 10     0.0000    0.0264
ML09         ?    BHZ  i P      c 20230928 0807   50.4627 GAU  2.06e-04 -1.00e+00  1.80e+00 -1.00e+00    1.0000 >    0.7620   -0.0097    1.3892  737.8820 9820.9850   -1.2700    2.5007 338.63 338.6 115.7 10     0.0000    0.0152
ML09         ?    BHE  e S      ? 20230928 0807   51.0249 GAU  2.51e-04 -1.00e+00  3.52e+02 -1.00e+00    1.0000 >    1.3356   -0.0211    1.0993  737.8820 9820.9850   -1.2700    2.5007 338.63 338.6 113.1 10     0.0000    0.0267
ML13         ?    BHZ  i P      d 20230928 0807   50.6390 GAU  7.76e-04 -1.00e+00  2.58e+02 -1.00e+00    1.0000 >    0.9491   -0.0205    1.1727  737.1780 9821.5410   -1.2220    3.3061 330.76 330.8 108.0 10     0.0000    0.0190
ML13         ?    BHE  e S      ? 20230928 0807   51.3514 GAU  6.57e-04 -1.00e+00 -1.00e+00 -1.00e+00    1.0000 >    1.6651   -0.0242    0.9893  737.1780 9821.5410   -1.2220    3.3061 330.76 330.8 103.8 10     0.0000    0.0333
ML05         ?    BHZ  i P      d 20230928 0807   50.8920 GAU  1.47e-03 -1.00e+00  1.47e+02 -1.00e+00    1.0000 >    1.1785    0.0031    1.3019  736.2660 9822.0830   -1.1500    4.2578 323.59 323.6 102.3 10     0.0000    0.0236
ML05         ?    BHN  e S      ? 20230928 0807   51.8057 GAU  4.46e-04 -1.00e+00  3.08e+02 -1.00e+00    1.0000 >    2.0692    0.0261    0.9010  736.2660 9822.0830   -1.1500    4.2578 323.59 323.6  96.2  9     0.0000    0.0414
ML07         ?    BHZ  e P      c 20230928 0807   50.9279 GAU  1.30e-03 -1.00e+00 -1.00e+00 -1.00e+00    1.0000 >    1.2006    0.0168    1.1597  737.4430 9822.8030   -1.1120    4.3610 341.97 342.0 101.5 10     0.0000    0.0240
ML07         ?    BHN  e S      ? 20230928 0807   51.8679 GAU  2.96e-04 -1.00e+00 -1.00e+00 -1.00e+00    1.0000 >    2.1085    0.0490    0.6742  737.4430 9822.8030   -1.1120    4.3610 341.97 342.0  95.4  9     0.0000    0.0422
END_PHASE
END_NLLOC

