NLLOC "./loc/SEML.20230928.084042.grid0" "LOCATED" "Location completed."
PUBLIC_ID None
SIGNATURE "Arham Zakki Edelo - edelo.17034@mhs.its.ac.id   obs:./obs/2023_09.obs   NLLoc:v7.00.10(30Aug2020)   run:22Jan2024 21h56m31"
COMMENT "SEML"
GRID  2001 2001 1001  727 9811 -2  0.01 0.01 0.01 PROB_DENSITY
SEARCH OCTREE nInitial 4851 nEvaluated 20003 smallestNodeSide 0.014881/0.014881/0.014205 oct_tree_integral 1.307843e-02 scatter_volume 1.293464e-02
HYPOCENTER  x 738.079 y 9818.21 z 0.56392  OT 41.382  ix -1 iy -1 iz -1 MAXIMUM_LIKELIHOOD
GEOGRAPHIC  OT 2023 09 28  08 40 41.382031  Lat 9818.209821 Long 738.078869 Depth 0.563920
QUALITY  Pmax 2.62296e+93 MFmin 94.6596 MFmax 113.018 RMS 0.0363509 Nphs 26 Gap 294.617 Dist 0.936159 Mamp -9.90 0 Mdur -9.90 0
VPVSRATIO  VpVsRatio 1.74708  Npair 13  Diff 0.566135
STATISTICS  ExpectX 738.076388 Y 9818.211900 Z 0.572660  CovXX 0.0163678 XY -0.00472109 XZ -0.00674006 YY 0.0103305 YZ 0.000431485 ZZ 0.0130065 EllAz1  45.9343 Dip1  32.3947 Len1  0.143661 Az2  168.477 Dip2  40.2915 Len2  0.196333 Len3  2.845578e-01
STAT_GEOG  ExpectLat 9818.211900 Long 738.076388 Depth 0.572660
TRANSFORM  NONE
QML_OriginQuality  assocPhCt 26  usedPhCt 26  assocStaCt -1  usedStaCt 13  depthPhCt -1  stdErr 0.0363509  azGap 294.617  secAzGap 294.617  gtLevel -  minDist 0.936159 maxDist 5.31375 medDist 2.90327
QML_OriginUncertainty  horUnc -1  minHorUnc 0.133472  maxHorUnc 0.208786  azMaxHorUnc 118.703
QML_ConfidenceEllipsoid  semiMajorAxisLength 0.284558  semiMinorAxisLength 0.143661  semiIntermediateAxisLength 0.196333  majorAxisPlunge -32.8839  majorAxisAzimuth 111.716  majorAxisRotation 116.355
FOCALMECH  Hyp  9818.209821 738.078869 0.563920 Mech  0 0 0 mf  0 nObs -1
PHASE ID Ins Cmp On Pha  FM Date     HrMn   Sec     Err  ErrMag    Coda      Amp       Per       PriorWt  >   TTpred    Res       Weight    StaLoc(X  Y         Z)        SDist    SAzim  RAz  RDip RQual    Tcorr       TTerr
ML06         ?    BHZ  i P      c 20230928 0840   42.0456 GAU  7.45e-04 -1.00e+00  2.21e+03 -1.00e+00    1.0000 >    0.5768    0.0868    0.3770  738.3100 9819.1170   -1.3960    0.9362  14.29  14.3 153.5 10     0.0000    0.0115
ML06         ?    BHN  i S      ? 20230928 0840   42.5417 GAU  1.79e-03 -1.00e+00 -1.00e+00 -1.00e+00    1.0000 >    1.0030    0.1567    0.1986  738.3100 9819.1170   -1.3960    0.9362  14.29  14.3 151.1 10     0.0000    0.0201
ML04         ?    BHZ  i P      d 20230928 0840   42.0499 GAU  7.54e-03 -1.00e+00  1.35e+03 -1.00e+00    1.0000 >    0.6800   -0.0121    1.3920  737.1400 9819.2520   -1.5710    1.4027 317.99 318.0 145.3 10     0.0000    0.0136
ML04         ?    BHE  e S      ? 20230928 0840   42.5602 GAU  1.55e-03 -1.00e+00 -1.00e+00 -1.00e+00    1.0000 >    1.1817   -0.0035    1.3833  737.1400 9819.2520   -1.5710    1.4027 317.99 318.0 141.9 10     0.0000    0.0236
ML14         ?    BHZ  i P      c 20230928 0840   42.1428 GAU  1.68e-03 -1.00e+00  8.56e+02 -1.00e+00    1.0000 >    0.7202    0.0405    0.9144  737.5530 9820.0110   -1.3980    1.8764 343.72 343.7 134.4 10     0.0000    0.0144
ML14         ?    BHN  e S      ? 20230928 0840   42.6493 GAU  9.71e-04 -1.00e+00  2.02e+03 -1.00e+00    1.0000 >    1.2523    0.0150    1.3500  737.5530 9820.0110   -1.3980    1.8764 343.72 343.7 129.2 10     0.0000    0.0250
ML02         ?    BHZ  i P      c 20230928 0840   42.1235 GAU  1.30e-03 -1.00e+00 -1.00e+00 -1.00e+00    1.0000 >    0.7455   -0.0040    1.5317  736.5970 9819.4060   -1.4960    1.9044 308.91 308.9 135.4 10     0.0000    0.0149
ML02         ?    BHN  e S      ? 20230928 0840   42.6827 GAU  9.70e-04 -1.00e+00 -1.00e+00 -1.00e+00    1.0000 >    1.2959    0.0048    1.3744  736.5970 9819.4060   -1.4960    1.9044 308.91 308.9 130.4 10     0.0000    0.0259
ML11         ?    BHZ  i P      c 20230928 0840   42.1755 GAU  1.56e-03 -1.00e+00  8.07e+02 -1.00e+00    1.0000 >    0.7888    0.0047    1.5465  738.4670 9820.4900   -1.3120    2.3130   9.66   9.7 126.4 10     0.0000    0.0158
ML11         ?    BHN  e S      ? 20230928 0840   42.7579 GAU  1.37e-03 -1.00e+00 -1.00e+00 -1.00e+00    1.0000 >    1.3718    0.0041    1.3466  738.4670 9820.4900   -1.3120    2.3130   9.66   9.7 119.4 10     0.0000    0.0274
ML09         ?    BHZ  i P      c 20230928 0840   42.2710 GAU  1.24e-03 -1.00e+00  4.92e+02 -1.00e+00    1.0000 >    0.8818    0.0072    1.5094  737.8820 9820.9850   -1.2700    2.7822 355.94 355.9 120.4 10     0.0000    0.0176
ML09         ?    BHE  e S      ? 20230928 0840   42.9177 GAU  1.74e-03 -1.00e+00  6.79e+02 -1.00e+00    1.0000 >    1.5333    0.0023    1.2864  737.8820 9820.9850   -1.2700    2.7822 355.94 355.9 111.1 10     0.0000    0.0307
ML03         ?    BHZ  i P      d 20230928 0840   42.3487 GAU  1.41e-03 -1.00e+00  1.38e+03 -1.00e+00    1.0000 >    0.9191    0.0475    0.8363  736.8800 9820.8540   -1.3350    2.9033 335.61 335.6 120.0 10     0.0000    0.0184
ML03         ?    BHN  e S      ? 20230928 0840   43.0642 GAU  1.35e-03 -1.00e+00 -1.00e+00 -1.00e+00    1.0000 >    1.5978    0.0844    0.5471  736.8800 9820.8540   -1.3350    2.9033 335.61 335.6 110.6 10     0.0000    0.0320
ML13         ?    BHZ  i P      c 20230928 0840   42.4025 GAU  1.68e-03 -1.00e+00  5.79e+02 -1.00e+00    1.0000 >    1.0269   -0.0065    1.4104  737.1780 9821.5410   -1.2220    3.4508 344.87 344.9 113.8 10     0.0000    0.0205
ML13         ?    BHE  e S      ? 20230928 0840   43.1279 GAU  3.21e-03 -1.00e+00 -1.00e+00 -1.00e+00    1.0000 >    1.7844   -0.0385    0.7634  737.1780 9821.5410   -1.2220    3.4508 344.87 344.9 100.6  9     0.0000    0.0357
ML10         ?    BHZ  i P      c 20230928 0840   42.4391 GAU  4.76e-03 -1.00e+00  1.67e+02 -1.00e+00    1.0000 >    1.0397    0.0174    1.3699  736.5490 9821.3650   -1.2200    3.5065 334.13 334.1 113.4 10     0.0000    0.0208
ML10         ?    BHN  e S      ? 20230928 0840   43.2155 GAU  3.35e-03 -1.00e+00 -1.00e+00 -1.00e+00    1.0000 >    1.8064    0.0270    1.1325  736.5490 9821.3650   -1.2200    3.5065 334.13 334.1  99.8  9     0.0000    0.0361
ML05         ?    BHZ  i P      c 20230928 0840   42.7206 GAU  1.46e-03 -1.00e+00 -1.00e+00 -1.00e+00    1.0000 >    1.2149    0.1237    0.2961  736.2660 9822.0830   -1.1500    4.2764 334.92 334.9 107.7 10     0.0000    0.0243
ML05         ?    BHN  e S      ? 20230928 0840   43.6665 GAU  3.37e-03 -1.00e+00  1.49e+02 -1.00e+00    1.0000 >    2.1034    0.1811    0.1635  736.2660 9822.0830   -1.1500    4.2764 334.92 334.9  93.8  9     0.0000    0.0421
ML01         ?    BHZ  i P      c 20230928 0840   42.7509 GAU  2.90e-03 -1.00e+00  1.13e+03 -1.00e+00    1.0000 >    1.2947    0.0742    0.5876  736.4090 9822.5140   -1.1200    4.6168 338.80 338.8 105.7 10     0.0000    0.0259
ML01         ?    BHN  e S      ? 20230928 0840   43.7640 GAU  1.81e-03 -1.00e+00  1.42e+03 -1.00e+00    1.0000 >    2.2355    0.1465    0.2851  736.4090 9822.5140   -1.1200    4.6168 338.80 338.8  92.9  9     0.0000    0.0447
ML07         ?    BHZ  i P      d 20230928 0840   42.6623 GAU  1.68e-03 -1.00e+00 -1.00e+00 -1.00e+00    1.0000 >    1.2987   -0.0184    1.1510  737.4430 9822.8030   -1.1120    4.6370 352.12 352.1 105.5 10     0.0000    0.0260
ML07         ?    BHE  e S      ? 20230928 0840   43.6139 GAU  1.29e-03 -1.00e+00 -1.00e+00 -1.00e+00    1.0000 >    2.2419   -0.0100    1.0211  737.4430 9822.8030   -1.1120    4.6370 352.12 352.1  92.9  9     0.0000    0.0448
ML12         ?    BHZ  e P      d 20230928 0840   42.8222 GAU  1.49e-03 -1.00e+00  6.54e+01 -1.00e+00    1.0000 >    1.4530   -0.0128    1.1971  736.8520 9823.3800   -0.9890    5.3138 346.65 346.7 101.7 10     0.0000    0.0291
ML12         ?    BHE  e S      ? 20230928 0840   43.8845 GAU  4.64e-03 -1.00e+00  2.53e+02 -1.00e+00    1.0000 >    2.4902    0.0122    1.0283  736.8520 9823.3800   -0.9890    5.3138 346.65 346.7  91.9  9     0.0000    0.0498
END_PHASE
END_NLLOC

