NLLOC "./loc/SEML.20230914.164258.grid0" "LOCATED" "Location completed."
PUBLIC_ID None
SIGNATURE "Arham Zakki Edelo - edelo.17034@mhs.its.ac.id   obs:./obs/2023_09.obs   NLLoc:v7.00.10(30Aug2020)   run:22Jan2024 21h54m50"
COMMENT "SEML"
GRID  2001 2001 1001  727 9811 -2  0.01 0.01 0.01 PROB_DENSITY
SEARCH OCTREE nInitial 4851 nEvaluated 20003 smallestNodeSide 0.014881/0.014881/0.014205 oct_tree_integral 1.475598e-02 scatter_volume 1.471101e-02
HYPOCENTER  x 738.54 y 9818.66 z 1.08949  OT 57.5155  ix -1 iy -1 iz -1 MAXIMUM_LIKELIHOOD
GEOGRAPHIC  OT 2023 09 14  16 42 57.515501  Lat 9818.656250 Long 738.540179 Depth 1.089489
QUALITY  Pmax 5.10461e+95 MFmin 93.1792 MFmax 112.912 RMS 0.022972 Nphs 26 Gap 293.384 Dist 0.515046 Mamp -9.90 0 Mdur -9.90 0
VPVSRATIO  VpVsRatio 1.77848  Npair 13  Diff 0.67276
STATISTICS  ExpectX 738.534541 Y 9818.666125 Z 1.046625  CovXX 0.0130366 XY -0.000863901 XZ 0.00415646 YY 0.00859229 YZ -0.00467352 ZZ 0.0174943 EllAz1  169.88 Dip1  -25.7751 Len1  0.15094 Az2  249.865 Dip2  19.8061 Len2  0.198175 Len3  2.757699e-01
STAT_GEOG  ExpectLat 9818.666125 Long 738.534541 Depth 1.046625
TRANSFORM  NONE
QML_OriginQuality  assocPhCt 26  usedPhCt 26  assocStaCt -1  usedStaCt 13  depthPhCt -1  stdErr 0.022972  azGap 293.384  secAzGap 293.384  gtLevel -  minDist 0.515046 maxDist 5.01635 medDist 2.75432
QML_OriginUncertainty  horUnc -1  minHorUnc 0.139247  maxHorUnc 0.174232  azMaxHorUnc 100.622
QML_ConfidenceEllipsoid  semiMajorAxisLength 0.27577  semiMinorAxisLength 0.15094  semiIntermediateAxisLength 0.198175  majorAxisPlunge 56.546  majorAxisAzimuth 126.836  majorAxisRotation 73.0059
FOCALMECH  Hyp  9818.656250 738.540179 1.089489 Mech  0 0 0 mf  0 nObs -1
PHASE ID Ins Cmp On Pha  FM Date     HrMn   Sec     Err  ErrMag    Coda      Amp       Per       PriorWt  >   TTpred    Res       Weight    StaLoc(X  Y         Z)        SDist    SAzim  RAz  RDip RQual    Tcorr       TTerr
ML06         ?    BHZ  i P      c 20230914 1642   58.1881 GAU  1.68e-03 -1.00e+00  6.25e+03 -1.00e+00    1.0000 >    0.6669    0.0057    1.4882  738.3100 9819.1170   -1.3960    0.5150 333.45 333.5 166.8 10     0.0000    0.0133
ML06         ?    BHE  e S      ? 20230914 1642   58.6796 GAU  3.58e-03 -1.00e+00  3.55e+03 -1.00e+00    1.0000 >    1.1421    0.0220    1.1963  738.3100 9819.1170   -1.3960    0.5150 333.45 333.5 166.2 10     0.0000    0.0228
ML04         ?    BHZ  i P      c 20230914 1642   58.3242 GAU  1.34e-03 -1.00e+00  1.14e+03 -1.00e+00    1.0000 >    0.8075    0.0013    1.4720  737.1400 9819.2520   -1.5710    1.5216 293.05 293.0 146.4 10     0.0000    0.0161
ML04         ?    BHN  e S      ? 20230914 1642   58.7146 GAU  3.22e-03 -1.00e+00 -1.00e+00 -1.00e+00    1.0000 >    1.3830   -0.1839    0.0049  737.1400 9819.2520   -1.5710    1.5216 293.05 293.0 144.9 10     0.0000    0.0277
ML14         ?    BHZ  i P      c 20230914 1642   58.2815 GAU  3.34e-03 -1.00e+00  1.76e+03 -1.00e+00    1.0000 >    0.7878   -0.0219    1.1466  737.5530 9820.0110   -1.3980    1.6763 323.92 323.9 141.7 10     0.0000    0.0158
ML14         ?    BHN  e S      ? 20230914 1642   58.7779 GAU  1.54e-03 -1.00e+00 -1.00e+00 -1.00e+00    1.0000 >    1.3485   -0.0860    0.1691  737.5530 9820.0110   -1.3980    1.6763 323.92 323.9 139.9 10     0.0000    0.0270
ML11         ?    BHZ  i P      c 20230914 1642   58.3059 GAU  2.78e-03 -1.00e+00  1.13e+04 -1.00e+00    1.0000 >    0.7924   -0.0020    1.4685  738.4670 9820.4900   -1.3120    1.8352 357.71 357.7 137.7 10     0.0000    0.0158
ML11         ?    BHN  i S      ? 20230914 1642   58.8833 GAU  2.05e-03 -1.00e+00  1.31e+03 -1.00e+00    1.0000 >    1.3557    0.0121    1.2542  738.4670 9820.4900   -1.3120    1.8352 357.71 357.7 135.7 10     0.0000    0.0271
ML02         ?    BHZ  e P      d 20230914 1642   58.3852 GAU  1.93e-03 -1.00e+00 -1.00e+00 -1.00e+00    1.0000 >    0.8732   -0.0035    1.4371  736.5970 9819.4060   -1.4960    2.0828 291.10 291.1 135.7 10     0.0000    0.0175
ML02         ?    BHE  i S      ? 20230914 1642   59.0239 GAU  1.19e-03 -1.00e+00  1.25e+05 -1.00e+00    1.0000 >    1.4947    0.0137    1.2056  736.5970 9819.4060   -1.4960    2.0828 291.10 291.1 133.5 10     0.0000    0.0299
ML09         ?    BHZ  i P      c 20230914 1642   58.3840 GAU  3.34e-03 -1.00e+00  1.38e+03 -1.00e+00    1.0000 >    0.8849   -0.0163    1.2619  737.8820 9820.9850   -1.2700    2.4200 344.22 344.2 127.4 10     0.0000    0.0177
ML09         ?    BHN  e S      ? 20230914 1642   59.0255 GAU  2.95e-03 -1.00e+00  3.96e+03 -1.00e+00    1.0000 >    1.5126   -0.0026    1.2219  737.8820 9820.9850   -1.2700    2.4200 344.22 344.2 124.7 10     0.0000    0.0303
ML03         ?    BHZ  i P      d 20230914 1642   58.4767 GAU  2.46e-03 -1.00e+00 -1.00e+00 -1.00e+00    1.0000 >    0.9618   -0.0006    1.4181  736.8800 9820.8540   -1.3350    2.7543 322.93 322.9 123.4 10     0.0000    0.0192
ML03         ?    BHE  e S      ? 20230914 1642   59.1855 GAU  3.43e-03 -1.00e+00 -1.00e+00 -1.00e+00    1.0000 >    1.6439    0.0262    1.0630  736.8800 9820.8540   -1.3350    2.7543 322.93 322.9 120.4 10     0.0000    0.0329
ML13         ?    BHZ  i P      c 20230914 1642   58.5205 GAU  7.73e-04 -1.00e+00  1.15e+03 -1.00e+00    1.0000 >    1.0301   -0.0250    1.0617  737.1780 9821.5410   -1.2220    3.1902 334.72 334.7 116.2 10     0.0000    0.0206
ML13         ?    BHE  i S      ? 20230914 1642   59.2361 GAU  1.71e-03 -1.00e+00  8.19e+02 -1.00e+00    1.0000 >    1.7580   -0.0374    0.8137  737.1780 9821.5410   -1.2220    3.1902 334.72 334.7 112.5 10     0.0000    0.0352
ML10         ?    BHZ  i P      c 20230914 1642   58.6359 GAU  6.41e-03 -1.00e+00  5.13e+03 -1.00e+00    1.0000 >    1.0663    0.0541    0.6416  736.5490 9821.3650   -1.2200    3.3619 323.68 323.7 114.2 10     0.0000    0.0213
ML10         ?    BHN  e S      ? 20230914 1642   59.3785 GAU  3.71e-03 -1.00e+00 -1.00e+00 -1.00e+00    1.0000 >    1.8192    0.0438    0.8375  736.5490 9821.3650   -1.2200    3.3619 323.68 323.7 110.2 10     0.0000    0.0364
ML05         ?    BHZ  i P      d 20230914 1642   58.7553 GAU  3.34e-03 -1.00e+00 -1.00e+00 -1.00e+00    1.0000 >    1.2215    0.0183    1.2305  736.2660 9822.0830   -1.1500    4.1127 326.43 326.4 105.0 10     0.0000    0.0244
ML05         ?    BHN  e S      ? 20230914 1642   59.5932 GAU  4.19e-03 -1.00e+00  1.39e+03 -1.00e+00    1.0000 >    2.0785   -0.0008    1.0565  736.2660 9822.0830   -1.1500    4.1127 326.43 326.4 100.3  9     0.0000    0.0416
ML07         ?    BHZ  i P      d 20230914 1642   58.8100 GAU  2.00e-03 -1.00e+00 -1.00e+00 -1.00e+00    1.0000 >    1.2562    0.0383    0.9277  737.4430 9822.8030   -1.1120    4.2894 345.18 345.2 102.6 10     0.0000    0.0251
ML07         ?    BHN  e S      ? 20230914 1642   59.6809 GAU  4.66e-03 -1.00e+00  1.68e+03 -1.00e+00    1.0000 >    2.1353    0.0301    0.9391  737.4430 9822.8030   -1.1120    4.2894 345.18 345.2  98.3  9     0.0000    0.0427
ML01         ?    BHZ  i P      c 20230914 1642   58.7813 GAU  1.93e-03 -1.00e+00 -1.00e+00 -1.00e+00    1.0000 >    1.2845   -0.0187    1.1431  736.4090 9822.5140   -1.1200    4.4073 331.08 331.1 101.5 10     0.0000    0.0257
ML01         ?    BHE  e S      ? 20230914 1642   59.6495 GAU  4.02e-03 -1.00e+00  3.48e+02 -1.00e+00    1.0000 >    2.1826   -0.0486    0.6721  736.4090 9822.5140   -1.1200    4.4073 331.08 331.1  97.4  9     0.0000    0.0437
ML12         ?    BHZ  i P      d 20230914 1642   58.9714 GAU  3.24e-03 -1.00e+00 -1.00e+00 -1.00e+00    1.0000 >    1.4076    0.0483    0.7717  736.8520 9823.3800   -0.9890    5.0163 340.33 340.3  95.5  9     0.0000    0.0282
ML12         ?    BHE  e S      ? 20230914 1643    0.0345 GAU  3.38e-03 -1.00e+00 -1.00e+00 -1.00e+00    1.0000 >    2.3808    0.1382    0.0971  736.8520 9823.3800   -0.9890    5.0163 340.33 340.3  94.0  9     0.0000    0.0476
END_PHASE
END_NLLOC

