NLLOC "./loc/SEML.20230928.074003.grid0" "LOCATED" "Location completed."
PUBLIC_ID None
SIGNATURE "Arham Zakki Edelo - edelo.17034@mhs.its.ac.id   obs:./obs/2023_09.obs   NLLoc:v7.00.10(30Aug2020)   run:22Jan2024 21h55m45"
COMMENT "SEML"
GRID  2001 2001 1001  727 9811 -2  0.01 0.01 0.01 PROB_DENSITY
SEARCH OCTREE nInitial 4851 nEvaluated 20019 smallestNodeSide 0.014881/0.014881/0.014205 oct_tree_integral 1.621352e-02 scatter_volume 1.621352e-02
HYPOCENTER  x 737.871 y 9818.89 z 1.06108  OT 2.51927  ix -1 iy -1 iz -1 MAXIMUM_LIKELIHOOD
GEOGRAPHIC  OT 2023 09 28  07 40 2.519272  Lat 9818.894345 Long 737.870536 Depth 1.061080
QUALITY  Pmax 1.02809e+41 MFmin 53.5021 MFmax 68.769 RMS 0.0263252 Nphs 14 Gap 232.954 Dist 0.49265 Mamp -9.90 0 Mdur -9.90 0
VPVSRATIO  VpVsRatio 1.7674  Npair 7  Diff 0.621533
STATISTICS  ExpectX 738.266787 Y 9818.528999 Z 0.500325  CovXX 0.24572 XY -0.185603 XZ -0.310473 YY 0.171657 YZ 0.27556 ZZ 0.523499 EllAz1  22.8679 Dip1  -14.6841 Len1  0.230167 Az2  281.512 Dip2  -36.9217 Len2  0.400498 Len3  1.762928e+00
STAT_GEOG  ExpectLat 9818.528999 Long 738.266787 Depth 0.500325
TRANSFORM  NONE
QML_OriginQuality  assocPhCt 14  usedPhCt 14  assocStaCt -1  usedStaCt 7  depthPhCt -1  stdErr 0.0263252  azGap 232.954  secAzGap 232.954  gtLevel -  minDist 0.49265 maxDist 3.93197 medDist 1.70349
QML_OriginUncertainty  horUnc -1  minHorUnc 0.21138  maxHorUnc 0.956706  azMaxHorUnc 129.358
QML_ConfidenceEllipsoid  semiMajorAxisLength 1.76293  semiMinorAxisLength 0.230167  semiIntermediateAxisLength 0.400498  majorAxisPlunge -49.3062  majorAxisAzimuth 130.61  majorAxisRotation 109.539
FOCALMECH  Hyp  9818.894345 737.870536 1.061080 Mech  0 0 0 mf  0 nObs -1
PHASE ID Ins Cmp On Pha  FM Date     HrMn   Sec     Err  ErrMag    Coda      Amp       Per       PriorWt  >   TTpred    Res       Weight    StaLoc(X  Y         Z)        SDist    SAzim  RAz  RDip RQual    Tcorr       TTerr
ML06         ?    BHZ  i P      c 20230928 0740    3.1738 GAU  2.25e-03 -1.00e+00  6.26e+00 -1.00e+00    1.0000 >    0.6592   -0.0047    1.9660  738.3100 9819.1170   -1.3960    0.4926  63.13  63.1 167.2 10     0.0000    0.0132
ML06         ?    BHE  e S      ? 20230928 0740    3.6606 GAU  3.88e-04 -1.00e+00  5.54e+01 -1.00e+00    1.0000 >    1.1294    0.0119    1.6215  738.3100 9819.1170   -1.3960    0.4926  63.13  63.1 166.7 10     0.0000    0.0226
ML04         ?    BHZ  e P      c 20230928 0740    3.2387 GAU  1.01e-03 -1.00e+00 -1.00e+00 -1.00e+00    1.0000 >    0.7268   -0.0074    1.8638  737.1400 9819.2520   -1.5710    0.8134 296.09 296.1 160.6 10     0.0000    0.0145
ML04         ?    BHN  e S      ? 20230928 0740    3.7813 GAU  5.20e-04 -1.00e+00  7.19e+02 -1.00e+00    1.0000 >    1.2457    0.0163    1.4914  737.1400 9819.2520   -1.5710    0.8134 296.09 296.1 159.8 10     0.0000    0.0249
ML14         ?    BHZ  e P      c 20230928 0740    3.2392 GAU  2.97e-03 -1.00e+00 -1.00e+00 -1.00e+00    1.0000 >    0.7154    0.0045    1.9653  737.5530 9820.0110   -1.3980    1.1609 344.13 344.1 151.6 10     0.0000    0.0143
ML14         ?    BHE  e S      ? 20230928 0740    3.7256 GAU  7.20e-04 -1.00e+00  3.99e+02 -1.00e+00    1.0000 >    1.2253   -0.0190    1.3128  737.5530 9820.0110   -1.3980    1.1609 344.13 344.1 150.3 10     0.0000    0.0245
ML11         ?    BHZ  i P      c 20230928 0740    3.2941 GAU  8.63e-04 -1.00e+00 -1.00e+00 -1.00e+00    1.0000 >    0.7669    0.0079    1.8817  738.4670 9820.4900   -1.3120    1.7035  20.50  20.5 139.7 10     0.0000    0.0153
ML11         ?    BHN  e S      ? 20230928 0740    3.8309 GAU  2.53e-04 -1.00e+00 -1.00e+00 -1.00e+00    1.0000 >    1.3128   -0.0012    1.5912  738.4670 9820.4900   -1.3120    1.7035  20.50  20.5 137.8 10     0.0000    0.0263
ML09         ?    BHZ  i P      c 20230928 0740    3.4047 GAU  9.06e-04 -1.00e+00  1.45e+02 -1.00e+00    1.0000 >    0.8211    0.0643    0.1775  737.8820 9820.9850   -1.2700    2.0907   0.31   0.3 132.2 10     0.0000    0.0164
ML09         ?    BHE  e S      ? 20230928 0740    4.0812 GAU  5.39e-04 -1.00e+00  3.77e+02 -1.00e+00    1.0000 >    1.4048    0.1572    0.0155  737.8820 9820.9850   -1.2700    2.0907   0.31   0.3 129.7 10     0.0000    0.0281
ML05         ?    BHZ  e P      d 20230928 0740    3.8605 GAU  5.22e-04 -1.00e+00  2.24e+02 -1.00e+00    1.0000 >    1.0975    0.2438    0.0544  736.2660 9822.0830   -1.1500    3.5696 333.29 333.3 109.8 10     0.0000    0.0219
ML05         ?    BHN  e S      ? 20230928 0740    4.8449 GAU  3.32e-04 -1.00e+00  2.94e+02 -1.00e+00    1.0000 >    1.8714    0.4542    0.0079  736.2660 9822.0830   -1.1500    3.5696 333.29 333.3 105.3 10     0.0000    0.0374
ML07         ?    BHZ  e P      c 20230928 0740    3.9951 GAU  4.51e-04 -1.00e+00 -1.00e+00 -1.00e+00    1.0000 >    1.1729    0.3030    0.0438  737.4430 9822.8030   -1.1120    3.9320 353.76 353.8 105.1 10     0.0000    0.0235
ML07         ?    BHN  e S      ? 20230928 0740    5.1031 GAU  3.68e-04 -1.00e+00 -1.00e+00 -1.00e+00    1.0000 >    1.9971    0.5867    0.0074  737.4430 9822.8030   -1.1120    3.9320 353.76 353.8 100.1  9     0.0000    0.0399
END_PHASE
END_NLLOC

