NLLOC "./loc/SEML.20230928.084039.grid0" "LOCATED" "Location completed."
PUBLIC_ID None
SIGNATURE "Arham Zakki Edelo - edelo.17034@mhs.its.ac.id   obs:./obs/2023_09.obs   NLLoc:v7.00.10(30Aug2020)   run:22Jan2024 21h56m30"
COMMENT "SEML"
GRID  2001 2001 1001  727 9811 -2  0.01 0.01 0.01 PROB_DENSITY
SEARCH OCTREE nInitial 4851 nEvaluated 20011 smallestNodeSide 0.014881/0.014881/0.014205 oct_tree_integral 1.553028e-02 scatter_volume 1.551449e-02
HYPOCENTER  x 738.644 y 9818.33 z 0.40767  OT 38.4815  ix -1 iy -1 iz -1 MAXIMUM_LIKELIHOOD
GEOGRAPHIC  OT 2023 09 28  08 40 38.481508  Lat 9818.328869 Long 738.644345 Depth 0.407670
QUALITY  Pmax 3.77027e+84 MFmin 87.1555 MFmax 104.226 RMS 0.0301738 Nphs 24 Gap 302.441 Dist 0.856117 Mamp -9.90 0 Mdur -9.90 0
VPVSRATIO  VpVsRatio 1.71907  Npair 12  Diff 0.585491
STATISTICS  ExpectX 738.677952 Y 9818.327908 Z 0.365030  CovXX 0.0212535 XY -0.00550084 XZ -0.012918 YY 0.00967319 YZ 0.00214905 ZZ 0.0215309 EllAz1  41.0431 Dip1  24.0496 Len1  0.14741 Az2  330.956 Dip2  -37.3507 Len2  0.195722 Len3  3.537498e-01
STAT_GEOG  ExpectLat 9818.327908 Long 738.677952 Depth 0.365030
TRANSFORM  NONE
QML_OriginQuality  assocPhCt 24  usedPhCt 24  assocStaCt -1  usedStaCt 12  depthPhCt -1  stdErr 0.0301738  azGap 302.441  secAzGap 302.441  gtLevel -  minDist 0.856117 maxDist 5.3597 medDist 3.14718
QML_OriginUncertainty  horUnc -1  minHorUnc 0.131136  maxHorUnc 0.232239  azMaxHorUnc 111.766
QML_ConfidenceEllipsoid  semiMajorAxisLength 0.35375  semiMinorAxisLength 0.14741  semiIntermediateAxisLength 0.195722  majorAxisPlunge -43.0416  majorAxisAzimuth 106.413  majorAxisRotation 95.8065
FOCALMECH  Hyp  9818.328869 738.644345 0.407670 Mech  0 0 0 mf  0 nObs -1
PHASE ID Ins Cmp On Pha  FM Date     HrMn   Sec     Err  ErrMag    Coda      Amp       Per       PriorWt  >   TTpred    Res       Weight    StaLoc(X  Y         Z)        SDist    SAzim  RAz  RDip RQual    Tcorr       TTerr
ML06         ?    BHZ  i P      c 20230928 0840   39.1204 GAU  6.44e-04 -1.00e+00  1.61e+02 -1.00e+00    1.0000 >    0.5316    0.1073    0.2011  738.3100 9819.1170   -1.3960    0.8561 337.01 337.0 153.9 10     0.0000    0.0106
ML06         ?    BHN  e S      ? 20230928 0840   39.5889 GAU  8.08e-04 -1.00e+00  4.52e+01 -1.00e+00    1.0000 >    0.9274    0.1799    0.0390  738.3100 9819.1170   -1.3960    0.8561 337.01 337.0 153.5 10     0.0000    0.0185
ML04         ?    BHZ  e P      c 20230928 0840   39.1820 GAU  2.46e-03 -1.00e+00 -1.00e+00 -1.00e+00    1.0000 >    0.7074   -0.0068    1.5384  737.1400 9819.2520   -1.5710    1.7650 301.54 301.5 136.8 10     0.0000    0.0141
ML04         ?    BHE  i S      ? 20230928 0840   39.7043 GAU  3.61e-04 -1.00e+00  2.97e+02 -1.00e+00    1.0000 >    1.2329   -0.0102    1.3561  737.1400 9819.2520   -1.5710    1.7650 301.54 301.5 136.1 10     0.0000    0.0247
ML14         ?    BHZ  i P      c 20230928 0840   39.2055 GAU  2.39e-03 -1.00e+00  6.74e+02 -1.00e+00    1.0000 >    0.7177    0.0063    1.5733  737.5530 9820.0110   -1.3980    2.0051 327.03 327.0 130.1 10     0.0000    0.0144
ML14         ?    BHE  i S      ? 20230928 0840   39.7260 GAU  4.37e-04 -1.00e+00  5.47e+02 -1.00e+00    1.0000 >    1.2523   -0.0078    1.3727  737.5530 9820.0110   -1.3980    2.0051 327.03 327.0 129.1 10     0.0000    0.0250
ML11         ?    BHZ  i P      c 20230928 0840   39.2366 GAU  2.01e-03 -1.00e+00 -1.00e+00 -1.00e+00    1.0000 >    0.7350    0.0202    1.3424  738.4670 9820.4900   -1.3120    2.1684 355.31 355.3 126.4 10     0.0000    0.0147
ML11         ?    BHN  e S      ? 20230928 0840   39.7793 GAU  1.49e-03 -1.00e+00  2.55e+01 -1.00e+00    1.0000 >    1.2831    0.0147    1.3460  738.4670 9820.4900   -1.3120    2.1684 355.31 355.3 125.2 10     0.0000    0.0257
ML02         ?    BHZ  e P      c 20230928 0840   39.2780 GAU  1.68e-03 -1.00e+00 -1.00e+00 -1.00e+00    1.0000 >    0.7982   -0.0017    1.5637  736.5970 9819.4060   -1.4960    2.3134 297.75 297.7 127.3 10     0.0000    0.0160
ML02         ?    BHN  i S      ? 20230928 0840   39.8950 GAU  8.92e-04 -1.00e+00  1.12e+03 -1.00e+00    1.0000 >    1.3919    0.0216    1.2479  736.5970 9819.4060   -1.4960    2.3134 297.75 297.7 126.2 10     0.0000    0.0278
ML09         ?    BHZ  i P      c 20230928 0840   39.3272 GAU  8.11e-04 -1.00e+00  1.14e+02 -1.00e+00    1.0000 >    0.8577   -0.0119    1.4285  737.8820 9820.9850   -1.2700    2.7634 343.99 344.0 118.8 10     0.0000    0.0172
ML09         ?    BHN  e S      ? 20230928 0840   39.9757 GAU  1.08e-03 -1.00e+00  4.36e+02 -1.00e+00    1.0000 >    1.4978   -0.0036    1.3182  737.8820 9820.9850   -1.2700    2.7634 343.99 344.0 117.2 10     0.0000    0.0300
ML13         ?    BHZ  i P      c 20230928 0840   39.4582 GAU  1.12e-03 -1.00e+00 -1.00e+00 -1.00e+00    1.0000 >    1.0302   -0.0535    0.5258  737.1780 9821.5410   -1.2220    3.5310 335.46 335.5 112.0 10     0.0000    0.0206
ML13         ?    BHN  e S      ? 20230928 0840   40.1842 GAU  6.29e-04 -1.00e+00  5.53e+00 -1.00e+00    1.0000 >    1.7997   -0.0969    0.2008  737.1780 9821.5410   -1.2220    3.5310 335.46 335.5 109.7 10     0.0000    0.0360
ML10         ?    BHZ  i P      d 20230928 0840   39.6194 GAU  9.67e-04 -1.00e+00  2.91e+03 -1.00e+00    1.0000 >    1.0679    0.0700    0.4903  736.5490 9821.3650   -1.2200    3.6890 325.39 325.4 111.0 10     0.0000    0.0214
ML10         ?    BHE  e S      ? 20230928 0840   40.4731 GAU  4.99e-04 -1.00e+00 -1.00e+00 -1.00e+00    1.0000 >    1.8656    0.1260    0.2425  736.5490 9821.3650   -1.2200    3.6890 325.39 325.4 108.6 10     0.0000    0.0373
ML05         ?    BHZ  e P      d 20230928 0840   39.7589 GAU  9.70e-04 -1.00e+00  8.01e+01 -1.00e+00    1.0000 >    1.2443    0.0331    1.0898  736.2660 9822.0830   -1.1500    4.4441 327.64 327.6 106.4 10     0.0000    0.0249
ML05         ?    BHN  e S      ? 20230928 0840   40.6972 GAU  4.38e-04 -1.00e+00  2.81e+02 -1.00e+00    1.0000 >    2.1743    0.0415    0.9440  736.2660 9822.0830   -1.1500    4.4441 327.64 327.6 103.4 10     0.0000    0.0435
ML07         ?    BHZ  i P      d 20230928 0840   39.7545 GAU  7.34e-04 -1.00e+00 -1.00e+00 -1.00e+00    1.0000 >    1.2869   -0.0138    1.2984  737.4430 9822.8030   -1.1120    4.6326 344.97 345.0 105.2 10     0.0000    0.0257
ML07         ?    BHE  e S      ? 20230928 0840   40.7162 GAU  1.30e-03 -1.00e+00 -1.00e+00 -1.00e+00    1.0000 >    2.2488   -0.0142    1.0591  737.4430 9822.8030   -1.1120    4.6326 344.97 345.0 102.2 10     0.0000    0.0450
ML01         ?    BHZ  i P      d 20230928 0840   39.8441 GAU  2.98e-03 -1.00e+00  1.01e+03 -1.00e+00    1.0000 >    1.3157    0.0469    0.8608  736.4090 9822.5140   -1.1200    4.7447 331.89 331.9 104.9 10     0.0000    0.0263
ML01         ?    BHN  e S      ? 20230928 0840   40.8261 GAU  1.56e-03 -1.00e+00  1.65e+03 -1.00e+00    1.0000 >    2.2991    0.0455    0.8996  736.4090 9822.5140   -1.1200    4.7447 331.89 331.9 101.8 10     0.0000    0.0460
ML12         ?    BHZ  i P      d 20230928 0840   39.9183 GAU  8.24e-04 -1.00e+00 -1.00e+00 -1.00e+00    1.0000 >    1.4562   -0.0194    1.1876  736.8520 9823.3800   -0.9890    5.3597 340.46 340.5 102.0 10     0.0000    0.0291
ML12         ?    BHE  e S      ? 20230928 0840   40.9723 GAU  1.44e-03 -1.00e+00  4.22e+02 -1.00e+00    1.0000 >    2.5244   -0.0336    0.8742  736.8520 9823.3800   -0.9890    5.3597 340.46 340.5  67.2 10     0.0000    0.0505
END_PHASE
END_NLLOC

