NLLOC "./loc/SEML.20230911.021745.grid0" "REJECTED" "WARNING: max prob location on grid boundary 20, rejecting location."
PUBLIC_ID None
SIGNATURE "Arham Zakki Edelo - edelo.17034@mhs.its.ac.id   obs:./obs/2023_09.obs   NLLoc:v7.00.10(30Aug2020)   run:22Jan2024 21h53m51"
COMMENT "SEML"
GRID  2001 2001 1001  727 9811 -2  0.01 0.01 0.01 PROB_DENSITY
SEARCH OCTREE nInitial 4851 nEvaluated 20003 smallestNodeSide 0.059524/0.059524/0.056818 oct_tree_integral 7.658284e-01 scatter_volume 7.582642e-01
HYPOCENTER  x 744.113 y 9811.03 z -1.97159  OT 42.963  ix -1 iy -1 iz -1 MAXIMUM_LIKELIHOOD
GEOGRAPHIC  OT 2023 09 11  02 17 42.962951  Lat 9811.029762 Long 744.113095 Depth -1.971591
QUALITY  Pmax 4.66785e+35 MFmin 26.5337 MFmax 29.1405 RMS 0.113455 Nphs 14 Gap 352.125 Dist 9.95386 Mamp -9.90 0 Mdur -9.90 0
VPVSRATIO  VpVsRatio 1.62537  Npair 7  Diff 0.893276
STATISTICS  ExpectX 744.875779 Y 9811.610998 Z -1.584659  CovXX 0.742193 XY 0.255457 XZ 0.0322347 YY 0.258965 YZ -0.0211566 ZZ 0.152155 EllAz1  335.11 Dip1  43.8413 Len1  0.645519 Az2  338.591 Dip2  -46.1058 Len2  0.802474 Len3  1.735089e+00
STAT_GEOG  ExpectLat 9811.610998 Long 744.875779 Depth -1.584659
TRANSFORM  NONE
QML_OriginQuality  assocPhCt 14  usedPhCt 14  assocStaCt -1  usedStaCt 7  depthPhCt -1  stdErr 0.113455  azGap 352.125  secAzGap 352.125  gtLevel -  minDist 9.95386 maxDist 14.3266 medDist 12.581
QML_OriginUncertainty  horUnc -1  minHorUnc 0.585328  maxHorUnc 1.40002  azMaxHorUnc 66.7024
QML_ConfidenceEllipsoid  semiMajorAxisLength 1.73509  semiMinorAxisLength 0.645519  semiIntermediateAxisLength 0.802474  majorAxisPlunge 1.73983  majorAxisAzimuth 66.782  majorAxisRotation 136.08
FOCALMECH  Hyp  9811.029762 744.113095 -1.971591 Mech  0 0 0 mf  0 nObs -1
PHASE ID Ins Cmp On Pha  FM Date     HrMn   Sec     Err  ErrMag    Coda      Amp       Per       PriorWt  >   TTpred    Res       Weight    StaLoc(X  Y         Z)        SDist    SAzim  RAz  RDip RQual    Tcorr       TTerr
ML06         ?    BHZ  e P      c 20230911 0217   45.6950 GAU  1.40e-03 -1.00e+00 -1.00e+00 -1.00e+00    1.0000 >    2.7394   -0.0073    1.3042  738.3100 9819.1170   -1.3960    9.9539 324.34 324.3  86.6 10     0.0000    0.0548
ML06         ?    BHN  e S      ? 20230911 0217   47.7242 GAU  1.17e-03 -1.00e+00 -1.00e+00 -1.00e+00    1.0000 >    4.7258    0.0355    1.2412  738.3100 9819.1170   -1.3960    9.9539 324.34 324.3  86.6 10     0.0000    0.0945
ML11         ?    BHZ  e P      c 20230911 0217   46.2058 GAU  1.82e-03 -1.00e+00 -1.00e+00 -1.00e+00    1.0000 >    3.0323    0.2105    0.7435  738.4670 9820.4900   -1.3120   11.0170 329.17 329.2  86.5 10     0.0000    0.0606
ML11         ?    BHE  e S      ? 20230911 0217   48.5076 GAU  1.51e-03 -1.00e+00 -1.00e+00 -1.00e+00    1.0000 >    5.2312    0.3135    0.4528  738.4670 9820.4900   -1.3120   11.0170 329.17 329.2  86.5 10     0.0000    0.1046
ML09         ?    BHZ  e P      c 20230911 0217   46.1888 GAU  2.24e-03 -1.00e+00  2.05e+02 -1.00e+00    1.0000 >    3.2326   -0.0067    1.2884  737.8820 9820.9850   -1.2700   11.7445 327.96 328.0  86.5 10     0.0000    0.0647
ML09         ?    BHN  e S      ? 20230911 0217   48.5498 GAU  2.93e-04 -1.00e+00  4.82e+02 -1.00e+00    1.0000 >    5.5766    0.0103    1.1733  737.8820 9820.9850   -1.2700   11.7445 327.96 328.0  86.5 10     0.0000    0.1115
ML08         ?    BHZ  e P      c 20230911 0217   46.3207 GAU  2.16e-04 -1.00e+00 -1.00e+00 -1.00e+00    1.0000 >    3.4470   -0.0893    0.8945  738.2480 9822.1600   -1.1510   12.5810 332.21 332.2  70.6 10     0.0000    0.0689
ML08         ?    BHN  e S      ? 20230911 0217   48.8743 GAU  2.98e-04 -1.00e+00  3.02e+02 -1.00e+00    1.0000 >    5.9759   -0.0646    0.9670  738.2480 9822.1600   -1.1510   12.5810 332.21 332.2  86.2 10     0.0000    0.1195
ML07         ?    BHZ  e P      c 20230911 0217   46.7769 GAU  4.33e-04 -1.00e+00 -1.00e+00 -1.00e+00    1.0000 >    3.6898    0.1242    1.0805  737.4430 9822.8030   -1.1120   13.5314 330.47 330.5  70.6 10     0.0000    0.0738
ML07         ?    BHN  e S      ? 20230911 0217   49.6157 GAU  9.82e-04 -1.00e+00 -1.00e+00 -1.00e+00    1.0000 >    6.4114    0.2413    0.7248  737.4430 9822.8030   -1.1120   13.5314 330.47 330.5  54.6 10     0.0000    0.1282
ML05         ?    BHZ  e P      d 20230911 0217   46.6551 GAU  1.99e-03 -1.00e+00  3.73e+02 -1.00e+00    1.0000 >    3.6994   -0.0072    1.2641  736.2660 9822.0830   -1.1500   13.5555 324.63 324.6  70.6 10     0.0000    0.0740
ML05         ?    BHN  e S      ? 20230911 0217   49.3444 GAU  8.79e-04 -1.00e+00  2.88e+02 -1.00e+00    1.0000 >    6.4311   -0.0497    0.9942  736.2660 9822.0830   -1.1500   13.5555 324.63 324.6  54.7  9     0.0000    0.1286
ML12         ?    BHZ  e P      d 20230911 0217   46.9601 GAU  1.20e-03 -1.00e+00  2.85e+01 -1.00e+00    1.0000 >    3.8848    0.1123    1.1231  736.8520 9823.3800   -0.9890   14.3266 329.55 329.5  70.6 10     0.0000    0.0777
ML12         ?    BHE  e S      ? 20230911 0217   49.8826 GAU  6.34e-04 -1.00e+00  2.81e+01 -1.00e+00    1.0000 >    6.6850    0.2346    0.7484  736.8520 9823.3800   -0.9890   14.3266 329.55 329.5  54.6 10     0.0000    0.1337
END_PHASE
END_NLLOC

