NLLOC "./loc/SEML.20230921.180640.grid0" "LOCATED" "Location completed."
PUBLIC_ID None
SIGNATURE "Arham Zakki Edelo - edelo.17034@mhs.its.ac.id   obs:./obs/2023_09.obs   NLLoc:v7.00.10(30Aug2020)   run:22Jan2024 21h55m42"
COMMENT "SEML"
GRID  2001 2001 1001  727 9811 -2  0.01 0.01 0.01 PROB_DENSITY
SEARCH OCTREE nInitial 4851 nEvaluated 20027 smallestNodeSide 0.029762/0.029762/0.028409 oct_tree_integral 2.159470e-01 scatter_volume 2.155483e-01
HYPOCENTER  x 736.152 y 9817.53 z 0.00284091  OT 39.4999  ix -1 iy -1 iz -1 MAXIMUM_LIKELIHOOD
GEOGRAPHIC  OT 2023 09 21  18 06 39.499944  Lat 9817.532738 Long 736.151786 Depth 0.002841
QUALITY  Pmax 8.7626e+40 MFmin 45.6026 MFmax 54.7257 RMS 0.0388157 Nphs 14 Gap 307.719 Dist 2.67727 Mamp -9.90 0 Mdur -9.90 0
VPVSRATIO  VpVsRatio 1.68505  Npair 7  Diff 0.718807
STATISTICS  ExpectX 736.468667 Y 9817.242137 Z -0.320113  CovXX 0.157798 XY -0.0268198 XZ 0.183085 YY 0.0616905 YZ 0.0757645 ZZ 0.726022 EllAz1  209.438 Dip1  12.5801 Len1  0.309527 Az2  301.923 Dip2  10.9981 Len2  0.684125 Len3  1.665479e+00
STAT_GEOG  ExpectLat 9817.242137 Long 736.468667 Depth -0.320113
TRANSFORM  NONE
QML_OriginQuality  assocPhCt 14  usedPhCt 14  assocStaCt -1  usedStaCt 7  depthPhCt -1  stdErr 0.0388157  azGap 307.719  secAzGap 307.719  gtLevel -  minDist 2.67727 maxDist 5.88904 medDist 3.86157
QML_OriginUncertainty  horUnc -1  minHorUnc 0.354739  maxHorUnc 0.615618  azMaxHorUnc 104.583
QML_ConfidenceEllipsoid  semiMajorAxisLength 1.66548  semiMinorAxisLength 0.309527  semiIntermediateAxisLength 0.684125  majorAxisPlunge 73.1695  majorAxisAzimuth 71.8991  majorAxisRotation 306.094
FOCALMECH  Hyp  9817.532738 736.151786 0.002841 Mech  0 0 0 mf  0 nObs -1
PHASE ID Ins Cmp On Pha  FM Date     HrMn   Sec     Err  ErrMag    Coda      Amp       Per       PriorWt  >   TTpred    Res       Weight    StaLoc(X  Y         Z)        SDist    SAzim  RAz  RDip RQual    Tcorr       TTerr
ML06         ?    BHZ  i P      c 20230921 1806   40.3297 GAU  1.67e-03 -1.00e+00 -1.00e+00 -1.00e+00    1.0000 >    0.8098    0.0199    1.3745  738.3100 9819.1170   -1.3960    2.6773  53.72  53.7 113.7 10     0.0000    0.0162
ML06         ?    BHN  e S      ? 20230921 1806   40.9023 GAU  4.01e-04 -1.00e+00 -1.00e+00 -1.00e+00    1.0000 >    1.4201   -0.0177    1.3778  738.3100 9819.1170   -1.3960    2.6773  53.72  53.7 112.6  9     0.0000    0.0284
ML14         ?    BHZ  e P      c 20230921 1806   40.3391 GAU  1.27e-03 -1.00e+00 -1.00e+00 -1.00e+00    1.0000 >    0.8506   -0.0114    1.5640  737.5530 9820.0110   -1.3980    2.8470  29.48  29.5 112.1 10     0.0000    0.0170
ML14         ?    BHE  e S      ? 20230921 1806   41.0016 GAU  5.56e-04 -1.00e+00  3.86e+02 -1.00e+00    1.0000 >    1.4917    0.0099    1.4238  737.5530 9820.0110   -1.3980    2.8470  29.48  29.5 110.9  9     0.0000    0.0298
ML11         ?    BHZ  e P      d 20230921 1806   40.5749 GAU  2.24e-03 -1.00e+00  1.60e+02 -1.00e+00    1.0000 >    1.0636    0.0113    1.5211  738.4670 9820.4900   -1.3120    3.7557  38.06  38.1 104.4 10     0.0000    0.0213
ML11         ?    BHN  e S      ? 20230921 1806   41.3647 GAU  2.51e-04 -1.00e+00 -1.00e+00 -1.00e+00    1.0000 >    1.8695   -0.0048    1.3327  738.4670 9820.4900   -1.3120    3.7557  38.06  38.1 100.3  9     0.0000    0.0374
ML09         ?    BHZ  i P      c 20230921 1806   40.5514 GAU  2.00e-03 -1.00e+00  1.25e+02 -1.00e+00    1.0000 >    1.0855   -0.0340    1.0772  737.8820 9820.9850   -1.2700    3.8616  26.62  26.6 103.4 10     0.0000    0.0217
ML09         ?    BHE  e S      ? 20230921 1806   41.4489 GAU  1.11e-04 -1.00e+00  3.52e+02 -1.00e+00    1.0000 >    1.9096    0.0394    0.9832  737.8820 9820.9850   -1.2700    3.8616  26.62  26.6  97.8  8     0.0000    0.0382
ML05         ?    BHZ  e P      d 20230921 1806   40.8611 GAU  4.68e-04 -1.00e+00  3.09e+02 -1.00e+00    1.0000 >    1.2480    0.1132    0.2062  736.2660 9822.0830   -1.1500    4.5517   1.44   1.4  99.5  9     0.0000    0.0250
ML05         ?    BHE  e S      ? 20230921 1806   41.8941 GAU  2.86e-04 -1.00e+00 -1.00e+00 -1.00e+00    1.0000 >    2.1967    0.1974    0.2250  736.2660 9822.0830   -1.1500    4.5517   1.44   1.4  84.3  8     0.0000    0.0439
ML07         ?    BHZ  e P      c 20230921 1806   40.9604 GAU  9.46e-04 -1.00e+00 -1.00e+00 -1.00e+00    1.0000 >    1.4682   -0.0077    1.4574  737.4430 9822.8030   -1.1120    5.4261  13.77  13.8  97.0  9     0.0000    0.0294
ML07         ?    BHN  e S      ? 20230921 1806   42.0675 GAU  6.80e-05 -1.00e+00 -1.00e+00 -1.00e+00    1.0000 >    2.5792   -0.0116    1.1030  737.4430 9822.8030   -1.1120    5.4261  13.77  13.8  84.1  8     0.0000    0.0516
ML12         ?    BHZ  e P      c 20230921 1806   41.2381 GAU  2.60e-04 -1.00e+00 -1.00e+00 -1.00e+00    1.0000 >    1.5756    0.1625    0.2459  736.8520 9823.3800   -0.9890    5.8890   6.83   6.8  95.6  9     0.0000    0.0315
ML12         ?    BHE  e S      ? 20230921 1806   42.5295 GAU  1.83e-04 -1.00e+00 -1.00e+00 -1.00e+00    1.0000 >    2.7652    0.2644    0.1080  736.8520 9823.3800   -0.9890    5.8890   6.83   6.8  84.1  8     0.0000    0.0553
END_PHASE
END_NLLOC

