NLLOC "./loc/SEML.20230914.170014.grid0" "LOCATED" "Location completed."
PUBLIC_ID None
SIGNATURE "Arham Zakki Edelo - edelo.17034@mhs.its.ac.id   obs:./obs/2023_09.obs   NLLoc:v7.00.10(30Aug2020)   run:22Jan2024 21h54m56"
COMMENT "SEML"
GRID  2001 2001 1001  727 9811 -2  0.01 0.01 0.01 PROB_DENSITY
SEARCH OCTREE nInitial 4851 nEvaluated 20011 smallestNodeSide 0.007440/0.007440/0.007102 oct_tree_integral 1.045896e-02 scatter_volume 1.035759e-02
HYPOCENTER  x 738.856 y 9818.26 z 0.105824  OT 13.882  ix -1 iy -1 iz -1 MAXIMUM_LIKELIHOOD
GEOGRAPHIC  OT 2023 09 14  17 00 13.881972  Lat 9818.258185 Long 738.856399 Depth 0.105824
QUALITY  Pmax 5.62503e+59 MFmin 66.0962 MFmax 75.2689 RMS 0.0148481 Nphs 18 Gap 309.968 Dist 1.0179 Mamp -9.90 0 Mdur -9.90 0
VPVSRATIO  VpVsRatio 1.7455  Npair 9  Diff 0.62501
STATISTICS  ExpectX 738.853453 Y 9818.244507 Z 0.105189  CovXX 0.0111495 XY -0.00161494 XZ -0.00446752 YY 0.00611101 YZ -0.000560812 ZZ 0.0109235 EllAz1  32.7045 Dip1  25.0959 Len1  0.129652 Az2  322.811 Dip2  -36.2781 Len2  0.166497 Len3  2.344326e-01
STAT_GEOG  ExpectLat 9818.244507 Long 738.853453 Depth 0.105189
TRANSFORM  NONE
QML_OriginQuality  assocPhCt 18  usedPhCt 18  assocStaCt -1  usedStaCt 9  depthPhCt -1  stdErr 0.0148481  azGap 309.968  secAzGap 309.968  gtLevel -  minDist 1.0179 maxDist 5.50006 medDist 2.89568
QML_OriginUncertainty  horUnc -1  minHorUnc 0.113873  maxHorUnc 0.1635  azMaxHorUnc 106.331
QML_ConfidenceEllipsoid  semiMajorAxisLength 0.234433  semiMinorAxisLength 0.129652  semiIntermediateAxisLength 0.166497  majorAxisPlunge -43.2798  majorAxisAzimuth 96.5345  majorAxisRotation 94.7855
FOCALMECH  Hyp  9818.258185 738.856399 0.105824 Mech  0 0 0 mf  0 nObs -1
PHASE ID Ins Cmp On Pha  FM Date     HrMn   Sec     Err  ErrMag    Coda      Amp       Per       PriorWt  >   TTpred    Res       Weight    StaLoc(X  Y         Z)        SDist    SAzim  RAz  RDip RQual    Tcorr       TTerr
ML06         ?    BHZ  i P      c 20230914 1700   14.5431 GAU  5.28e-04 -1.00e+00 -1.00e+00 -1.00e+00    1.0000 >    0.4857    0.1754    0.0012  738.3100 9819.1170   -1.3960    1.0179 327.53 327.5 144.7 10     0.0000    0.0097
ML06         ?    BHE  i S      ? 20230914 1700   15.0603 GAU  1.21e-04 -1.00e+00 -1.00e+00 -1.00e+00    1.0000 >    0.8498    0.3286    0.0000  738.3100 9819.1170   -1.3960    1.0179 327.53 327.5 144.0 10     0.0000    0.0170
ML04         ?    BHZ  e P      c 20230914 1700   14.5757 GAU  2.19e-03 -1.00e+00 -1.00e+00 -1.00e+00    1.0000 >    0.6967   -0.0030    1.6498  737.1400 9819.2520   -1.5710    1.9834 300.07 300.1 127.6 10     0.0000    0.0139
ML04         ?    BHE  e S      ? 20230914 1700   15.1202 GAU  1.12e-03 -1.00e+00  3.72e+02 -1.00e+00    1.0000 >    1.2175    0.0207    1.2418  737.1400 9819.2520   -1.5710    1.9834 300.07 300.1 126.3 10     0.0000    0.0243
ML14         ?    BHZ  e P      c 20230914 1700   14.5914 GAU  4.37e-04 -1.00e+00 -1.00e+00 -1.00e+00    1.0000 >    0.7095   -0.0000    1.6719  737.5530 9820.0110   -1.3980    2.1843 323.37 323.4 121.6 10     0.0000    0.0142
ML14         ?    BHE  e S      ? 20230914 1700   15.1069 GAU  3.01e-04 -1.00e+00  4.57e+02 -1.00e+00    1.0000 >    1.2417   -0.0167    1.2097  737.5530 9820.0110   -1.3980    2.1843 323.37 323.4 119.8 10     0.0000    0.0248
ML11         ?    BHZ  i P      c 20230914 1700   14.5912 GAU  4.77e-04 -1.00e+00 -1.00e+00 -1.00e+00    1.0000 >    0.7138   -0.0046    1.6247  738.4670 9820.4900   -1.3120    2.2655 350.10 350.1 119.0 10     0.0000    0.0143
ML11         ?    BHE  e S      ? 20230914 1700   15.1330 GAU  1.40e-03 -1.00e+00 -1.00e+00 -1.00e+00    1.0000 >    1.2505    0.0005    1.4071  738.4670 9820.4900   -1.3120    2.2655 350.10 350.1 116.9 10     0.0000    0.0250
ML09         ?    BHZ  i P      c 20230914 1700   14.7518 GAU  3.74e-04 -1.00e+00  1.14e+02 -1.00e+00    1.0000 >    0.8551    0.0147    1.4557  737.8820 9820.9850   -1.2700    2.8957 340.34 340.3 111.8 10     0.0000    0.0171
ML09         ?    BHN  e S      ? 20230914 1700   15.4225 GAU  2.01e-04 -1.00e+00  4.71e+02 -1.00e+00    1.0000 >    1.4992    0.0413    0.8080  737.8820 9820.9850   -1.2700    2.8957 340.34 340.3 108.5 10     0.0000    0.0300
ML13         ?    BHZ  e P      c 20230914 1700   14.8041 GAU  3.58e-04 -1.00e+00 -1.00e+00 -1.00e+00    1.0000 >    1.0431   -0.1210    0.0429  737.1780 9821.5410   -1.2220    3.6870 332.92 332.9 105.6 10     0.0000    0.0209
ML13         ?    BHE  e S      ? 20230914 1700   15.5178 GAU  8.40e-05 -1.00e+00 -1.00e+00 -1.00e+00    1.0000 >    1.8303   -0.1945    0.0234  737.1780 9821.5410   -1.2220    3.6870 332.92 332.9 100.6 10     0.0000    0.0366
ML05         ?    BHZ  i P      d 20230914 1700   15.1538 GAU  5.49e-04 -1.00e+00  2.77e+02 -1.00e+00    1.0000 >    1.2699    0.0019    1.4008  736.2660 9822.0830   -1.1500    4.6195 325.89 325.9 100.9 10     0.0000    0.0254
ML05         ?    BHN  e S      ? 20230914 1700   16.0899 GAU  3.13e-04 -1.00e+00  2.81e+02 -1.00e+00    1.0000 >    2.2291   -0.0211    0.9248  736.2660 9822.0830   -1.1500    4.6195 325.89 325.9  94.8  9     0.0000    0.0446
ML07         ?    BHZ  e P      c 20230914 1700   15.1914 GAU  9.12e-04 -1.00e+00 -1.00e+00 -1.00e+00    1.0000 >    1.3016    0.0079    1.3708  737.4430 9822.8030   -1.1120    4.7595 342.72 342.7 100.1 10     0.0000    0.0260
ML07         ?    BHE  e S      ? 20230914 1700   16.1644 GAU  2.12e-04 -1.00e+00 -1.00e+00 -1.00e+00    1.0000 >    2.2849   -0.0025    1.0042  737.4430 9822.8030   -1.1120    4.7595 342.72 342.7  94.2  9     0.0000    0.0457
ML12         ?    BHZ  i P      c 20230914 1700   15.3566 GAU  1.11e-03 -1.00e+00 -1.00e+00 -1.00e+00    1.0000 >    1.4787   -0.0041    1.2835  736.8520 9823.3800   -0.9890    5.5001 338.63 338.6  97.5 10     0.0000    0.0296
ML12         ?    BHE  e S      ? 20230914 1700   16.4971 GAU  7.20e-04 -1.00e+00  6.00e+01 -1.00e+00    1.0000 >    2.5936    0.0215    0.8798  736.8520 9823.3800   -0.9890    5.5001 338.63 338.6  92.6  9     0.0000    0.0519
END_PHASE
END_NLLOC

