NLLOC "./loc/SEML.20230914.162952.grid0" "LOCATED" "Location completed."
PUBLIC_ID None
SIGNATURE "Arham Zakki Edelo - edelo.17034@mhs.its.ac.id   obs:./obs/2023_09.obs   NLLoc:v7.00.10(30Aug2020)   run:22Jan2024 21h54m38"
COMMENT "SEML"
GRID  2001 2001 1001  727 9811 -2  0.01 0.01 0.01 PROB_DENSITY
SEARCH OCTREE nInitial 4851 nEvaluated 20011 smallestNodeSide 0.014881/0.014881/0.014205 oct_tree_integral 3.036105e-02 scatter_volume 3.036105e-02
HYPOCENTER  x 738.466 y 9818.11 z 0.294034  OT 52.2617  ix -1 iy -1 iz -1 MAXIMUM_LIKELIHOOD
GEOGRAPHIC  OT 2023 09 14  16 29 52.261738  Lat 9818.105655 Long 738.465774 Depth 0.294034
QUALITY  Pmax 1.50753e+42 MFmin 50.4399 MFmax 60.6018 RMS 0.0198299 Nphs 14 Gap 334.373 Dist 1.02327 Mamp -9.90 0 Mdur -9.90 0
VPVSRATIO  VpVsRatio 1.76713  Npair 7  Diff 0.639046
STATISTICS  ExpectX 738.320078 Y 9818.159792 Z 0.399809  CovXX 0.14925 XY -0.00750209 XZ -0.0325381 YY 0.0372253 YZ 0.0431702 ZZ 0.119608 EllAz1  356.962 Dip1  -23.9056 Len1  0.255279 Az2  242.174 Dip2  -43.4063 Len2  0.624522 Len3  7.907445e-01
STAT_GEOG  ExpectLat 9818.159792 Long 738.320078 Depth 0.399809
TRANSFORM  NONE
QML_OriginQuality  assocPhCt 14  usedPhCt 14  assocStaCt -1  usedStaCt 7  depthPhCt -1  stdErr 0.0198299  azGap 334.373  secAzGap 334.373  gtLevel -  minDist 1.02327 maxDist 5.5157 medDist 2.93793
QML_OriginUncertainty  horUnc -1  minHorUnc 0.290633  maxHorUnc 0.586877  azMaxHorUnc 93.8143
QML_ConfidenceEllipsoid  semiMajorAxisLength 0.790744  semiMinorAxisLength 0.255279  semiIntermediateAxisLength 0.624522  majorAxisPlunge -37.0838  majorAxisAzimuth 106.537  majorAxisRotation 245.173
FOCALMECH  Hyp  9818.105655 738.465774 0.294034 Mech  0 0 0 mf  0 nObs -1
PHASE ID Ins Cmp On Pha  FM Date     HrMn   Sec     Err  ErrMag    Coda      Amp       Per       PriorWt  >   TTpred    Res       Weight    StaLoc(X  Y         Z)        SDist    SAzim  RAz  RDip RQual    Tcorr       TTerr
ML06         ?    BHZ  i P      c 20230914 1629   52.8792 GAU  1.29e-03 -1.00e+00  1.10e+01 -1.00e+00    1.0000 >    0.5269    0.0906    0.0871  738.3100 9819.1170   -1.3960    1.0233 351.24 351.2 147.9 10     0.0000    0.0105
ML06         ?    BHE  e S      ? 20230914 1629   53.3819 GAU  1.26e-03 -1.00e+00 -1.00e+00 -1.00e+00    1.0000 >    0.9202    0.1999    0.0004  738.3100 9819.1170   -1.3960    1.0233 351.24 351.2 147.3 10     0.0000    0.0184
ML14         ?    BHZ  i P      c 20230914 1629   52.9825 GAU  7.49e-04 -1.00e+00 -1.00e+00 -1.00e+00    1.0000 >    0.7214   -0.0006    1.7305  737.5530 9820.0110   -1.3980    2.1127 334.40 334.4 126.4 10     0.0000    0.0144
ML14         ?    BHN  e S      ? 20230914 1629   53.5224 GAU  6.24e-04 -1.00e+00  3.67e+02 -1.00e+00    1.0000 >    1.2599    0.0008    1.5034  737.5530 9820.0110   -1.3980    2.1127 334.40 334.4 125.2 10     0.0000    0.0252
ML11         ?    BHZ  e P      c 20230914 1629   53.0318 GAU  2.46e-03 -1.00e+00 -1.00e+00 -1.00e+00    1.0000 >    0.7649    0.0052    1.6729  738.4670 9820.4900   -1.3120    2.3843   0.03   0.0 121.5 10     0.0000    0.0153
ML11         ?    BHE  e S      ? 20230914 1629   53.5931 GAU  2.44e-04 -1.00e+00 -1.00e+00 -1.00e+00    1.0000 >    1.3369   -0.0055    1.4576  738.4670 9820.4900   -1.3120    2.3843   0.03   0.0 119.9 10     0.0000    0.0267
ML09         ?    BHZ  i P      c 20230914 1629   53.1253 GAU  5.62e-04 -1.00e+00  5.29e+01 -1.00e+00    1.0000 >    0.8845   -0.0210    1.3241  737.8820 9820.9850   -1.2700    2.9379 348.54 348.5 115.2 10     0.0000    0.0177
ML09         ?    BHN  e S      ? 20230914 1629   53.8165 GAU  3.26e-04 -1.00e+00  4.63e+02 -1.00e+00    1.0000 >    1.5466    0.0082    1.3465  737.8820 9820.9850   -1.2700    2.9379 348.54 348.5 113.0 10     0.0000    0.0309
ML13         ?    BHZ  i P      c 20230914 1629   53.2013 GAU  8.98e-04 -1.00e+00 -1.00e+00 -1.00e+00    1.0000 >    1.0532   -0.1136    0.0851  737.1780 9821.5410   -1.2220    3.6688 339.45 339.5 109.2 10     0.0000    0.0211
ML13         ?    BHE  e S      ? 20230914 1629   53.9308 GAU  1.67e-04 -1.00e+00 -1.00e+00 -1.00e+00    1.0000 >    1.8423   -0.1732    0.0617  737.1780 9821.5410   -1.2220    3.6688 339.45 339.5 106.3 10     0.0000    0.0368
ML07         ?    BHZ  e P      d 20230914 1629   53.6045 GAU  9.88e-04 -1.00e+00 -1.00e+00 -1.00e+00    1.0000 >    1.3235    0.0193    1.2708  737.4430 9822.8030   -1.1120    4.8074 347.72 347.7 103.0 10     0.0000    0.0265
ML07         ?    BHE  e S      ? 20230914 1629   54.5805 GAU  3.29e-04 -1.00e+00 -1.00e+00 -1.00e+00    1.0000 >    2.3159    0.0029    1.1123  737.4430 9822.8030   -1.1120    4.8074 347.72 347.7  99.1 10     0.0000    0.0463
ML12         ?    BHZ  e P      c 20230914 1629   53.7378 GAU  1.50e-04 -1.00e+00 -1.00e+00 -1.00e+00    1.0000 >    1.4901   -0.0141    1.3221  736.8520 9823.3800   -0.9890    5.5157 342.99 343.0 100.1 10     0.0000    0.0298
ML12         ?    BHE  e S      ? 20230914 1629   54.8795 GAU  1.51e-04 -1.00e+00  6.38e+01 -1.00e+00    1.0000 >    2.6068    0.0109    1.0257  736.8520 9823.3800   -0.9890    5.5157 342.99 343.0  86.5  8     0.0000    0.0521
END_PHASE
END_NLLOC

