NLLOC "./loc/SEML.20230928.075606.grid0" "LOCATED" "Location completed."
PUBLIC_ID None
SIGNATURE "Arham Zakki Edelo - edelo.17034@mhs.its.ac.id   obs:./obs/2023_09.obs   NLLoc:v7.00.10(30Aug2020)   run:22Jan2024 21h55m48"
COMMENT "SEML"
GRID  2001 2001 1001  727 9811 -2  0.01 0.01 0.01 PROB_DENSITY
SEARCH OCTREE nInitial 4851 nEvaluated 20003 smallestNodeSide 0.014881/0.014881/0.014205 oct_tree_integral 2.135573e-02 scatter_volume 2.135573e-02
HYPOCENTER  x 738.466 y 9818.48 z 0.478693  OT 5.49273  ix -1 iy -1 iz -1 MAXIMUM_LIKELIHOOD
GEOGRAPHIC  OT 2023 09 28  07 56 5.492735  Lat 9818.477679 Long 738.465774 Depth 0.478693
QUALITY  Pmax 7.02713e+85 MFmin 90.3558 MFmax 106.786 RMS 0.0279734 Nphs 24 Gap 296.381 Dist 0.658025 Mamp -9.90 0 Mdur -9.90 0
VPVSRATIO  VpVsRatio 1.7498  Npair 12  Diff 0.484591
STATISTICS  ExpectX 738.493328 Y 9818.472637 Z 0.460639  CovXX 0.0228602 XY -0.00760227 XZ -0.0166296 YY 0.0116471 YZ 0.00358432 ZZ 0.0269059 EllAz1  48.4855 Dip1  25.3303 Len1  0.14083 Az2  336.971 Dip2  -33.8161 Len2  0.208116 Len3  3.919735e-01
STAT_GEOG  ExpectLat 9818.472637 Long 738.493328 Depth 0.460639
TRANSFORM  NONE
QML_OriginQuality  assocPhCt 24  usedPhCt 24  assocStaCt -1  usedStaCt 12  depthPhCt -1  stdErr 0.0279734  azGap 296.381  secAzGap 296.381  gtLevel -  minDist 0.658025 maxDist 4.53014 medDist 2.71562
QML_OriginUncertainty  horUnc -1  minHorUnc 0.134006  maxHorUnc 0.247809  azMaxHorUnc 116.796
QML_ConfidenceEllipsoid  semiMajorAxisLength 0.391974  semiMinorAxisLength 0.14083  semiIntermediateAxisLength 0.208116  majorAxisPlunge -45.4143  majorAxisAzimuth 109.784  majorAxisRotation 268.922
FOCALMECH  Hyp  9818.477679 738.465774 0.478693 Mech  0 0 0 mf  0 nObs -1
PHASE ID Ins Cmp On Pha  FM Date     HrMn   Sec     Err  ErrMag    Coda      Amp       Per       PriorWt  >   TTpred    Res       Weight    StaLoc(X  Y         Z)        SDist    SAzim  RAz  RDip RQual    Tcorr       TTerr
ML06         ?    BHZ  i P      c 20230928 0756    6.1065 GAU  9.31e-04 -1.00e+00 -1.00e+00 -1.00e+00    1.0000 >    0.5284    0.0853    0.2890  738.3100 9819.1170   -1.3960    0.6580 346.31 346.3 160.0 10     0.0000    0.0106
ML06         ?    BHN  e S      ? 20230928 0756    6.5646 GAU  1.04e-03 -1.00e+00 -1.00e+00 -1.00e+00    1.0000 >    0.9215    0.1504    0.0606  738.3100 9819.1170   -1.3960    0.6580 346.31 346.3 159.8 10     0.0000    0.0184
ML04         ?    BHZ  e P      c 20230928 0756    6.1681 GAU  3.71e-03 -1.00e+00 -1.00e+00 -1.00e+00    1.0000 >    0.6826   -0.0073    1.4989  737.1400 9819.2520   -1.5710    1.5353 300.29 300.3 142.0 10     0.0000    0.0137
ML04         ?    BHN  e S      ? 20230928 0756    6.6633 GAU  1.23e-03 -1.00e+00  4.26e+02 -1.00e+00    1.0000 >    1.1893   -0.0187    1.1888  737.1400 9819.2520   -1.5710    1.5353 300.29 300.3 141.4 10     0.0000    0.0238
ML14         ?    BHZ  i P      c 20230928 0756    6.1820 GAU  1.49e-03 -1.00e+00 -1.00e+00 -1.00e+00    1.0000 >    0.6881    0.0011    1.5587  737.5530 9820.0110   -1.3980    1.7844 329.24 329.2 135.1 10     0.0000    0.0138
ML14         ?    BHN  e S      ? 20230928 0756    6.6914 GAU  1.24e-03 -1.00e+00  1.42e+03 -1.00e+00    1.0000 >    1.1999   -0.0013    1.3618  737.5530 9820.0110   -1.3980    1.7844 329.24 329.2 134.2 10     0.0000    0.0240
ML11         ?    BHZ  i P      c 20230928 0756    6.2100 GAU  2.32e-03 -1.00e+00  1.70e+02 -1.00e+00    1.0000 >    0.7146    0.0027    1.5430  738.4670 9820.4900   -1.3120    2.0123   0.03   0.0 129.9 10     0.0000    0.0143
ML11         ?    BHN  e S      ? 20230928 0756    6.7715 GAU  1.42e-03 -1.00e+00  1.58e+00 -1.00e+00    1.0000 >    1.2467    0.0320    1.0275  738.4670 9820.4900   -1.3120    2.0123   0.03   0.0 128.9 10     0.0000    0.0249
ML02         ?    BHZ  i P      c 20230928 0756    6.2602 GAU  6.12e-03 -1.00e+00 -1.00e+00 -1.00e+00    1.0000 >    0.7646    0.0029    1.5070  736.5970 9819.4060   -1.4960    2.0866 296.42 296.4 131.6 10     0.0000    0.0153
ML02         ?    BHE  e S      ? 20230928 0756    6.8500 GAU  1.61e-03 -1.00e+00  7.45e+03 -1.00e+00    1.0000 >    1.3326    0.0247    1.1359  736.5970 9819.4060   -1.4960    2.0866 296.42 296.4 130.7 10     0.0000    0.0267
ML09         ?    BHZ  i P      c 20230928 0756    6.3124 GAU  2.01e-03 -1.00e+00  3.11e+02 -1.00e+00    1.0000 >    0.8249   -0.0052    1.4836  737.8820 9820.9850   -1.2700    2.5744 346.89 346.9 122.0 10     0.0000    0.0165
ML09         ?    BHN  e S      ? 20230928 0756    6.9112 GAU  1.88e-03 -1.00e+00  9.26e+02 -1.00e+00    1.0000 >    1.4396   -0.0211    1.1025  737.8820 9820.9850   -1.2700    2.5744 346.89 346.9 120.7 10     0.0000    0.0288
ML03         ?    BHZ  i P      d 20230928 0756    6.4035 GAU  1.29e-03 -1.00e+00  1.08e+03 -1.00e+00    1.0000 >    0.8980    0.0128    1.3819  736.8800 9820.8540   -1.3350    2.8568 326.28 326.3 120.1 10     0.0000    0.0180
ML03         ?    BHN  e S      ? 20230928 0756    7.0793 GAU  1.33e-03 -1.00e+00 -1.00e+00 -1.00e+00    1.0000 >    1.5665    0.0201    1.1515  736.8800 9820.8540   -1.3350    2.8568 326.28 326.3 118.6 10     0.0000    0.0313
ML13         ?    BHZ  i P      c 20230928 0756    6.4444 GAU  1.55e-03 -1.00e+00 -1.00e+00 -1.00e+00    1.0000 >    0.9881   -0.0364    0.8087  737.1780 9821.5410   -1.2220    3.3230 337.20 337.2 114.6 10     0.0000    0.0198
ML13         ?    BHE  e S      ? 20230928 0756    7.1419 GAU  2.90e-03 -1.00e+00 -1.00e+00 -1.00e+00    1.0000 >    1.7249   -0.0757    0.3151  737.1780 9821.5410   -1.2220    3.3230 337.20 337.2 112.7 10     0.0000    0.0345
ML10         ?    BHZ  i P      c 20230928 0756    6.5667 GAU  7.76e-04 -1.00e+00 -1.00e+00 -1.00e+00    1.0000 >    1.0215    0.0525    0.6573  736.5490 9821.3650   -1.2200    3.4656 326.42 326.4 113.6 10     0.0000    0.0204
ML10         ?    BHN  e S      ? 20230928 0756    7.3670 GAU  1.73e-03 -1.00e+00 -1.00e+00 -1.00e+00    1.0000 >    1.7832    0.0911    0.3985  736.5490 9821.3650   -1.2200    3.4656 326.42 326.4 111.6 10     0.0000    0.0357
ML05         ?    BHZ  i P      d 20230928 0756    6.7300 GAU  4.17e-03 -1.00e+00  8.88e+01 -1.00e+00    1.0000 >    1.1954    0.0419    0.8607  736.2660 9822.0830   -1.1500    4.2234 328.61 328.6 108.4 10     0.0000    0.0239
ML05         ?    BHE  e S      ? 20230928 0756    7.6727 GAU  1.38e-03 -1.00e+00 -1.00e+00 -1.00e+00    1.0000 >    2.0843    0.0957    0.3984  736.2660 9822.0830   -1.1500    4.2234 328.61 328.6  69.5  8     0.0000    0.0417
ML07         ?    BHZ  i P      d 20230928 0756    6.7391 GAU  1.93e-03 -1.00e+00 -1.00e+00 -1.00e+00    1.0000 >    1.2453    0.0011    1.3471  737.4430 9822.8030   -1.1120    4.4446 346.70 346.7 107.0 10     0.0000    0.0249
ML07         ?    BHE  e S      ? 20230928 0756    7.6679 GAU  1.15e-03 -1.00e+00  2.07e+01 -1.00e+00    1.0000 >    2.1660    0.0092    1.0606  737.4430 9822.8030   -1.1120    4.4446 346.70 346.7  67.2 10     0.0000    0.0433
ML01         ?    BHZ  i P      c 20230928 0756    6.7334 GAU  8.98e-04 -1.00e+00 -1.00e+00 -1.00e+00    1.0000 >    1.2674   -0.0267    1.0355  736.4090 9822.5140   -1.1200    4.5301 333.00 333.0 106.7 10     0.0000    0.0253
ML01         ?    BHE  e S      ? 20230928 0756    7.6606 GAU  1.31e-03 -1.00e+00  3.55e+02 -1.00e+00    1.0000 >    2.2029   -0.0351    0.8276  736.4090 9822.5140   -1.1200    4.5301 333.00 333.0  67.2 10     0.0000    0.0441
END_PHASE
END_NLLOC

