NLLOC "./loc/SEML.20230914.160408.grid0" "LOCATED" "Location completed."
PUBLIC_ID None
SIGNATURE "Arham Zakki Edelo - edelo.17034@mhs.its.ac.id   obs:./obs/2023_09.obs   NLLoc:v7.00.10(30Aug2020)   run:22Jan2024 21h54m01"
COMMENT "SEML"
GRID  2001 2001 1001  727 9811 -2  0.01 0.01 0.01 PROB_DENSITY
SEARCH OCTREE nInitial 4851 nEvaluated 20027 smallestNodeSide 0.014881/0.014881/0.014205 oct_tree_integral 1.618992e-02 scatter_volume 1.616348e-02
HYPOCENTER  x 738.019 y 9818.48 z 0.478693  OT 8.14092  ix -1 iy -1 iz -1 MAXIMUM_LIKELIHOOD
GEOGRAPHIC  OT 2023 09 14  16 04 8.140922  Lat 9818.477679 Long 738.019345 Depth 0.478693
QUALITY  Pmax 2.03999e+73 MFmin 83.0083 MFmax 95.7419 RMS 0.0342074 Nphs 22 Gap 278.683 Dist 0.702291 Mamp -9.90 0 Mdur -9.90 0
VPVSRATIO  VpVsRatio 1.84306  Npair 11  Diff 0.64179
STATISTICS  ExpectX 737.808848 Y 9818.380125 Z 0.569655  CovXX 0.075964 XY 0.0237394 XZ -0.0213988 YY 0.0245701 YZ -0.0137714 ZZ 0.0184622 EllAz1  5.54454 Dip1  54.7351 Len1  0.160612 Az2  326.807 Dip2  -28.8798 Len2  0.252887 Len3  5.747248e-01
STAT_GEOG  ExpectLat 9818.380125 Long 737.808848 Depth 0.569655
TRANSFORM  NONE
QML_OriginQuality  assocPhCt 22  usedPhCt 22  assocStaCt -1  usedStaCt 11  depthPhCt -1  stdErr 0.0342074  azGap 278.683  secAzGap 278.683  gtLevel -  minDist 0.702291 maxDist 5.03939 medDist 2.51108
QML_OriginUncertainty  horUnc -1  minHorUnc 0.187485  maxHorUnc 0.442807  azMaxHorUnc 68.6338
QML_ConfidenceEllipsoid  semiMajorAxisLength 0.574725  semiMinorAxisLength 0.160612  semiIntermediateAxisLength 0.252887  majorAxisPlunge -18.4424  majorAxisAzimuth 67.4064  majorAxisRotation 115.32
FOCALMECH  Hyp  9818.477679 738.019345 0.478693 Mech  0 0 0 mf  0 nObs -1
PHASE ID Ins Cmp On Pha  FM Date     HrMn   Sec     Err  ErrMag    Coda      Amp       Per       PriorWt  >   TTpred    Res       Weight    StaLoc(X  Y         Z)        SDist    SAzim  RAz  RDip RQual    Tcorr       TTerr
ML06         ?    BHZ  i P      d 20230914 1604    8.6793 GAU  5.20e-04 -1.00e+00 -1.00e+00 -1.00e+00    1.0000 >    0.5325    0.0060    1.6592  738.3100 9819.1170   -1.3960    0.7023  24.45  24.4 158.8 10     0.0000    0.0106
ML06         ?    BHE  e S      ? 20230914 1604    9.1901 GAU  9.70e-04 -1.00e+00 -1.00e+00 -1.00e+00    1.0000 >    0.9285    0.1207    0.1810  738.3100 9819.1170   -1.3960    0.7023  24.45  24.4 158.5 10     0.0000    0.0186
ML04         ?    BHZ  e P      d 20230914 1604    8.7444 GAU  1.62e-03 -1.00e+00  2.34e+03 -1.00e+00    1.0000 >    0.6295   -0.0261    1.5193  737.1400 9819.2520   -1.5710    1.1717 311.37 311.4 149.4 10     0.0000    0.0126
ML04         ?    BHN  e S      ? 20230914 1604    9.2294 GAU  1.71e-03 -1.00e+00  7.46e+02 -1.00e+00    1.0000 >    1.0967   -0.0082    1.6761  737.1400 9819.2520   -1.5710    1.1717 311.37 311.4 148.9 10     0.0000    0.0219
ML14         ?    BHZ  i P      d 20230914 1604    8.8243 GAU  5.63e-04 -1.00e+00 -1.00e+00 -1.00e+00    1.0000 >    0.6559    0.0275    0.9699  737.5530 9820.0110   -1.3980    1.6027 343.08 343.1 138.3 10     0.0000    0.0131
ML14         ?    BHN  e S      ? 20230914 1604    9.2814 GAU  1.49e-03 -1.00e+00  4.54e+02 -1.00e+00    1.0000 >    1.1437   -0.0032    1.6499  737.5530 9820.0110   -1.3980    1.6027 343.08 343.1 137.6 10     0.0000    0.0229
ML02         ?    BHZ  e P      d 20230914 1604    8.7225 GAU  4.77e-04 -1.00e+00  1.70e+03 -1.00e+00    1.0000 >    0.6934   -0.1118    0.2722  736.5970 9819.4060   -1.4960    1.6985 303.13 303.1 138.0 10     0.0000    0.0139
ML02         ?    BHN  e S      ? 20230914 1604    9.2249 GAU  3.32e-03 -1.00e+00 -1.00e+00 -1.00e+00    1.0000 >    1.2084   -0.1244    0.2986  736.5970 9819.4060   -1.4960    1.6985 303.13 303.1 137.3 10     0.0000    0.0242
ML11         ?    BHZ  i P      d 20230914 1604    8.8384 GAU  6.24e-04 -1.00e+00 -1.00e+00 -1.00e+00    1.0000 >    0.7244   -0.0269    1.4960  738.4670 9820.4900   -1.3120    2.0615  12.54  12.5 129.2 10     0.0000    0.0145
ML11         ?    BHE  i S      ? 20230914 1604    9.3963 GAU  2.33e-03 -1.00e+00 -1.00e+00 -1.00e+00    1.0000 >    1.2638   -0.0085    1.6027  738.4670 9820.4900   -1.3120    2.0615  12.54  12.5 128.1 10     0.0000    0.0253
ML09         ?    BHZ  i P      d 20230914 1604    8.9596 GAU  1.55e-03 -1.00e+00  1.84e+02 -1.00e+00    1.0000 >    0.8110    0.0076    1.6197  737.8820 9820.9850   -1.2700    2.5111 356.86 356.9 122.8 10     0.0000    0.0162
ML09         ?    BHN  e S      ? 20230914 1604    9.5213 GAU  1.35e-03 -1.00e+00  5.25e+02 -1.00e+00    1.0000 >    1.4155   -0.0351    1.2096  737.8820 9820.9850   -1.2700    2.5111 356.86 356.9 121.5 10     0.0000    0.0283
ML13         ?    BHZ  i P      d 20230914 1604    9.0913 GAU  1.07e-03 -1.00e+00  2.15e+02 -1.00e+00    1.0000 >    0.9539   -0.0035    1.7248  737.1780 9821.5410   -1.2220    3.1768 344.64 344.6 115.7 10     0.0000    0.0191
ML13         ?    BHN  e S      ? 20230914 1604    9.8473 GAU  2.09e-04 -1.00e+00 -1.00e+00 -1.00e+00    1.0000 >    1.6652    0.0411    0.8180  737.1780 9821.5410   -1.2220    3.1768 344.64 344.6 114.0 10     0.0000    0.0333
ML05         ?    BHZ  i P      d 20230914 1604    9.4203 GAU  1.25e-03 -1.00e+00  4.88e+02 -1.00e+00    1.0000 >    1.1430    0.1364    0.1641  736.2660 9822.0830   -1.1500    4.0091 334.07 334.1 109.5 10     0.0000    0.0229
ML05         ?    BHE  e S      ? 20230914 1604   10.5192 GAU  2.53e-04 -1.00e+00 -1.00e+00 -1.00e+00    1.0000 >    1.9959    0.3824    0.0000  736.2660 9822.0830   -1.1500    4.0091 334.07 334.1  90.2  9     0.0000    0.0399
ML01         ?    BHZ  i P      d 20230914 1604    9.2189 GAU  4.64e-03 -1.00e+00  2.07e+02 -1.00e+00    1.0000 >    1.2218   -0.1438    0.2156  736.4090 9822.5140   -1.1200    4.3457 338.25 338.2 107.5 10     0.0000    0.0244
ML01         ?    BHE  e S      ? 20230914 1604    9.9740 GAU  5.34e-03 -1.00e+00  5.15e+02 -1.00e+00    1.0000 >    2.1273   -0.2942    0.0012  736.4090 9822.5140   -1.1200    4.3457 338.25 338.2  67.2 10     0.0000    0.0425
ML07         ?    BHZ  i P      d 20230914 1604    9.3513 GAU  5.05e-04 -1.00e+00 -1.00e+00 -1.00e+00    1.0000 >    1.2253   -0.0149    1.5875  737.4430 9822.8030   -1.1120    4.3636 352.41 352.4 107.4 10     0.0000    0.0245
ML07         ?    BHN  e S      ? 20230914 1604   10.2524 GAU  6.07e-04 -1.00e+00 -1.00e+00 -1.00e+00    1.0000 >    2.1328   -0.0213    1.2185  737.4430 9822.8030   -1.1120    4.3636 352.41 352.4  67.2 10     0.0000    0.0427
ML12         ?    BHZ  e P      c 20230914 1604    9.4864 GAU  8.82e-04 -1.00e+00 -1.00e+00 -1.00e+00    1.0000 >    1.3796   -0.0341    1.2352  736.8520 9823.3800   -0.9890    5.0394 346.61 346.6 103.8 10     0.0000    0.0276
ML12         ?    BHE  e S      ? 20230914 1604   10.5607 GAU  7.49e-04 -1.00e+00  8.90e+01 -1.00e+00    1.0000 >    2.3810    0.0388    0.8809  736.8520 9823.3800   -0.9890    5.0394 346.61 346.6  67.2 10     0.0000    0.0476
END_PHASE
END_NLLOC

