NLLOC "./loc/SEML.20230928.091021.grid0" "LOCATED" "Location completed."
PUBLIC_ID None
SIGNATURE "Arham Zakki Edelo - edelo.17034@mhs.its.ac.id   obs:./obs/2023_09.obs   NLLoc:v7.00.10(30Aug2020)   run:22Jan2024 21h56m46"
COMMENT "SEML"
GRID  2001 2001 1001  727 9811 -2  0.01 0.01 0.01 PROB_DENSITY
SEARCH OCTREE nInitial 4851 nEvaluated 20019 smallestNodeSide 0.014881/0.014881/0.014205 oct_tree_integral 1.619486e-02 scatter_volume 1.617287e-02
HYPOCENTER  x 738.793 y 9818.31 z 0.265625  OT 20.368  ix -1 iy -1 iz -1 MAXIMUM_LIKELIHOOD
GEOGRAPHIC  OT 2023 09 28  09 10 20.367955  Lat 9818.313988 Long 738.793155 Depth 0.265625
QUALITY  Pmax 1.84297e+96 MFmin 93.7087 MFmax 112.863 RMS 0.0210088 Nphs 26 Gap 304.963 Dist 0.937159 Mamp -9.90 0 Mdur -9.90 0
VPVSRATIO  VpVsRatio 1.72176  Npair 13  Diff 0.590765
STATISTICS  ExpectX 738.791715 Y 9818.305016 Z 0.259849  CovXX 0.0162505 XY 0.00291374 XZ -0.0109353 YY 0.00800607 YZ -0.00447819 ZZ 0.0187207 EllAz1  36.4695 Dip1  38.0276 Len1  0.143145 Az2  320.479 Dip2  -17.1994 Len2  0.161616 Len3  3.241904e-01
STAT_GEOG  ExpectLat 9818.305016 Long 738.791715 Depth 0.259849
TRANSFORM  NONE
QML_OriginQuality  assocPhCt 26  usedPhCt 26  assocStaCt -1  usedStaCt 13  depthPhCt -1  stdErr 0.0210088  azGap 304.963  secAzGap 304.963  gtLevel -  minDist 0.937159 maxDist 5.42518 medDist 3.17991
QML_OriginUncertainty  horUnc -1  minHorUnc 0.127611  maxHorUnc 0.19876  azMaxHorUnc 72.3729
QML_ConfidenceEllipsoid  semiMajorAxisLength 0.32419  semiMinorAxisLength 0.143145  semiIntermediateAxisLength 0.161616  majorAxisPlunge -46.8953  majorAxisAzimuth 69.7918  majorAxisRotation 268.182
FOCALMECH  Hyp  9818.313988 738.793155 0.265625 Mech  0 0 0 mf  0 nObs -1
PHASE ID Ins Cmp On Pha  FM Date     HrMn   Sec     Err  ErrMag    Coda      Amp       Per       PriorWt  >   TTpred    Res       Weight    StaLoc(X  Y         Z)        SDist    SAzim  RAz  RDip RQual    Tcorr       TTerr
ML06         ?    BHZ  i P      c 20230928 0910   21.0033 GAU  6.86e-04 -1.00e+00  1.78e+01 -1.00e+00    1.0000 >    0.5091    0.1262    0.0363  738.3100 9819.1170   -1.3960    0.9372 328.97 329.0 149.7 10     0.0000    0.0102
ML06         ?    BHE  e S      ? 20230928 0910   21.5106 GAU  3.86e-03 -1.00e+00  4.53e+02 -1.00e+00    1.0000 >    0.8893    0.2533    0.0000  738.3100 9819.1170   -1.3960    0.9372 328.97 329.0 149.1 10     0.0000    0.0178
ML04         ?    BHZ  e P      c 20230928 0910   21.0666 GAU  3.62e-03 -1.00e+00  1.48e+01 -1.00e+00    1.0000 >    0.7067   -0.0081    1.3961  737.1400 9819.2520   -1.5710    1.9007 299.57 299.6 132.0 10     0.0000    0.0141
ML04         ?    BHN  e S      ? 20230928 0910   21.5755 GAU  1.37e-03 -1.00e+00  3.55e+02 -1.00e+00    1.0000 >    1.2332   -0.0256    1.0343  737.1400 9819.2520   -1.5710    1.9007 299.57 299.6 131.0 10     0.0000    0.0247
ML14         ?    BHZ  i P      c 20230928 0910   21.0716 GAU  1.54e-02 -1.00e+00 -1.00e+00 -1.00e+00    1.0000 >    0.7148   -0.0112    1.2870  737.5530 9820.0110   -1.3980    2.1019 323.84 323.8 126.0 10     0.0000    0.0143
ML14         ?    BHE  e S      ? 20230928 0910   21.6192 GAU  1.38e-03 -1.00e+00  1.27e+03 -1.00e+00    1.0000 >    1.2487    0.0026    1.2995  737.5530 9820.0110   -1.3980    2.1019 323.84 323.8 124.7 10     0.0000    0.0250
ML11         ?    BHZ  i P      c 20230928 0910   21.1072 GAU  4.31e-03 -1.00e+00 -1.00e+00 -1.00e+00    1.0000 >    0.7208    0.0185    1.2872  738.4670 9820.4900   -1.3120    2.2003 351.48 351.5 123.2 10     0.0000    0.0144
ML11         ?    BHN  e S      ? 20230928 0910   21.7018 GAU  2.24e-03 -1.00e+00 -1.00e+00 -1.00e+00    1.0000 >    1.2601    0.0737    0.3223  738.4670 9820.4900   -1.3120    2.2003 351.48 351.5 121.7 10     0.0000    0.0252
ML02         ?    BHZ  i P      c 20230928 0910   21.1992 GAU  5.14e-03 -1.00e+00 -1.00e+00 -1.00e+00    1.0000 >    0.8065    0.0248    1.1541  736.5970 9819.4060   -1.4960    2.4527 296.44 296.4 123.1 10     0.0000    0.0161
ML02         ?    BHN  i S      ? 20230928 0910   21.8005 GAU  2.90e-03 -1.00e+00 -1.00e+00 -1.00e+00    1.0000 >    1.4080    0.0245    1.0848  736.5970 9819.4060   -1.4960    2.4527 296.44 296.4 121.6 10     0.0000    0.0282
ML09         ?    BHZ  i P      c 20230928 0910   21.2172 GAU  8.09e-04 -1.00e+00  2.38e+02 -1.00e+00    1.0000 >    0.8544   -0.0051    1.3996  737.8820 9820.9850   -1.2700    2.8221 341.16 341.2 115.7 10     0.0000    0.0171
ML09         ?    BHE  e S      ? 20230928 0910   21.8680 GAU  3.64e-04 -1.00e+00  6.48e+02 -1.00e+00    1.0000 >    1.4943    0.0057    1.2128  737.8820 9820.9850   -1.2700    2.8221 341.16 341.2 113.5 10     0.0000    0.0299
ML03         ?    BHZ  i P      d 20230928 0910   21.3057 GAU  8.98e-04 -1.00e+00  3.28e+03 -1.00e+00    1.0000 >    0.9477   -0.0099    1.3270  736.8800 9820.8540   -1.3350    3.1799 323.01 323.0 113.5 10     0.0000    0.0190
ML03         ?    BHE  e S      ? 20230928 0910   22.0417 GAU  1.77e-03 -1.00e+00 -1.00e+00 -1.00e+00    1.0000 >    1.6567    0.0171    1.1053  736.8800 9820.8540   -1.3350    3.1799 323.01 323.0 111.2 10     0.0000    0.0331
ML13         ?    BHZ  i P      c 20230928 0910   21.3538 GAU  2.68e-03 -1.00e+00  4.28e+01 -1.00e+00    1.0000 >    1.0361   -0.0502    0.5377  737.1780 9821.5410   -1.2220    3.6086 333.41 333.4 109.1 10     0.0000    0.0207
ML13         ?    BHN  e S      ? 20230928 0910   22.1468 GAU  3.13e-04 -1.00e+00 -1.00e+00 -1.00e+00    1.0000 >    1.8131   -0.0342    0.8492  737.1780 9821.5410   -1.2220    3.6086 333.41 333.4 106.0 10     0.0000    0.0363
ML10         ?    BHZ  e P      c 20230928 0910   21.4653 GAU  3.34e-03 -1.00e+00  7.95e+02 -1.00e+00    1.0000 >    1.0797    0.0177    1.2422  736.5490 9821.3650   -1.2200    3.7875 323.66 323.7 108.0 10     0.0000    0.0216
ML10         ?    BHN  e S      ? 20230928 0910   22.2748 GAU  2.40e-03 -1.00e+00  3.00e+00 -1.00e+00    1.0000 >    1.8893    0.0175    1.0429  736.5490 9821.3650   -1.2200    3.7875 323.66 323.7 104.8 10     0.0000    0.0378
ML05         ?    BHZ  i P      d 20230928 0910   21.6323 GAU  2.01e-03 -1.00e+00  3.14e+02 -1.00e+00    1.0000 >    1.2582    0.0062    1.2886  736.2660 9822.0830   -1.1500    4.5378 326.16 326.2 103.8 10     0.0000    0.0252
ML05         ?    BHE  e S      ? 20230928 0910   22.6211 GAU  2.25e-03 -1.00e+00 -1.00e+00 -1.00e+00    1.0000 >    2.2023    0.0508    0.7042  736.2660 9822.0830   -1.1500    4.5378 326.16 326.2  99.8 10     0.0000    0.0440
ML07         ?    BHZ  i P      d 20230928 0910   21.6602 GAU  1.27e-03 -1.00e+00 -1.00e+00 -1.00e+00    1.0000 >    1.2917    0.0006    1.2845  737.4430 9822.8030   -1.1120    4.6877 343.26 343.3 103.0 10     0.0000    0.0258
ML07         ?    BHN  e S      ? 20230928 0910   22.6174 GAU  9.59e-04 -1.00e+00  8.42e+01 -1.00e+00    1.0000 >    2.2613   -0.0119    0.9579  737.4430 9822.8030   -1.1120    4.6877 343.26 343.3  98.8 10     0.0000    0.0452
ML01         ?    BHZ  i P      c 20230928 0910   21.6787 GAU  1.17e-03 -1.00e+00 -1.00e+00 -1.00e+00    1.0000 >    1.3283   -0.0176    1.1406  736.4090 9822.5140   -1.1200    4.8295 330.42 330.4 102.5 10     0.0000    0.0266
ML01         ?    BHE  e S      ? 20230928 0910   22.6739 GAU  1.72e-03 -1.00e+00  5.81e+02 -1.00e+00    1.0000 >    2.3251   -0.0191    0.9070  736.4090 9822.5140   -1.1200    4.8295 330.42 330.4  98.4 10     0.0000    0.0465
ML12         ?    BHZ  i P      c 20230928 0910   21.8464 GAU  1.61e-03 -1.00e+00 -1.00e+00 -1.00e+00    1.0000 >    1.4658    0.0126    1.1901  736.8520 9823.3800   -0.9890    5.4252 339.03 339.0 100.0 10     0.0000    0.0293
ML12         ?    BHE  e S      ? 20230928 0910   22.9445 GAU  2.48e-03 -1.00e+00  3.03e+02 -1.00e+00    1.0000 >    2.5657    0.0108    0.9087  736.8520 9823.3800   -0.9890    5.4252 339.03 339.0  95.9 10     0.0000    0.0513
END_PHASE
END_NLLOC

