NLLOC "./loc/SEML.20230928.081701.grid0" "LOCATED" "Location completed."
PUBLIC_ID None
SIGNATURE "Arham Zakki Edelo - edelo.17034@mhs.its.ac.id   obs:./obs/2023_09.obs   NLLoc:v7.00.10(30Aug2020)   run:22Jan2024 21h56m01"
COMMENT "SEML"
GRID  2001 2001 1001  727 9811 -2  0.01 0.01 0.01 PROB_DENSITY
SEARCH OCTREE nInitial 4851 nEvaluated 20011 smallestNodeSide 0.014881/0.014881/0.014205 oct_tree_integral 6.075388e-02 scatter_volume 6.075388e-02
HYPOCENTER  x 738.376 y 9818.33 z 0.72017  OT 0.495618  ix -1 iy -1 iz -1 MAXIMUM_LIKELIHOOD
GEOGRAPHIC  OT 2023 09 28  08 17 0.495618  Lat 9818.328869 Long 738.376488 Depth 0.720170
QUALITY  Pmax 2.93177e+36 MFmin 44.5041 MFmax 52.8745 RMS 0.0206542 Nphs 12 Gap 331.518 Dist 0.790931 Mamp -9.90 0 Mdur -9.90 0
VPVSRATIO  VpVsRatio 1.80768  Npair 6  Diff 0.470975
STATISTICS  ExpectX 738.322657 Y 9818.263035 Z 0.722115  CovXX 0.0751685 XY 0.0246099 XZ -0.00498534 YY 0.0242043 YZ 0.00132576 ZZ 0.0565157 EllAz1  157.755 Dip1  4.19287 Len1  0.222573 Az2  220.579 Dip2  -80.881 Len2  0.445234 Len3  5.500130e-01
STAT_GEOG  ExpectLat 9818.263035 Long 738.322657 Depth 0.722115
TRANSFORM  NONE
QML_OriginQuality  assocPhCt 12  usedPhCt 12  assocStaCt -1  usedStaCt 6  depthPhCt -1  stdErr 0.0206542  azGap 331.518  secAzGap 331.518  gtLevel -  minDist 0.790931 maxDist 4.57048 medDist 2.4324
QML_OriginUncertainty  horUnc -1  minHorUnc 0.181106  maxHorUnc 0.442445  azMaxHorUnc 67.9988
QML_ConfidenceEllipsoid  semiMajorAxisLength 0.550013  semiMinorAxisLength 0.222573  semiIntermediateAxisLength 0.445234  majorAxisPlunge -8.08335  majorAxisAzimuth 68.3515  majorAxisRotation 4.40872
FOCALMECH  Hyp  9818.328869 738.376488 0.720170 Mech  0 0 0 mf  0 nObs -1
PHASE ID Ins Cmp On Pha  FM Date     HrMn   Sec     Err  ErrMag    Coda      Amp       Per       PriorWt  >   TTpred    Res       Weight    StaLoc(X  Y         Z)        SDist    SAzim  RAz  RDip RQual    Tcorr       TTerr
ML06         ?    BHZ  i P      c 20230928 0817    1.1037 GAU  9.70e-04 -1.00e+00 -1.00e+00 -1.00e+00    1.0000 >    0.5983    0.0097    1.3637  738.3100 9819.1170   -1.3960    0.7909 355.18 355.2 158.8 10     0.0000    0.0120
ML06         ?    BHN  e S      ? 20230928 0817    1.6394 GAU  6.35e-04 -1.00e+00 -1.00e+00 -1.00e+00    1.0000 >    1.0346    0.1091    0.1384  738.3100 9819.1170   -1.3960    0.7909 355.18 355.2 157.1 10     0.0000    0.0207
ML14         ?    BHZ  i P      c 20230928 0817    1.2318 GAU  1.08e-03 -1.00e+00 -1.00e+00 -1.00e+00    1.0000 >    0.7482   -0.0121    1.3194  737.5530 9820.0110   -1.3980    1.8729 333.92 333.9 136.9 10     0.0000    0.0150
ML14         ?    BHE  e S      ? 20230928 0817    1.7953 GAU  1.17e-03 -1.00e+00  3.58e+02 -1.00e+00    1.0000 >    1.2933    0.0064    1.2213  737.5530 9820.0110   -1.3980    1.8729 333.92 333.9 132.7 10     0.0000    0.0259
ML11         ?    BHZ  i P      c 20230928 0817    1.2738 GAU  7.02e-04 -1.00e+00 -1.00e+00 -1.00e+00    1.0000 >    0.7840   -0.0057    1.4181  738.4670 9820.4900   -1.3120    2.1630   2.40   2.4 131.2 10     0.0000    0.0157
ML11         ?    BHN  i S      ? 20230928 0817    1.8358 GAU  3.18e-04 -1.00e+00 -1.00e+00 -1.00e+00    1.0000 >    1.3548   -0.0147    1.1051  738.4670 9820.4900   -1.3120    2.1630   2.40   2.4 126.1 10     0.0000    0.0271
ML09         ?    BHZ  i P      c 20230928 0817    1.3831 GAU  5.20e-04 -1.00e+00  1.67e+02 -1.00e+00    1.0000 >    0.8857    0.0018    1.4058  737.8820 9820.9850   -1.2700    2.7018 349.45 349.5 123.9 10     0.0000    0.0177
ML09         ?    BHN  e S      ? 20230928 0817    2.0375 GAU  1.43e-04 -1.00e+00  4.87e+02 -1.00e+00    1.0000 >    1.5297    0.0123    1.1013  737.8820 9820.9850   -1.2700    2.7018 349.45 349.5 117.2 10     0.0000    0.0306
ML13         ?    BHZ  i P      c 20230928 0817    1.5128 GAU  3.12e-04 -1.00e+00 -1.00e+00 -1.00e+00    1.0000 >    1.0387   -0.0216    1.0428  737.1780 9821.5410   -1.2220    3.4284 339.54 339.5 116.5 10     0.0000    0.0208
ML13         ?    BHE  e S      ? 20230928 0817    2.3039 GAU  2.03e-04 -1.00e+00 -1.00e+00 -1.00e+00    1.0000 >    1.7916    0.0167    0.9984  737.1780 9821.5410   -1.2220    3.4284 339.54 339.5 107.7 10     0.0000    0.0358
ML07         ?    BHZ  e P      d 20230928 0817    1.8301 GAU  7.19e-04 -1.00e+00 -1.00e+00 -1.00e+00    1.0000 >    1.2940    0.0404    0.6904  737.4430 9822.8030   -1.1120    4.5705 348.21 348.2 108.3 10     0.0000    0.0259
ML07         ?    BHE  e S      ? 20230928 0817    2.8367 GAU  4.39e-05 -1.00e+00 -1.00e+00 -1.00e+00    1.0000 >    2.2210    0.1201    0.1953  737.4430 9822.8030   -1.1120    4.5705 348.21 348.2  98.1 10     0.0000    0.0444
END_PHASE
END_NLLOC

