NLLOC "./loc/SEML.20230921.035154.grid0" "LOCATED" "Location completed."
PUBLIC_ID None
SIGNATURE "Arham Zakki Edelo - edelo.17034@mhs.its.ac.id   obs:./obs/2023_09.obs   NLLoc:v7.00.10(30Aug2020)   run:22Jan2024 21h55m28"
COMMENT "SEML"
GRID  2001 2001 1001  727 9811 -2  0.01 0.01 0.01 PROB_DENSITY
SEARCH OCTREE nInitial 4851 nEvaluated 20003 smallestNodeSide 0.014881/0.014881/0.014205 oct_tree_integral 1.384376e-02 scatter_volume 1.384376e-02
HYPOCENTER  x 737.997 y 9819.2 z 1.08239  OT 53.7564  ix -1 iy -1 iz -1 MAXIMUM_LIKELIHOOD
GEOGRAPHIC  OT 2023 09 21  03 51 53.756371  Lat 9819.199405 Long 737.997024 Depth 1.082386
QUALITY  Pmax 5.3013e+65 MFmin 77.5961 MFmax 90.0699 RMS 0.0309978 Nphs 20 Gap 168.761 Dist 0.323643 Mamp -9.90 0 Mdur -9.90 0
VPVSRATIO  VpVsRatio 1.7077  Npair 10  Diff 0.49876
STATISTICS  ExpectX 737.898587 Y 9819.162699 Z 1.062607  CovXX 0.0258431 XY 0.00426136 XZ 0.00685656 YY 0.00926325 YZ -0.00206816 ZZ 0.0133802 EllAz1  155.699 Dip1  -32.2112 Len1  0.144431 Az2  198.303 Dip2  49.4387 Len2  0.216007 Len3  3.219289e-01
STAT_GEOG  ExpectLat 9819.162699 Long 737.898587 Depth 1.062607
TRANSFORM  NONE
QML_OriginQuality  assocPhCt 20  usedPhCt 20  assocStaCt -1  usedStaCt 10  depthPhCt -1  stdErr 0.0309978  azGap 168.761  secAzGap 168.761  gtLevel -  minDist 0.323643 maxDist 4.33457 medDist 1.60224
QML_OriginUncertainty  horUnc -1  minHorUnc 0.1376  maxHorUnc 0.248617  azMaxHorUnc 76.3975
QML_ConfidenceEllipsoid  semiMajorAxisLength 0.321929  semiMinorAxisLength 0.144431  semiIntermediateAxisLength 0.216007  majorAxisPlunge 21.8658  majorAxisAzimuth 80.3432  majorAxisRotation 315.843
FOCALMECH  Hyp  9819.199405 737.997024 1.082386 Mech  0 0 0 mf  0 nObs -1
PHASE ID Ins Cmp On Pha  FM Date     HrMn   Sec     Err  ErrMag    Coda      Amp       Per       PriorWt  >   TTpred    Res       Weight    StaLoc(X  Y         Z)        SDist    SAzim  RAz  RDip RQual    Tcorr       TTerr
ML06         ?    BHZ  i P      d 20230921 0351   54.3918 GAU  3.20e-04 -1.00e+00 -1.00e+00 -1.00e+00    1.0000 >    0.6568   -0.0214    1.3929  738.3100 9819.1170   -1.3960    0.3236 104.75 104.8 171.5 10     0.0000    0.0131
ML06         ?    BHE  i S      ? 20230921 0351   54.8886 GAU  9.74e-04 -1.00e+00 -1.00e+00 -1.00e+00    1.0000 >    1.1249    0.0073    1.5531  738.3100 9819.1170   -1.3960    0.3236 104.75 104.8 171.2 10     0.0000    0.0225
ML04         ?    BHZ  e P      d 20230921 0351   54.5044 GAU  1.65e-03 -1.00e+00  9.39e+02 -1.00e+00    1.0000 >    0.7351    0.0129    1.5756  737.1400 9819.2520   -1.5710    0.8586 273.51 273.5 159.9 10     0.0000    0.0147
ML04         ?    BHN  e S      ? 20230921 0351   55.0068 GAU  5.43e-04 -1.00e+00  9.17e+02 -1.00e+00    1.0000 >    1.2596   -0.0092    1.5195  737.1400 9819.2520   -1.5710    0.8586 273.51 273.5 159.0 10     0.0000    0.0252
ML14         ?    BHZ  i P      d 20230921 0351   54.4823 GAU  2.33e-03 -1.00e+00  1.85e+03 -1.00e+00    1.0000 >    0.6958    0.0301    1.0101  737.5530 9820.0110   -1.3980    0.9251 331.32 331.3 157.1 10     0.0000    0.0139
ML14         ?    BHE  e S      ? 20230921 0351   54.9427 GAU  1.28e-03 -1.00e+00  4.52e+02 -1.00e+00    1.0000 >    1.1916   -0.0053    1.5665  737.5530 9820.0110   -1.3980    0.9251 331.32 331.3 156.1 10     0.0000    0.0238
ML11         ?    BHZ  e P      c 20230921 0351   54.4722 GAU  2.41e-03 -1.00e+00 -1.00e+00 -1.00e+00    1.0000 >    0.7242   -0.0085    1.6827  738.4670 9820.4900   -1.3120    1.3735  20.01  20.0 146.5 10     0.0000    0.0145
ML11         ?    BHE  e S      ? 20230921 0351   54.9904 GAU  3.68e-03 -1.00e+00 -1.00e+00 -1.00e+00    1.0000 >    1.2396   -0.0056    1.5415  738.4670 9820.4900   -1.3120    1.3735  20.01  20.0 145.0 10     0.0000    0.0248
ML02         ?    BHZ  e P      d 20230921 0351   54.4589 GAU  6.76e-04 -1.00e+00  6.69e+02 -1.00e+00    1.0000 >    0.7742   -0.0717    0.3445  736.5970 9819.4060   -1.4960    1.4152 278.39 278.4 147.6 10     0.0000    0.0155
ML02         ?    BHN  e S      ? 20230921 0351   54.9558 GAU  7.55e-04 -1.00e+00 -1.00e+00 -1.00e+00    1.0000 >    1.3259   -0.1266    0.0852  736.5970 9819.4060   -1.4960    1.4152 278.39 278.4 146.1 10     0.0000    0.0265
ML09         ?    BHZ  i P      c 20230921 0351   54.5368 GAU  2.62e-03 -1.00e+00  2.53e+02 -1.00e+00    1.0000 >    0.7745    0.0060    1.6840  737.8820 9820.9850   -1.2700    1.7893 356.31 356.3 137.9 10     0.0000    0.0155
ML09         ?    BHN  e S      ? 20230921 0351   55.1058 GAU  6.83e-04 -1.00e+00  4.93e+02 -1.00e+00    1.0000 >    1.3250    0.0245    1.1926  737.8820 9820.9850   -1.2700    1.7893 356.31 356.3 135.9 10     0.0000    0.0265
ML13         ?    BHZ  i P      c 20230921 0351   54.6020 GAU  5.72e-04 -1.00e+00 -1.00e+00 -1.00e+00    1.0000 >    0.8858   -0.0402    0.9112  737.1780 9821.5410   -1.2220    2.4807 340.72 340.7 125.6 10     0.0000    0.0177
ML13         ?    BHE  e S      ? 20230921 0351   55.1997 GAU  6.35e-04 -1.00e+00 -1.00e+00 -1.00e+00    1.0000 >    1.5139   -0.0705    0.5478  737.1780 9821.5410   -1.2220    2.4807 340.72 340.7 122.9 10     0.0000    0.0303
ML10         ?    BHZ  i P      d 20230921 0351   54.8155 GAU  8.09e-04 -1.00e+00  1.48e+03 -1.00e+00    1.0000 >    0.9095    0.1497    0.1339  736.5490 9821.3650   -1.2200    2.6051 326.23 326.2 123.7 10     0.0000    0.0182
ML10         ?    BHN  e S      ? 20230921 0351   55.5641 GAU  5.27e-04 -1.00e+00 -1.00e+00 -1.00e+00    1.0000 >    1.5540    0.2537    0.0591  736.5490 9821.3650   -1.2200    2.6051 326.23 326.2 120.8 10     0.0000    0.0311
ML05         ?    BHZ  i P      d 20230921 0351   54.8114 GAU  9.88e-04 -1.00e+00  3.46e+02 -1.00e+00    1.0000 >    1.0541    0.0010    1.6263  736.2660 9822.0830   -1.1500    3.3633 329.02 329.0 112.9 10     0.0000    0.0211
ML05         ?    BHE  e S      ? 20230921 0351   55.5498 GAU  4.24e-04 -1.00e+00 -1.00e+00 -1.00e+00    1.0000 >    1.7976   -0.0042    1.3321  736.2660 9822.0830   -1.1500    3.3633 329.02 329.0 108.9 10     0.0000    0.0360
ML12         ?    BHZ  i P      c 20230921 0351   55.1184 GAU  1.81e-04 -1.00e+00 -1.00e+00 -1.00e+00    1.0000 >    1.2482    0.1138    0.1124  736.8520 9823.3800   -0.9890    4.3346 344.68 344.7  99.9  9     0.0000    0.0250
ML12         ?    BHE  e S      ? 20230921 0351   56.0775 GAU  4.51e-04 -1.00e+00  8.73e+01 -1.00e+00    1.0000 >    2.1183    0.2029    0.1291  736.8520 9823.3800   -0.9890    4.3346 344.68 344.7  96.3  9     0.0000    0.0424
END_PHASE
END_NLLOC

