NLLOC "./loc/SEML.20230914.162603.grid0" "LOCATED" "Location completed."
PUBLIC_ID None
SIGNATURE "Arham Zakki Edelo - edelo.17034@mhs.its.ac.id   obs:./obs/2023_09.obs   NLLoc:v7.00.10(30Aug2020)   run:22Jan2024 21h54m19"
COMMENT "SEML"
GRID  2001 2001 1001  727 9811 -2  0.01 0.01 0.01 PROB_DENSITY
SEARCH OCTREE nInitial 4851 nEvaluated 20011 smallestNodeSide 0.007440/0.007440/0.007102 oct_tree_integral 5.605856e-03 scatter_volume 5.605856e-03
HYPOCENTER  x 738.35 y 9818.85 z 0.460937  OT 2.75713  ix -1 iy -1 iz -1 MAXIMUM_LIKELIHOOD
GEOGRAPHIC  OT 2023 09 14  16 26 2.757131  Lat 9818.845982 Long 738.350446 Depth 0.460937
QUALITY  Pmax 1.45985e+95 MFmin 100.417 MFmax 126.411 RMS 0.0255844 Nphs 26 Gap 283.657 Dist 0.274019 Mamp -9.90 0 Mdur -9.90 0
VPVSRATIO  VpVsRatio 1.75551  Npair 13  Diff 0.56425
STATISTICS  ExpectX 738.347751 Y 9818.814195 Z 0.484713  CovXX 0.00823317 XY -0.000726909 XZ -0.00264379 YY 0.00685388 YZ -0.00317182 ZZ 0.00756656 EllAz1  34.0545 Dip1  41.6864 Len1  0.102103 Az2  311.41 Dip2  -8.18081 Len2  0.171864 Len3  2.000126e-01
STAT_GEOG  ExpectLat 9818.814195 Long 738.347751 Depth 0.484713
TRANSFORM  NONE
QML_OriginQuality  assocPhCt 26  usedPhCt 26  assocStaCt -1  usedStaCt 13  depthPhCt -1  stdErr 0.0255844  azGap 283.657  secAzGap 283.657  gtLevel -  minDist 0.274019 maxDist 4.77521 medDist 2.48884
QML_OriginUncertainty  horUnc -1  minHorUnc 0.12266  maxHorUnc 0.140195  azMaxHorUnc 113.253
QML_ConfidenceEllipsoid  semiMajorAxisLength 0.200013  semiMinorAxisLength 0.102103  semiIntermediateAxisLength 0.171864  majorAxisPlunge -47.1481  majorAxisAzimuth 50.3247  majorAxisRotation 269.082
FOCALMECH  Hyp  9818.845982 738.350446 0.460937 Mech  0 0 0 mf  0 nObs -1
PHASE ID Ins Cmp On Pha  FM Date     HrMn   Sec     Err  ErrMag    Coda      Amp       Per       PriorWt  >   TTpred    Res       Weight    StaLoc(X  Y         Z)        SDist    SAzim  RAz  RDip RQual    Tcorr       TTerr
ML06         ?    BHZ  i P      c 20230914 1626    3.2831 GAU  2.76e-04 -1.00e+00  2.24e+01 -1.00e+00    1.0000 >    0.4993    0.0267    1.0856  738.3100 9819.1170   -1.3960    0.2740 351.51 351.5 171.2 10     0.0000    0.0100
ML06         ?    BHE  e S      ? 20230914 1626    3.7176 GAU  2.36e-03 -1.00e+00  4.31e+01 -1.00e+00    1.0000 >    0.8707    0.0898    0.1807  738.3100 9819.1170   -1.3960    0.2740 351.51 351.5 171.1 10     0.0000    0.0174
ML04         ?    BHZ  i P      c 20230914 1626    3.4024 GAU  1.06e-03 -1.00e+00 -1.00e+00 -1.00e+00    1.0000 >    0.6400    0.0053    1.5718  737.1400 9819.2520   -1.5710    1.2767 288.54 288.5 146.9 10     0.0000    0.0128
ML04         ?    BHN  i S      ? 20230914 1626    3.8738 GAU  2.23e-03 -1.00e+00  6.70e+02 -1.00e+00    1.0000 >    1.1150    0.0017    1.4073  737.1400 9819.2520   -1.5710    1.2767 288.54 288.5 146.4 10     0.0000    0.0223
ML14         ?    BHZ  i P      c 20230914 1626    3.3773 GAU  2.68e-03 -1.00e+00  3.99e+02 -1.00e+00    1.0000 >    0.6207   -0.0005    1.5852  737.5530 9820.0110   -1.3980    1.4118 325.61 325.6 141.7 10     0.0000    0.0124
ML14         ?    BHE  e S      ? 20230914 1626    3.8506 GAU  1.62e-03 -1.00e+00  3.74e+02 -1.00e+00    1.0000 >    1.0824    0.0110    1.3809  737.5530 9820.0110   -1.3980    1.4118 325.61 325.6 141.1 10     0.0000    0.0216
ML11         ?    BHZ  i P      c 20230914 1626    3.3976 GAU  1.16e-03 -1.00e+00  4.32e+01 -1.00e+00    1.0000 >    0.6424   -0.0019    1.5756  738.4670 9820.4900   -1.3120    1.6481   4.06   4.1 135.9 10     0.0000    0.0128
ML11         ?    BHN  e S      ? 20230914 1626    3.8613 GAU  1.55e-03 -1.00e+00 -1.00e+00 -1.00e+00    1.0000 >    1.1209   -0.0168    1.2137  738.4670 9820.4900   -1.3120    1.6481   4.06   4.1 135.1 10     0.0000    0.0224
ML02         ?    BHZ  i P      d 20230914 1626    3.4441 GAU  1.68e-03 -1.00e+00  8.08e+02 -1.00e+00    1.0000 >    0.7152   -0.0283    0.9248  736.5970 9819.4060   -1.4960    1.8407 287.71 287.7 135.3 10     0.0000    0.0143
ML02         ?    BHN  e S      ? 20230914 1626    4.0079 GAU  2.22e-03 -1.00e+00  1.26e+04 -1.00e+00    1.0000 >    1.2468    0.0040    1.3524  736.5970 9819.4060   -1.4960    1.8407 287.71 287.7 134.5 10     0.0000    0.0249
ML09         ?    BHZ  i P      c 20230914 1626    3.4784 GAU  3.22e-03 -1.00e+00  1.22e+02 -1.00e+00    1.0000 >    0.7400   -0.0187    1.2270  737.8820 9820.9850   -1.2700    2.1897 347.65 347.6 126.4 10     0.0000    0.0148
ML09         ?    BHE  e S      ? 20230914 1626    4.0629 GAU  4.68e-04 -1.00e+00  2.45e+02 -1.00e+00    1.0000 >    1.2917    0.0140    1.2821  737.8820 9820.9850   -1.2700    2.1897 347.65 347.6 125.2 10     0.0000    0.0258
ML03         ?    BHZ  e P      d 20230914 1626    3.4935 GAU  8.99e-04 -1.00e+00  2.87e+03 -1.00e+00    1.0000 >    0.8147   -0.0783    0.1910  736.8800 9820.8540   -1.3350    2.4888 323.79 323.8 123.6 10     0.0000    0.0163
ML03         ?    BHN  e S      ? 20230914 1626    4.0664 GAU  3.43e-03 -1.00e+00  4.21e+01 -1.00e+00    1.0000 >    1.4215   -0.1123    0.2079  736.8800 9820.8540   -1.3350    2.4888 323.79 323.8 122.4 10     0.0000    0.0284
ML13         ?    BHZ  i P      c 20230914 1626    3.5453 GAU  1.68e-03 -1.00e+00 -1.00e+00 -1.00e+00    1.0000 >    0.8969   -0.1087    0.1986  737.1780 9821.5410   -1.2220    2.9390 336.49 336.5 117.4 10     0.0000    0.0179
ML13         ?    BHE  e S      ? 20230914 1626    4.1870 GAU  6.24e-04 -1.00e+00 -1.00e+00 -1.00e+00    1.0000 >    1.5660   -0.1361    0.1390  737.1780 9821.5410   -1.2220    2.9390 336.49 336.5 115.7 10     0.0000    0.0313
ML10         ?    BHZ  i P      c 20230914 1626    3.7336 GAU  4.53e-03 -1.00e+00  7.48e+02 -1.00e+00    1.0000 >    0.9330    0.0434    0.7472  736.5490 9821.3650   -1.2200    3.0969 324.43 324.4 116.0 10     0.0000    0.0187
ML10         ?    BHN  e S      ? 20230914 1626    4.4595 GAU  4.51e-03 -1.00e+00 -1.00e+00 -1.00e+00    1.0000 >    1.6291    0.0733    0.4342  736.5490 9821.3650   -1.2200    3.0969 324.43 324.4 114.2 10     0.0000    0.0326
ML05         ?    BHZ  i P      d 20230914 1626    3.8528 GAU  2.37e-03 -1.00e+00  3.55e+02 -1.00e+00    1.0000 >    1.1027   -0.0070    1.3626  736.2660 9822.0830   -1.1500    3.8501 327.22 327.2 110.1 10     0.0000    0.0221
ML05         ?    BHN  e S      ? 20230914 1626    4.6774 GAU  1.19e-03 -1.00e+00  2.33e+02 -1.00e+00    1.0000 >    1.9261   -0.0059    1.0923  736.2660 9822.0830   -1.1500    3.8501 327.22 327.2 107.7 10     0.0000    0.0385
ML07         ?    BHZ  i P      d 20230914 1626    3.9110 GAU  1.93e-03 -1.00e+00 -1.00e+00 -1.00e+00    1.0000 >    1.1491    0.0047    1.3915  737.4430 9822.8030   -1.1120    4.0597 347.08 347.1 108.5 10     0.0000    0.0230
ML07         ?    BHN  e S      ? 20230914 1626    4.8035 GAU  3.09e-03 -1.00e+00 -1.00e+00 -1.00e+00    1.0000 >    2.0075    0.0388    0.8723  737.4430 9822.8030   -1.1120    4.0597 347.08 347.1 104.9  9     0.0000    0.0402
ML01         ?    BHZ  i P      c 20230914 1626    3.9257 GAU  2.14e-03 -1.00e+00 -1.00e+00 -1.00e+00    1.0000 >    1.1723   -0.0037    1.3636  736.4090 9822.5140   -1.1200    4.1501 332.11 332.1 108.2 10     0.0000    0.0234
ML01         ?    BHE  e S      ? 20230914 1626    4.8008 GAU  1.34e-03 -1.00e+00  3.79e+02 -1.00e+00    1.0000 >    2.0478   -0.0041    1.0644  736.4090 9822.5140   -1.1200    4.1501 332.11 332.1 102.0  8     0.0000    0.0410
ML12         ?    BHZ  i P      d 20230914 1626    4.0752 GAU  1.88e-03 -1.00e+00 -1.00e+00 -1.00e+00    1.0000 >    1.3123    0.0058    1.3234  736.8520 9823.3800   -0.9890    4.7752 341.71 341.7 104.5 10     0.0000    0.0262
ML12         ?    BHE  e S      ? 20230914 1626    5.0739 GAU  1.89e-03 -1.00e+00  9.60e+01 -1.00e+00    1.0000 >    2.2757    0.0411    0.8248  736.8520 9823.3800   -0.9890    4.7752 341.71 341.7  67.2 10     0.0000    0.0455
END_PHASE
END_NLLOC

