NLLOC "./loc/SEML.20230921.032700.grid0" "LOCATED" "Location completed."
PUBLIC_ID None
SIGNATURE "Arham Zakki Edelo - edelo.17034@mhs.its.ac.id   obs:./obs/2023_09.obs   NLLoc:v7.00.10(30Aug2020)   run:22Jan2024 21h55m19"
COMMENT "SEML"
GRID  2001 2001 1001  727 9811 -2  0.01 0.01 0.01 PROB_DENSITY
SEARCH OCTREE nInitial 4851 nEvaluated 20011 smallestNodeSide 0.014881/0.014881/0.014205 oct_tree_integral 4.225510e-02 scatter_volume 4.225510e-02
HYPOCENTER  x 738.183 y 9818.67 z 1.20312  OT 59.6307  ix -1 iy -1 iz -1 MAXIMUM_LIKELIHOOD
GEOGRAPHIC  OT 2023 09 21  03 26 59.630680  Lat 9818.671131 Long 738.183036 Depth 1.203125
QUALITY  Pmax 1.70495e+66 MFmin 72.971 MFmax 88.7047 RMS 0.0316357 Nphs 20 Gap 278.965 Dist 0.463594 Mamp -9.90 0 Mdur -9.90 0
VPVSRATIO  VpVsRatio 1.74092  Npair 10  Diff 0.631341
STATISTICS  ExpectX 738.245488 Y 9818.641557 Z 1.161066  CovXX 0.0310986 XY 0.00482307 XZ -0.00423063 YY 0.0197186 YZ 0.000908423 ZZ 0.0239315 EllAz1  154.782 Dip1  20.9126 Len1  0.245426 Az2  202.818 Dip2  -60.2534 Len2  0.28785 Len3  3.475215e-01
STAT_GEOG  ExpectLat 9818.641557 Long 738.245488 Depth 1.161066
TRANSFORM  NONE
QML_OriginQuality  assocPhCt 20  usedPhCt 20  assocStaCt -1  usedStaCt 10  depthPhCt -1  stdErr 0.0316357  azGap 278.965  secAzGap 278.965  gtLevel -  minDist 0.463594 maxDist 4.89337 medDist 2.08714
QML_OriginUncertainty  horUnc -1  minHorUnc 0.203184  maxHorUnc 0.274947  azMaxHorUnc 69.857
QML_ConfidenceEllipsoid  semiMajorAxisLength 0.347522  semiMinorAxisLength 0.245426  semiIntermediateAxisLength 0.28785  majorAxisPlunge -20.1593  majorAxisAzimuth 72.8457  majorAxisRotation 28.3335
FOCALMECH  Hyp  9818.671131 738.183036 1.203125 Mech  0 0 0 mf  0 nObs -1
PHASE ID Ins Cmp On Pha  FM Date     HrMn   Sec     Err  ErrMag    Coda      Amp       Per       PriorWt  >   TTpred    Res       Weight    StaLoc(X  Y         Z)        SDist    SAzim  RAz  RDip RQual    Tcorr       TTerr
ML06         ?    BHZ  i P      d 20230921 0327    0.3242 GAU  8.09e-04 -1.00e+00  2.12e+02 -1.00e+00    1.0000 >    0.6905    0.0030    1.5487  738.3100 9819.1170   -1.3960    0.4636  15.89  15.9 168.6 10     0.0000    0.0138
ML06         ?    BHE  e S      ? 20230921 0327    0.8278 GAU  5.42e-04 -1.00e+00 -1.00e+00 -1.00e+00    1.0000 >    1.1805    0.0166    1.2421  738.3100 9819.1170   -1.3960    0.4636  15.89  15.9 168.2 10     0.0000    0.0236
ML04         ?    BHZ  e P      d 20230921 0327    0.4267 GAU  1.29e-03 -1.00e+00  1.18e+03 -1.00e+00    1.0000 >    0.7923    0.0037    1.5222  737.1400 9819.2520   -1.5710    1.1939 299.11 299.1 154.0 10     0.0000    0.0158
ML04         ?    BHE  e S      ? 20230921 0327    0.9793 GAU  4.33e-04 -1.00e+00  2.73e+02 -1.00e+00    1.0000 >    1.3551   -0.0065    1.4308  737.1400 9819.2520   -1.5710    1.1939 299.11 299.1 152.9 10     0.0000    0.0271
ML14         ?    BHZ  i P      c 20230921 0327    0.4117 GAU  1.30e-03 -1.00e+00 -1.00e+00 -1.00e+00    1.0000 >    0.7826   -0.0017    1.5626  737.5530 9820.0110   -1.3980    1.4806 334.82 334.8 146.8 10     0.0000    0.0157
ML14         ?    BHN  e S      ? 20230921 0327    0.9811 GAU  1.23e-03 -1.00e+00  3.14e+02 -1.00e+00    1.0000 >    1.3375    0.0129    1.2782  737.5530 9820.0110   -1.3980    1.4806 334.82 334.8 145.4 10     0.0000    0.0268
ML02         ?    BHZ  e P      d 20230921 0327    0.4148 GAU  2.95e-04 -1.00e+00  1.63e+03 -1.00e+00    1.0000 >    0.8422   -0.0581    0.8049  736.5970 9819.4060   -1.4960    1.7480 294.86 294.9 143.0 10     0.0000    0.0168
ML02         ?    BHE  e S      ? 20230921 0327    1.0321 GAU  5.15e-04 -1.00e+00 -1.00e+00 -1.00e+00    1.0000 >    1.4396   -0.0382    1.1791  736.5970 9819.4060   -1.4960    1.7480 294.86 294.9 141.4 10     0.0000    0.0288
ML11         ?    BHZ  i P      d 20230921 0327    0.3971 GAU  1.49e-03 -1.00e+00 -1.00e+00 -1.00e+00    1.0000 >    0.8133   -0.0469    1.0257  738.4670 9820.4900   -1.3120    1.8409   8.87   8.9 139.4 10     0.0000    0.0163
ML11         ?    BHE  i S      ? 20230921 0327    0.9596 GAU  6.47e-04 -1.00e+00 -1.00e+00 -1.00e+00    1.0000 >    1.3891   -0.0602    0.8079  738.4670 9820.4900   -1.3120    1.8409   8.87   8.9 137.6 10     0.0000    0.0278
ML09         ?    BHZ  i P      d 20230921 0327    0.4963 GAU  1.61e-03 -1.00e+00  3.03e+02 -1.00e+00    1.0000 >    0.8860   -0.0203    1.4402  737.8820 9820.9850   -1.2700    2.3334 352.59 352.6 130.9 10     0.0000    0.0177
ML09         ?    BHE  e S      ? 20230921 0327    1.1349 GAU  3.90e-04 -1.00e+00  3.57e+02 -1.00e+00    1.0000 >    1.5121   -0.0079    1.3877  737.8820 9820.9850   -1.2700    2.3334 352.59 352.6 128.6 10     0.0000    0.0302
ML13         ?    BHZ  i P      c 20230921 0327    0.6009 GAU  7.82e-04 -1.00e+00 -1.00e+00 -1.00e+00    1.0000 >    1.0119   -0.0416    1.1372  737.1780 9821.5410   -1.2220    3.0408 340.70 340.7 120.5 10     0.0000    0.0202
ML13         ?    BHN  e S      ? 20230921 0327    1.3488 GAU  5.39e-04 -1.00e+00 -1.00e+00 -1.00e+00    1.0000 >    1.7244   -0.0063    1.3242  737.1780 9821.5410   -1.2220    3.0408 340.70 340.7 117.6 10     0.0000    0.0345
ML05         ?    BHZ  e P      c 20230921 0327    0.8323 GAU  7.73e-04 -1.00e+00  6.42e+01 -1.00e+00    1.0000 >    1.1850    0.0166    1.2418  736.2660 9822.0830   -1.1500    3.9136 330.67 330.7 110.3 10     0.0000    0.0237
ML05         ?    BHN  e S      ? 20230921 0327    1.7276 GAU  3.42e-04 -1.00e+00  2.67e+02 -1.00e+00    1.0000 >    2.0143    0.0826    0.4093  736.2660 9822.0830   -1.1500    3.9136 330.67 330.7 106.9 10     0.0000    0.0403
ML07         ?    BHZ  i P      d 20230921 0327    0.9368 GAU  6.47e-04 -1.00e+00 -1.00e+00 -1.00e+00    1.0000 >    1.2423    0.0639    0.4099  737.4430 9822.8030   -1.1120    4.1976 349.85 349.8 107.2 10     0.0000    0.0248
ML07         ?    BHE  e S      ? 20230921 0327    1.9268 GAU  6.50e-04 -1.00e+00 -1.00e+00 -1.00e+00    1.0000 >    2.1091    0.1870    0.0725  737.4430 9822.8030   -1.1120    4.1976 349.85 349.8 103.8 10     0.0000    0.0422
ML12         ?    BHZ  i P      c 20230921 0327    1.1327 GAU  3.05e-04 -1.00e+00 -1.00e+00 -1.00e+00    1.0000 >    1.3828    0.1193    0.1594  736.8520 9823.3800   -0.9890    4.8934 344.22 344.2 100.6 10     0.0000    0.0277
ML12         ?    BHE  e S      ? 20230921 0327    2.2677 GAU  3.17e-04 -1.00e+00  8.80e+01 -1.00e+00    1.0000 >    2.3383    0.2987    0.0156  736.8520 9823.3800   -0.9890    4.8934 344.22 344.2  98.3 10     0.0000    0.0468
END_PHASE
END_NLLOC

