NLLOC "./loc/SEML.20230911.023522.grid0" "REJECTED" "WARNING: max prob location on grid boundary 20, rejecting location."
PUBLIC_ID None
SIGNATURE "Arham Zakki Edelo - edelo.17034@mhs.its.ac.id   obs:./obs/2023_09.obs   NLLoc:v7.00.10(30Aug2020)   run:22Jan2024 21h53m55"
COMMENT "SEML"
GRID  2001 2001 1001  727 9811 -2  0.01 0.01 0.01 PROB_DENSITY
SEARCH OCTREE nInitial 4851 nEvaluated 20011 smallestNodeSide 0.119048/0.119048/0.113636 oct_tree_integral 7.709004e+00 scatter_volume 7.709004e+00
HYPOCENTER  x 742.536 y 9811.06 z 7.48864  OT 19.2494  ix -1 iy -1 iz -1 MAXIMUM_LIKELIHOOD
GEOGRAPHIC  OT 2023 09 11  02 35 19.249357  Lat 9811.059524 Long 742.535714 Depth 7.488636
QUALITY  Pmax 8.75841e+40 MFmin 30.9179 MFmax 35.5091 RMS 0.113267 Nphs 16 Gap 351.49 Dist 9.09833 Mamp -9.90 0 Mdur -9.90 0
VPVSRATIO  VpVsRatio 1.78341  Npair 8  Diff 0.78474
STATISTICS  ExpectX 742.019023 Y 9811.669348 Z 5.347019  CovXX 21.1303 XY 0.280501 XZ 8.29903 YY 0.339195 YZ -0.103216 ZZ 8.51787 EllAz1  178.221 Dip1  -2.52202 Len1  1.07264 Az2  263.157 Dip2  63.4819 Len2  3.94666 Len3  9.440805e+00
STAT_GEOG  ExpectLat 9811.669348 Long 742.019023 Depth 5.347019
TRANSFORM  NONE
QML_OriginQuality  assocPhCt 16  usedPhCt 16  assocStaCt -1  usedStaCt 8  depthPhCt -1  stdErr 0.113267  azGap 351.49  secAzGap 351.49  gtLevel -  minDist 9.09833 maxDist 13.5683 medDist 11.431
QML_OriginUncertainty  horUnc -1  minHorUnc 0.878321  maxHorUnc 6.97197  azMaxHorUnc 89.2272
QML_ConfidenceEllipsoid  semiMajorAxisLength 9.44081  semiMinorAxisLength 1.07264  semiIntermediateAxisLength 3.94666  majorAxisPlunge 26.379  majorAxisAzimuth 89.4726  majorAxisRotation 355.354
FOCALMECH  Hyp  9811.059524 742.535714 7.488636 Mech  0 0 0 mf  0 nObs -1
PHASE ID Ins Cmp On Pha  FM Date     HrMn   Sec     Err  ErrMag    Coda      Amp       Per       PriorWt  >   TTpred    Res       Weight    StaLoc(X  Y         Z)        SDist    SAzim  RAz  RDip RQual    Tcorr       TTerr
ML06         ?    BHZ  i P      c 20230911 0235   22.2387 GAU  1.55e-03 -1.00e+00 -1.00e+00 -1.00e+00    1.0000 >    2.9864    0.0030    1.5335  738.3100 9819.1170   -1.3960    9.0983 332.33 332.3 131.5 10     0.0000    0.0597
ML06         ?    BHN  e S      ? 20230911 0235   24.1806 GAU  2.48e-03 -1.00e+00 -1.00e+00 -1.00e+00    1.0000 >    4.9632   -0.0320    1.3361  738.3100 9819.1170   -1.3960    9.0983 332.33 332.3 131.1 10     0.0000    0.0993
ML14         ?    BHZ  e P      c 20230911 0235   22.2711 GAU  2.40e-03 -1.00e+00 -1.00e+00 -1.00e+00    1.0000 >    3.1830   -0.1613    0.6155  737.5530 9820.0110   -1.3980   10.2448 330.90 330.9 127.8 10     0.0000    0.0637
ML14         ?    BHE  e S      ? 20230911 0235   24.2205 GAU  5.64e-04 -1.00e+00  3.68e+02 -1.00e+00    1.0000 >    5.2881   -0.3170    0.1760  737.5530 9820.0110   -1.3980   10.2448 330.90 330.9 127.4 10     0.0000    0.1058
ML11         ?    BHZ  e P      c 20230911 0235   22.6257 GAU  2.42e-03 -1.00e+00 -1.00e+00 -1.00e+00    1.0000 >    3.1694    0.2069    0.7116  738.4670 9820.4900   -1.3120   10.2708 336.66 336.7 127.6 10     0.0000    0.0634
ML11         ?    BHE  e S      ? 20230911 0235   24.8311 GAU  1.62e-03 -1.00e+00 -1.00e+00 -1.00e+00    1.0000 >    5.2635    0.3182    0.4832  738.4670 9820.4900   -1.3120   10.2708 336.66 336.7 127.1 10     0.0000    0.1053
ML09         ?    BHZ  e P      c 20230911 0235   22.6297 GAU  5.30e-03 -1.00e+00  1.28e+02 -1.00e+00    1.0000 >    3.2842    0.0961    1.2198  737.8820 9820.9850   -1.2700   10.9623 334.88 334.9 125.5 10     0.0000    0.0657
ML09         ?    BHN  e S      ? 20230911 0235   24.8500 GAU  1.49e-03 -1.00e+00  4.80e+02 -1.00e+00    1.0000 >    5.4519    0.1487    1.0583  737.8820 9820.9850   -1.2700   10.9623 334.88 334.9 125.1 10     0.0000    0.1090
ML08         ?    BHZ  e P      c 20230911 0235   22.6626 GAU  4.48e-04 -1.00e+00 -1.00e+00 -1.00e+00    1.0000 >    3.4325   -0.0192    1.4745  738.2480 9822.1600   -1.1510   11.8998 338.88 338.9 122.7 10     0.0000    0.0686
ML08         ?    BHE  e S      ? 20230911 0235   24.9277 GAU  2.41e-04 -1.00e+00 -1.00e+00 -1.00e+00    1.0000 >    5.6934   -0.0151    1.3149  738.2480 9822.1600   -1.1510   11.8998 338.88 338.9 122.4 10     0.0000    0.1139
ML05         ?    BHZ  e P      c 20230911 0235   22.8293 GAU  4.70e-03 -1.00e+00 -1.00e+00 -1.00e+00    1.0000 >    3.5800   -0.0000    1.4943  736.2660 9822.0830   -1.1500   12.6817 330.37 330.4 120.9 10     0.0000    0.0716
ML05         ?    BHN  e S      ? 20230911 0235   25.2223 GAU  7.59e-04 -1.00e+00  3.03e+02 -1.00e+00    1.0000 >    5.9366    0.0363    1.3152  736.2660 9822.0830   -1.1500   12.6817 330.37 330.4 120.5 10     0.0000    0.1187
ML07         ?    BHZ  e P      c 20230911 0235   22.8220 GAU  5.41e-03 -1.00e+00 -1.00e+00 -1.00e+00    1.0000 >    3.5951   -0.0225    1.4552  737.4430 9822.8030   -1.1120   12.8002 336.56 336.6 120.5 10     0.0000    0.0719
ML07         ?    BHE  e S      ? 20230911 0235   25.2134 GAU  1.50e-03 -1.00e+00 -1.00e+00 -1.00e+00    1.0000 >    5.9605    0.0035    1.3138  737.4430 9822.8030   -1.1120   12.8002 336.56 336.6 120.2 10     0.0000    0.1192
ML12         ?    BHZ  e P      c 20230911 0235   23.2782 GAU  3.86e-03 -1.00e+00 -1.00e+00 -1.00e+00    1.0000 >    3.7197    0.3091    0.4411  736.8520 9823.3800   -0.9890   13.5683 335.24 335.2 118.6 10     0.0000    0.0744
ML12         ?    BHN  e S      ? 20230911 0235   26.0047 GAU  1.93e-03 -1.00e+00 -1.00e+00 -1.00e+00    1.0000 >    6.1621    0.5932    0.0570  736.8520 9823.3800   -0.9890   13.5683 335.24 335.2 118.3 10     0.0000    0.1232
END_PHASE
END_NLLOC

