NLLOC "./loc/SEML.20230914.163218.grid0" "LOCATED" "Location completed."
PUBLIC_ID None
SIGNATURE "Arham Zakki Edelo - edelo.17034@mhs.its.ac.id   obs:./obs/2023_09.obs   NLLoc:v7.00.10(30Aug2020)   run:22Jan2024 21h54m41"
COMMENT "SEML"
GRID  2001 2001 1001  727 9811 -2  0.01 0.01 0.01 PROB_DENSITY
SEARCH OCTREE nInitial 4851 nEvaluated 20011 smallestNodeSide 0.007440/0.007440/0.007102 oct_tree_integral 9.380185e-03 scatter_volume 9.380185e-03
HYPOCENTER  x 738.198 y 9818.78 z 0.350852  OT 17.7402  ix -1 iy -1 iz -1 MAXIMUM_LIKELIHOOD
GEOGRAPHIC  OT 2023 09 14  16 32 17.740158  Lat 9818.775298 Long 738.197917 Depth 0.350852
QUALITY  Pmax 1.30186e+67 MFmin 79.8952 MFmax 92.1765 RMS 0.0313633 Nphs 20 Gap 273.342 Dist 0.359615 Mamp -9.90 0 Mdur -9.90 0
VPVSRATIO  VpVsRatio 1.7626  Npair 10  Diff 0.618725
STATISTICS  ExpectX 738.244131 Y 9818.714263 Z 0.329966  CovXX 0.0169043 XY -0.00677304 XZ -0.0112185 YY 0.0138194 YZ 0.00208282 ZZ 0.0237253 EllAz1  54.4631 Dip1  23.9894 Len1  0.1447 Az2  340.807 Dip2  -32.3076 Len2  0.228434 Len3  3.450866e-01
STAT_GEOG  ExpectLat 9818.714263 Long 738.244131 Depth 0.329966
TRANSFORM  NONE
QML_OriginQuality  assocPhCt 20  usedPhCt 20  assocStaCt -1  usedStaCt 10  depthPhCt -1  stdErr 0.0313633  azGap 273.342  secAzGap 273.342  gtLevel -  minDist 0.359615 maxDist 4.79737 medDist 1.98393
QML_OriginUncertainty  horUnc -1  minHorUnc 0.139123  maxHorUnc 0.226515  azMaxHorUnc 128.585
QML_ConfidenceEllipsoid  semiMajorAxisLength 0.345087  semiMinorAxisLength 0.1447  semiIntermediateAxisLength 0.228434  majorAxisPlunge -47.8149  majorAxisAzimuth 115.055  majorAxisRotation 262.652
FOCALMECH  Hyp  9818.775298 738.197917 0.350852 Mech  0 0 0 mf  0 nObs -1
PHASE ID Ins Cmp On Pha  FM Date     HrMn   Sec     Err  ErrMag    Coda      Amp       Per       PriorWt  >   TTpred    Res       Weight    StaLoc(X  Y         Z)        SDist    SAzim  RAz  RDip RQual    Tcorr       TTerr
ML06         ?    BHZ  i P      c 20230914 1632   18.2150 GAU  5.04e-03 -1.00e+00 -1.00e+00 -1.00e+00    1.0000 >    0.4753   -0.0005    1.7960  738.3100 9819.1170   -1.3960    0.3596  18.16  18.2 167.9 10     0.0000    0.0095
ML06         ?    BHE  e S      ? 20230914 1632   18.7207 GAU  3.54e-03 -1.00e+00 -1.00e+00 -1.00e+00    1.0000 >    0.8296    0.1510    0.1614  738.3100 9819.1170   -1.3960    0.3596  18.16  18.2 167.7 10     0.0000    0.0166
ML04         ?    BHZ  e P      c 20230914 1632   18.3455 GAU  1.79e-03 -1.00e+00 -1.00e+00 -1.00e+00    1.0000 >    0.5998    0.0056    1.6882  737.1400 9819.2520   -1.5710    1.1604 294.26 294.3 147.8 10     0.0000    0.0120
ML04         ?    BHE  e S      ? 20230914 1632   18.7800 GAU  9.06e-04 -1.00e+00  3.11e+02 -1.00e+00    1.0000 >    1.0458   -0.0059    1.4819  737.1400 9819.2520   -1.5710    1.1604 294.26 294.3 147.3 10     0.0000    0.0209
ML14         ?    BHZ  i P      c 20230914 1632   18.3445 GAU  2.95e-03 -1.00e+00 -1.00e+00 -1.00e+00    1.0000 >    0.5956    0.0087    1.6009  737.5530 9820.0110   -1.3980    1.3939 332.44 332.4 140.2 10     0.0000    0.0119
ML14         ?    BHE  e S      ? 20230914 1632   18.7744 GAU  6.07e-04 -1.00e+00  3.57e+02 -1.00e+00    1.0000 >    1.0397   -0.0054    1.4898  737.5530 9820.0110   -1.3980    1.3939 332.44 332.4 139.5 10     0.0000    0.0208
ML02         ?    BHZ  e P      c 20230914 1632   18.4071 GAU  3.12e-04 -1.00e+00 -1.00e+00 -1.00e+00    1.0000 >    0.6732   -0.0062    1.6797  736.5970 9819.4060   -1.4960    1.7207 291.50 291.5 135.5 10     0.0000    0.0135
ML02         ?    BHE  e S      ? 20230914 1632   18.9653 GAU  4.68e-04 -1.00e+00  3.02e+03 -1.00e+00    1.0000 >    1.1744    0.0507    0.6823  736.5970 9819.4060   -1.4960    1.7207 291.50 291.5 134.6 10     0.0000    0.0235
ML11         ?    BHZ  i P      c 20230914 1632   18.3763 GAU  7.45e-04 -1.00e+00  1.18e+02 -1.00e+00    1.0000 >    0.6389   -0.0028    1.7385  738.4670 9820.4900   -1.3120    1.7357   8.92   8.9 132.1 10     0.0000    0.0128
ML11         ?    BHN  e S      ? 20230914 1632   18.9349 GAU  1.08e-03 -1.00e+00 -1.00e+00 -1.00e+00    1.0000 >    1.1160    0.0788    0.4536  738.4670 9820.4900   -1.3120    1.7357   8.92   8.9 131.0 10     0.0000    0.0223
ML09         ?    BHZ  i P      c 20230914 1632   18.4545 GAU  3.86e-03 -1.00e+00  2.41e+01 -1.00e+00    1.0000 >    0.7326   -0.0183    1.3061  737.8820 9820.9850   -1.2700    2.2322 351.86 351.9 123.8 10     0.0000    0.0147
ML09         ?    BHE  e S      ? 20230914 1632   19.0375 GAU  8.59e-04 -1.00e+00  3.09e+02 -1.00e+00    1.0000 >    1.2802    0.0171    1.2555  737.8820 9820.9850   -1.2700    2.2322 351.86 351.9 122.4 10     0.0000    0.0256
ML13         ?    BHZ  i P      c 20230914 1632   18.5968 GAU  4.49e-04 -1.00e+00 -1.00e+00 -1.00e+00    1.0000 >    0.8862   -0.0295    0.9064  737.1780 9821.5410   -1.2220    2.9478 339.76 339.8 115.4 10     0.0000    0.0177
ML13         ?    BHN  e S      ? 20230914 1632   19.2504 GAU  1.47e-03 -1.00e+00 -1.00e+00 -1.00e+00    1.0000 >    1.5491   -0.0389    0.7422  737.1780 9821.5410   -1.2220    2.9478 339.76 339.8 113.4 10     0.0000    0.0310
ML10         ?    BHZ  e P      d 20230914 1632   18.7491 GAU  5.08e-03 -1.00e+00  1.60e+03 -1.00e+00    1.0000 >    0.9146    0.0944    0.3432  736.5490 9821.3650   -1.2200    3.0701 327.51 327.5 114.4 10     0.0000    0.0183
ML10         ?    BHN  e S      ? 20230914 1632   19.5513 GAU  1.17e-03 -1.00e+00 -1.00e+00 -1.00e+00    1.0000 >    1.5988    0.2123    0.0949  736.5490 9821.3650   -1.2200    3.0701 327.51 327.5 112.2 10     0.0000    0.0320
ML07         ?    BHZ  i P      c 20230914 1632   18.9404 GAU  1.68e-03 -1.00e+00 -1.00e+00 -1.00e+00    1.0000 >    1.1499    0.0503    0.6805  737.4430 9822.8030   -1.1120    4.0978 349.38 349.4 106.7 10     0.0000    0.0230
ML07         ?    BHN  e S      ? 20230914 1632   19.9272 GAU  4.68e-04 -1.00e+00 -1.00e+00 -1.00e+00    1.0000 >    2.0114    0.1756    0.1963  737.4430 9822.8030   -1.1120    4.0978 349.38 349.4 103.5 10     0.0000    0.0402
ML12         ?    BHZ  i P      c 20230914 1632   19.0739 GAU  2.60e-03 -1.00e+00 -1.00e+00 -1.00e+00    1.0000 >    1.3111    0.0226    1.1662  736.8520 9823.3800   -0.9890    4.7974 343.71 343.7 102.9 10     0.0000    0.0262
ML12         ?    BHE  e S      ? 20230914 1632   20.1226 GAU  2.26e-03 -1.00e+00  6.51e+01 -1.00e+00    1.0000 >    2.2941    0.0883    0.5366  736.8520 9823.3800   -0.9890    4.7974 343.71 343.7  99.3 10     0.0000    0.0459
END_PHASE
END_NLLOC

