NLLOC "./loc/SEML.20230928.082702.grid0" "LOCATED" "Location completed."
PUBLIC_ID None
SIGNATURE "Arham Zakki Edelo - edelo.17034@mhs.its.ac.id   obs:./obs/2023_09.obs   NLLoc:v7.00.10(30Aug2020)   run:22Jan2024 21h56m09"
COMMENT "SEML"
GRID  2001 2001 1001  727 9811 -2  0.01 0.01 0.01 PROB_DENSITY
SEARCH OCTREE nInitial 4851 nEvaluated 20003 smallestNodeSide 0.014881/0.014881/0.014205 oct_tree_integral 2.585433e-02 scatter_volume 2.585433e-02
HYPOCENTER  x 738.585 y 9818.3 z 0.464489  OT 2.10045  ix -1 iy -1 iz -1 MAXIMUM_LIKELIHOOD
GEOGRAPHIC  OT 2023 09 28  08 27 2.100451  Lat 9818.299107 Long 738.584821 Depth 0.464489
QUALITY  Pmax 6.47341e+93 MFmin 94.0305 MFmax 112.882 RMS 0.0293756 Nphs 26 Gap 302.189 Dist 0.86283 Mamp -9.90 0 Mdur -9.90 0
VPVSRATIO  VpVsRatio 1.74698  Npair 13  Diff 0.560828
STATISTICS  ExpectX 738.560472 Y 9818.300166 Z 0.572952  CovXX 0.021328 XY -0.00154474 XZ -0.00416002 YY 0.0118811 YZ 0.000241868 ZZ 0.0316039 EllAz1  9.5989 Dip1  1.30524 Len1  0.202578 Az2  280.068 Dip2  -19.7604 Len2  0.266267 Len3  3.418389e-01
STAT_GEOG  ExpectLat 9818.300166 Long 738.560472 Depth 0.572952
TRANSFORM  NONE
QML_OriginQuality  assocPhCt 26  usedPhCt 26  assocStaCt -1  usedStaCt 13  depthPhCt -1  stdErr 0.0293756  azGap 302.189  secAzGap 302.189  gtLevel -  minDist 0.86283 maxDist 5.36825 medDist 3.07146
QML_OriginUncertainty  horUnc -1  minHorUnc 0.163586  maxHorUnc 0.222757  azMaxHorUnc 99.0548
QML_ConfidenceEllipsoid  semiMajorAxisLength 0.341839  semiMinorAxisLength 0.202578  semiIntermediateAxisLength 0.266267  majorAxisPlunge -70.1929  majorAxisAzimuth 95.9718  majorAxisRotation 184.998
FOCALMECH  Hyp  9818.299107 738.584821 0.464489 Mech  0 0 0 mf  0 nObs -1
PHASE ID Ins Cmp On Pha  FM Date     HrMn   Sec     Err  ErrMag    Coda      Amp       Per       PriorWt  >   TTpred    Res       Weight    StaLoc(X  Y         Z)        SDist    SAzim  RAz  RDip RQual    Tcorr       TTerr
ML06         ?    BHZ  i P      c 20230928 0827    2.7261 GAU  7.49e-04 -1.00e+00 -1.00e+00 -1.00e+00    1.0000 >    0.5455    0.0801    0.1371  738.3100 9819.1170   -1.3960    0.8628 341.43 341.4 154.5 10     0.0000    0.0109
ML06         ?    BHN  e S      ? 20230928 0827    3.2239 GAU  9.56e-04 -1.00e+00 -1.00e+00 -1.00e+00    1.0000 >    0.9514    0.1721    0.0008  738.3100 9819.1170   -1.3960    0.8628 341.43 341.4 154.1 10     0.0000    0.0190
ML04         ?    BHZ  e P      c 20230928 0827    2.7626 GAU  7.33e-03 -1.00e+00 -1.00e+00 -1.00e+00    1.0000 >    0.7122   -0.0501    0.8762  737.1400 9819.2520   -1.5710    1.7308 303.41 303.4 138.3 10     0.0000    0.0142
ML04         ?    BHN  e S      ? 20230928 0827    3.2742 GAU  1.12e-03 -1.00e+00  1.56e+01 -1.00e+00    1.0000 >    1.2409   -0.0671    0.6714  737.1400 9819.2520   -1.5710    1.7308 303.41 303.4 137.6 10     0.0000    0.0248
ML14         ?    BHZ  i P      c 20230928 0827    2.8428 GAU  1.72e-03 -1.00e+00 -1.00e+00 -1.00e+00    1.0000 >    0.7260    0.0163    1.2699  737.5530 9820.0110   -1.3980    1.9988 328.92 328.9 131.2 10     0.0000    0.0145
ML14         ?    BHE  e S      ? 20230928 0827    3.3421 GAU  2.13e-03 -1.00e+00  1.42e+03 -1.00e+00    1.0000 >    1.2662   -0.0246    1.2741  737.5530 9820.0110   -1.3980    1.9988 328.92 328.9 130.3 10     0.0000    0.0253
ML11         ?    BHZ  i P      c 20230928 0827    2.8536 GAU  1.44e-03 -1.00e+00 -1.00e+00 -1.00e+00    1.0000 >    0.7491    0.0041    1.4767  738.4670 9820.4900   -1.3120    2.1941 356.92 356.9 127.0 10     0.0000    0.0150
ML11         ?    BHN  e S      ? 20230928 0827    3.4174 GAU  2.98e-03 -1.00e+00  3.19e+02 -1.00e+00    1.0000 >    1.3071    0.0099    1.2681  738.4670 9820.4900   -1.3120    2.1941 356.92 356.9 125.9 10     0.0000    0.0261
ML02         ?    BHZ  i P      c 20230928 0827    2.8958 GAU  2.24e-03 -1.00e+00 -1.00e+00 -1.00e+00    1.0000 >    0.7995   -0.0041    1.4973  736.5970 9819.4060   -1.4960    2.2752 299.11 299.1 128.7 10     0.0000    0.0160
ML02         ?    BHE  i S      ? 20230928 0827    3.5320 GAU  6.07e-04 -1.00e+00  1.44e+04 -1.00e+00    1.0000 >    1.3935    0.0380    0.8146  736.5970 9819.4060   -1.4960    2.2752 299.11 299.1 127.7 10     0.0000    0.0279
ML09         ?    BHZ  i P      c 20230928 0827    2.9455 GAU  2.01e-03 -1.00e+00  2.52e+02 -1.00e+00    1.0000 >    0.8678   -0.0227    1.3260  737.8820 9820.9850   -1.2700    2.7763 345.34 345.3 119.7 10     0.0000    0.0174
ML09         ?    BHN  e S      ? 20230928 0827    3.6166 GAU  4.29e-03 -1.00e+00 -1.00e+00 -1.00e+00    1.0000 >    1.5147    0.0015    1.2769  737.8820 9820.9850   -1.2700    2.7763 345.34 345.3 118.2 10     0.0000    0.0303
ML03         ?    BHZ  i P      d 20230928 0827    3.0412 GAU  6.89e-04 -1.00e+00  1.50e+02 -1.00e+00    1.0000 >    0.9447   -0.0040    1.4647  736.8800 9820.8540   -1.3350    3.0715 326.29 326.3 117.9 10     0.0000    0.0189
ML03         ?    BHN  e S      ? 20230928 0827    3.7392 GAU  2.50e-03 -1.00e+00 -1.00e+00 -1.00e+00    1.0000 >    1.6483   -0.0096    1.2655  736.8800 9820.8540   -1.3350    3.0715 326.29 326.3 116.3 10     0.0000    0.0330
ML13         ?    BHZ  i P      c 20230928 0827    3.0821 GAU  2.03e-03 -1.00e+00  1.98e+02 -1.00e+00    1.0000 >    1.0365   -0.0549    0.8327  737.1780 9821.5410   -1.2220    3.5340 336.54 336.5 112.9 10     0.0000    0.0207
ML13         ?    BHE  e S      ? 20230928 0827    3.8537 GAU  1.21e-03 -1.00e+00  2.14e+02 -1.00e+00    1.0000 >    1.8097   -0.0564    0.8563  737.1780 9821.5410   -1.2220    3.5340 336.54 336.5 110.8 10     0.0000    0.0362
ML10         ?    BHZ  i P      c 20230928 0827    3.1768 GAU  1.34e-03 -1.00e+00  2.89e+03 -1.00e+00    1.0000 >    1.0712    0.0052    1.3822  736.5490 9821.3650   -1.2200    3.6803 326.41 326.4 111.9 10     0.0000    0.0214
ML10         ?    BHN  e S      ? 20230928 0827    3.9969 GAU  4.26e-03 -1.00e+00 -1.00e+00 -1.00e+00    1.0000 >    1.8702    0.0263    0.9764  736.5490 9821.3650   -1.2200    3.6803 326.41 326.4 109.8 10     0.0000    0.0374
ML05         ?    BHZ  i P      d 20230928 0827    3.3564 GAU  3.25e-03 -1.00e+00 -1.00e+00 -1.00e+00    1.0000 >    1.2470    0.0089    1.2931  736.2660 9822.0830   -1.1500    4.4379 328.50 328.5 107.2 10     0.0000    0.0249
ML05         ?    BHE  e S      ? 20230928 0827    4.2949 GAU  1.53e-03 -1.00e+00  8.28e+00 -1.00e+00    1.0000 >    2.1746    0.0199    0.9991  736.2660 9822.0830   -1.1500    4.4379 328.50 328.5  70.7  8     0.0000    0.0435
ML07         ?    BHZ  i P      d 20230928 0827    3.3825 GAU  7.21e-03 -1.00e+00 -1.00e+00 -1.00e+00    1.0000 >    1.2942   -0.0122    1.3452  737.4430 9822.8030   -1.1120    4.6464 345.77 345.8 106.0 10     0.0000    0.0259
ML07         ?    BHE  e S      ? 20230928 0827    4.3497 GAU  3.25e-03 -1.00e+00  1.48e+01 -1.00e+00    1.0000 >    2.2511   -0.0019    1.0993  737.4430 9822.8030   -1.1120    4.6464 345.77 345.8  67.2 10     0.0000    0.0450
ML01         ?    BHZ  e P      c 20230928 0827    3.3194 GAU  2.11e-03 -1.00e+00 -1.00e+00 -1.00e+00    1.0000 >    1.3193   -0.1003    0.2948  736.4090 9822.5140   -1.1200    4.7434 332.70 332.7 105.7 10     0.0000    0.0264
ML01         ?    BHN  e S      ? 20230928 0827    4.2451 GAU  1.11e-03 -1.00e+00  1.56e+03 -1.00e+00    1.0000 >    2.2927   -0.1480    0.1299  736.4090 9822.5140   -1.1200    4.7434 332.70 332.7  67.2 10     0.0000    0.0459
ML12         ?    BHZ  i P      d 20230928 0827    3.5299 GAU  9.31e-04 -1.00e+00 -1.00e+00 -1.00e+00    1.0000 >    1.4615   -0.0320    1.1693  736.8520 9823.3800   -0.9890    5.3683 341.17 341.2 102.7 10     0.0000    0.0292
ML12         ?    BHE  e S      ? 20230928 0827    4.5886 GAU  2.19e-03 -1.00e+00  3.71e+02 -1.00e+00    1.0000 >    2.5182   -0.0300    1.0024  736.8520 9823.3800   -0.9890    5.3683 341.17 341.2  67.2 10     0.0000    0.0504
END_PHASE
END_NLLOC

