NLLOC "./loc/SEML.20230928.083453.grid0" "LOCATED" "Location completed."
PUBLIC_ID None
SIGNATURE "Arham Zakki Edelo - edelo.17034@mhs.its.ac.id   obs:./obs/2023_09.obs   NLLoc:v7.00.10(30Aug2020)   run:22Jan2024 21h56m12"
COMMENT "SEML"
GRID  2001 2001 1001  727 9811 -2  0.01 0.01 0.01 PROB_DENSITY
SEARCH OCTREE nInitial 4851 nEvaluated 20003 smallestNodeSide 0.014881/0.014881/0.014205 oct_tree_integral 1.945017e-02 scatter_volume 1.945017e-02
HYPOCENTER  x 738.198 y 9818.37 z 0.450284  OT 52.701  ix -1 iy -1 iz -1 MAXIMUM_LIKELIHOOD
GEOGRAPHIC  OT 2023 09 28  08 34 52.701038  Lat 9818.373512 Long 738.197917 Depth 0.450284
QUALITY  Pmax 1.35538e+92 MFmin 96.7858 MFmax 113.589 RMS 0.040052 Nphs 26 Gap 294.246 Dist 0.751889 Mamp -9.90 0 Mdur -9.90 0
VPVSRATIO  VpVsRatio 1.79473  Npair 13  Diff 0.594421
STATISTICS  ExpectX 738.192066 Y 9818.289160 Z 0.479430  CovXX 0.0239919 XY 0.00282234 XZ -0.0066772 YY 0.0231276 YZ -0.00574728 ZZ 0.0149677 EllAz1  49.2412 Dip1  61.5053 Len1  0.189616 Az2  319.302 Dip2  -0.0328773 Len2  0.270346 Len3  3.318534e-01
STAT_GEOG  ExpectLat 9818.289160 Long 738.192066 Depth 0.479430
TRANSFORM  NONE
QML_OriginQuality  assocPhCt 26  usedPhCt 26  assocStaCt -1  usedStaCt 13  depthPhCt -1  stdErr 0.040052  azGap 294.246  secAzGap 294.246  gtLevel -  minDist 0.751889 maxDist 5.18425 medDist 2.80887
QML_OriginUncertainty  horUnc -1  minHorUnc 0.218221  maxHorUnc 0.246484  azMaxHorUnc 49.3525
QML_ConfidenceEllipsoid  semiMajorAxisLength 0.331853  semiMinorAxisLength 0.189616  semiIntermediateAxisLength 0.270346  majorAxisPlunge -28.4946  majorAxisAzimuth 49.3196  majorAxisRotation 90.0204
FOCALMECH  Hyp  9818.373512 738.197917 0.450284 Mech  0 0 0 mf  0 nObs -1
PHASE ID Ins Cmp On Pha  FM Date     HrMn   Sec     Err  ErrMag    Coda      Amp       Per       PriorWt  >   TTpred    Res       Weight    StaLoc(X  Y         Z)        SDist    SAzim  RAz  RDip RQual    Tcorr       TTerr
ML06         ?    BHZ  i P      c 20230928 0834   53.2778 GAU  3.47e-04 -1.00e+00  8.66e+02 -1.00e+00    1.0000 >    0.5304    0.0463    1.0047  738.3100 9819.1170   -1.3960    0.7519   8.57   8.6 157.2 10     0.0000    0.0106
ML06         ?    BHE  e S      ? 20230928 0834   53.7206 GAU  9.88e-04 -1.00e+00  3.37e+02 -1.00e+00    1.0000 >    0.9252    0.0944    0.6014  738.3100 9819.1170   -1.3960    0.7519   8.57   8.6 156.8 10     0.0000    0.0185
ML04         ?    BHZ  e P      d 20230928 0834   53.3544 GAU  2.83e-03 -1.00e+00  8.89e+02 -1.00e+00    1.0000 >    0.6520    0.0014    1.4977  737.1400 9819.2520   -1.5710    1.3751 309.71 309.7 144.7 10     0.0000    0.0130
ML04         ?    BHN  e S      ? 20230928 0834   53.8615 GAU  3.07e-03 -1.00e+00  5.53e+02 -1.00e+00    1.0000 >    1.1361    0.0244    1.3459  737.1400 9819.2520   -1.5710    1.3751 309.71 309.7 144.1 10     0.0000    0.0227
ML14         ?    BHZ  i P      c 20230928 0834   53.4086 GAU  7.49e-04 -1.00e+00 -1.00e+00 -1.00e+00    1.0000 >    0.6784    0.0292    1.2552  737.5530 9820.0110   -1.3980    1.7599 338.50 338.5 135.0 10     0.0000    0.0136
ML14         ?    BHN  e S      ? 20230928 0834   53.8981 GAU  5.62e-04 -1.00e+00  1.51e+03 -1.00e+00    1.0000 >    1.1833    0.0137    1.3980  737.5530 9820.0110   -1.3980    1.7599 338.50 338.5 134.2 10     0.0000    0.0237
ML02         ?    BHZ  i P      c 20230928 0834   53.4188 GAU  1.40e-03 -1.00e+00 -1.00e+00 -1.00e+00    1.0000 >    0.7251   -0.0074    1.3950  736.5970 9819.4060   -1.4960    1.9050 302.82 302.8 134.0 10     0.0000    0.0145
ML02         ?    BHN  e S      ? 20230928 0834   53.9536 GAU  2.80e-03 -1.00e+00 -1.00e+00 -1.00e+00    1.0000 >    1.2641   -0.0115    1.2247  736.5970 9819.4060   -1.4960    1.9050 302.82 302.8 133.2 10     0.0000    0.0253
ML11         ?    BHZ  i P      c 20230928 0834   53.4309 GAU  8.98e-04 -1.00e+00  1.06e+02 -1.00e+00    1.0000 >    0.7344   -0.0045    1.4360  738.4670 9820.4900   -1.3120    2.1335   7.25   7.2 127.6 10     0.0000    0.0147
ML11         ?    BHN  i S      ? 20230928 0834   53.9843 GAU  1.29e-03 -1.00e+00  1.17e+02 -1.00e+00    1.0000 >    1.2816    0.0016    1.3532  738.4670 9820.4900   -1.3120    2.1335   7.25   7.2 126.5 10     0.0000    0.0256
ML09         ?    BHZ  i P      c 20230928 0834   53.5305 GAU  7.55e-04 -1.00e+00  4.02e+02 -1.00e+00    1.0000 >    0.8334   -0.0039    1.4219  737.8820 9820.9850   -1.2700    2.6305 353.10 353.1 121.0 10     0.0000    0.0167
ML09         ?    BHE  e S      ? 20230928 0834   54.1083 GAU  1.16e-03 -1.00e+00  1.90e+02 -1.00e+00    1.0000 >    1.4548   -0.0476    0.6103  737.8820 9820.9850   -1.2700    2.6305 353.10 353.1 119.5 10     0.0000    0.0291
ML03         ?    BHZ  i P      c 20230928 0834   53.6565 GAU  8.09e-04 -1.00e+00 -1.00e+00 -1.00e+00    1.0000 >    0.8835    0.0719    0.8032  736.8800 9820.8540   -1.3350    2.8089 332.02 332.0 120.0 10     0.0000    0.0177
ML03         ?    BHN  e S      ? 20230928 0834   54.3307 GAU  2.74e-03 -1.00e+00 -1.00e+00 -1.00e+00    1.0000 >    1.5417    0.0880    0.7103  736.8800 9820.8540   -1.3350    2.8089 332.02 332.0 118.6 10     0.0000    0.0308
ML13         ?    BHZ  i P      c 20230928 0834   53.6391 GAU  7.76e-04 -1.00e+00 -1.00e+00 -1.00e+00    1.0000 >    0.9861   -0.0481    0.4959  737.1780 9821.5410   -1.2220    3.3276 342.15 342.2 114.1 10     0.0000    0.0197
ML13         ?    BHE  e S      ? 20230928 0834   54.2931 GAU  1.71e-03 -1.00e+00 -1.00e+00 -1.00e+00    1.0000 >    1.7220   -0.1299    0.0408  737.1780 9821.5410   -1.2220    3.3276 342.15 342.2 112.1 10     0.0000    0.0344
ML10         ?    BHZ  e P      d 20230928 0834   53.8017 GAU  2.85e-03 -1.00e+00  4.76e+03 -1.00e+00    1.0000 >    1.0067    0.0940    0.6140  736.5490 9821.3650   -1.2200    3.4158 331.14 331.1 113.4 10     0.0000    0.0201
ML10         ?    BHN  e S      ? 20230928 0834   54.6089 GAU  2.41e-03 -1.00e+00 -1.00e+00 -1.00e+00    1.0000 >    1.7579    0.1500    0.1907  736.5490 9821.3650   -1.2200    3.4158 331.14 331.1 111.4 10     0.0000    0.0352
ML05         ?    BHZ  i P      d 20230928 0834   53.8934 GAU  5.99e-04 -1.00e+00  6.66e+01 -1.00e+00    1.0000 >    1.1830    0.0094    1.4027  736.2660 9822.0830   -1.1500    4.1824 332.49 332.5 108.2 10     0.0000    0.0237
ML05         ?    BHE  e S      ? 20230928 0834   54.7770 GAU  8.04e-04 -1.00e+00 -1.00e+00 -1.00e+00    1.0000 >    2.0663    0.0096    1.1946  736.2660 9822.0830   -1.1500    4.1824 332.49 332.5 105.6  9     0.0000    0.0413
ML07         ?    BHZ  e P      c 20230928 0834   54.0085 GAU  8.63e-04 -1.00e+00 -1.00e+00 -1.00e+00    1.0000 >    1.2552    0.0523    1.0629  737.4430 9822.8030   -1.1120    4.4934 350.33 350.3 106.4 10     0.0000    0.0251
ML07         ?    BHN  e S      ? 20230928 0834   54.9890 GAU  6.81e-04 -1.00e+00  4.78e+01 -1.00e+00    1.0000 >    2.1908    0.0971    0.6522  737.4430 9822.8030   -1.1120    4.4934 350.33 350.3  73.0  9     0.0000    0.0438
ML01         ?    BHZ  i P      c 20230928 0834   54.0012 GAU  3.61e-04 -1.00e+00 -1.00e+00 -1.00e+00    1.0000 >    1.2604    0.0398    1.1980  736.4090 9822.5140   -1.1200    4.5104 336.63 336.6 106.4 10     0.0000    0.0252
ML01         ?    BHN  e S      ? 20230928 0834   54.9760 GAU  1.03e-03 -1.00e+00  1.65e+03 -1.00e+00    1.0000 >    2.1997    0.0753    0.8543  736.4090 9822.5140   -1.1200    4.5104 336.63 336.6  72.9  9     0.0000    0.0440
ML12         ?    BHZ  i P      d 20230928 0834   54.1030 GAU  1.23e-03 -1.00e+00 -1.00e+00 -1.00e+00    1.0000 >    1.4143   -0.0124    1.1863  736.8520 9823.3800   -0.9890    5.1842 344.95 345.0 103.0 10     0.0000    0.0283
ML12         ?    BHE  e S      ? 20230928 0834   55.1402 GAU  7.76e-04 -1.00e+00  3.77e+02 -1.00e+00    1.0000 >    2.4452   -0.0060    1.0500  736.8520 9823.3800   -0.9890    5.1842 344.95 345.0  67.2 10     0.0000    0.0489
END_PHASE
END_NLLOC

