NLLOC "./loc/SEML.20230911.024701.grid0" "REJECTED" "WARNING: max prob location on grid boundary 20, rejecting location."
PUBLIC_ID None
SIGNATURE "Arham Zakki Edelo - edelo.17034@mhs.its.ac.id   obs:./obs/2023_09.obs   NLLoc:v7.00.10(30Aug2020)   run:22Jan2024 21h53m56"
COMMENT "SEML"
GRID  2001 2001 1001  727 9811 -2  0.01 0.01 0.01 PROB_DENSITY
SEARCH OCTREE nInitial 4851 nEvaluated 20011 smallestNodeSide 0.059524/0.059524/0.056818 oct_tree_integral 1.959596e+00 scatter_volume 1.959596e+00
HYPOCENTER  x 745.661 y 9811.03 z -1.11932  OT 58.2895  ix -1 iy -1 iz -1 MAXIMUM_LIKELIHOOD
GEOGRAPHIC  OT 2023 09 11  02 46 58.289493  Lat 9811.029762 Long 745.660714 Depth -1.119318
QUALITY  Pmax 2.61041e+37 MFmin 26.1501 MFmax 28.6974 RMS 0.0760918 Nphs 14 Gap 351.395 Dist 10.9287 Mamp -9.90 0 Mdur -9.90 0
VPVSRATIO  VpVsRatio 1.88663  Npair 7  Diff 0.595734
STATISTICS  ExpectX 746.269053 Y 9811.504101 Z 2.152900  CovXX 0.366334 XY 0.0640233 XZ 0.225288 YY 0.199479 YZ -0.51348 ZZ 16.0319 EllAz1  160.825 Dip1  -2.01681 Len1  0.746988 Az2  250.819 Dip2  0.161438 Len2  1.17021 Len3  7.527442e+00
STAT_GEOG  ExpectLat 9811.504101 Long 746.269053 Depth 2.152900
TRANSFORM  NONE
QML_OriginQuality  assocPhCt 14  usedPhCt 14  assocStaCt -1  usedStaCt 7  depthPhCt -1  stdErr 0.0760918  azGap 351.395  secAzGap 351.395  gtLevel -  minDist 10.9287 maxDist 14.5064 medDist 13.3728
QML_OriginUncertainty  horUnc -1  minHorUnc 0.639384  maxHorUnc 0.944753  azMaxHorUnc 71.2484
QML_ConfidenceEllipsoid  semiMajorAxisLength 7.52744  semiMinorAxisLength 0.746988  semiIntermediateAxisLength 1.17021  majorAxisPlunge 87.9767  majorAxisAzimuth 156.245  majorAxisRotation 85.4339
FOCALMECH  Hyp  9811.029762 745.660714 -1.119318 Mech  0 0 0 mf  0 nObs -1
PHASE ID Ins Cmp On Pha  FM Date     HrMn   Sec     Err  ErrMag    Coda      Amp       Per       PriorWt  >   TTpred    Res       Weight    StaLoc(X  Y         Z)        SDist    SAzim  RAz  RDip RQual    Tcorr       TTerr
ML06         ?    BHZ  e P      c 20230911 0247    1.3033 GAU  2.88e-03 -1.00e+00 -1.00e+00 -1.00e+00    1.0000 >    2.9633    0.0505    1.1238  738.3100 9819.1170   -1.3960   10.9287 317.73 317.7  70.6 10     0.0000    0.0593
ML06         ?    BHE  e S      ? 20230911 0247    3.4799 GAU  1.17e-03 -1.00e+00  1.00e+01 -1.00e+00    1.0000 >    5.1791    0.0113    1.1073  738.3100 9819.1170   -1.3960   10.9287 317.73 317.7  84.4 10     0.0000    0.1036
ML11         ?    BHZ  e P      d 20230911 0247    1.6138 GAU  1.42e-03 -1.00e+00  9.21e-01 -1.00e+00    1.0000 >    3.2033    0.1210    0.7459  738.4670 9820.4900   -1.3120   11.8847 322.75 322.8  70.6 10     0.0000    0.0641
ML11         ?    BHN  e S      ? 20230911 0247    3.9739 GAU  1.71e-03 -1.00e+00 -1.00e+00 -1.00e+00    1.0000 >    5.5961    0.0884    0.8926  738.4670 9820.4900   -1.3120   11.8847 322.75 322.8  54.6 10     0.0000    0.1119
ML09         ?    BHZ  e P      c 20230911 0247    1.6927 GAU  1.60e-03 -1.00e+00 -1.00e+00 -1.00e+00    1.0000 >    3.3936    0.0095    1.2187  737.8820 9820.9850   -1.2700   12.6339 322.00 322.0  70.6 10     0.0000    0.0679
ML09         ?    BHE  e S      ? 20230911 0247    4.1663 GAU  4.01e-04 -1.00e+00  3.56e+02 -1.00e+00    1.0000 >    5.8738    0.0030    1.0635  737.8820 9820.9850   -1.2700   12.6339 322.00 322.0  54.6 10     0.0000    0.1175
ML08         ?    BHZ  e P      c 20230911 0247    1.8493 GAU  1.22e-04 -1.00e+00 -1.00e+00 -1.00e+00    1.0000 >    3.5743   -0.0144    1.2236  738.2480 9822.1600   -1.1510   13.3728 326.34 326.3  70.6 10     0.0000    0.0715
ML08         ?    BHE  e S      ? 20230911 0247    4.4257 GAU  3.75e-04 -1.00e+00 -1.00e+00 -1.00e+00    1.0000 >    6.1266    0.0097    1.0397  738.2480 9822.1600   -1.1510   13.3728 326.34 326.3  54.6 10     0.0000    0.1225
ML13         ?    BHZ  e P      c 20230911 0247    1.7867 GAU  1.39e-03 -1.00e+00 -1.00e+00 -1.00e+00    1.0000 >    3.6155   -0.1183    0.9224  737.1780 9821.5410   -1.2220   13.5071 321.10 321.1  70.6 10     0.0000    0.0723
ML13         ?    BHN  e S      ? 20230911 0247    4.3662 GAU  6.07e-04 -1.00e+00 -1.00e+00 -1.00e+00    1.0000 >    6.1979   -0.1211    0.8600  737.1780 9821.5410   -1.2220   13.5071 321.10 321.1  54.6 10     0.0000    0.1240
ML07         ?    BHZ  e P      c 20230911 0247    2.0493 GAU  8.43e-04 -1.00e+00 -1.00e+00 -1.00e+00    1.0000 >    3.8259   -0.0660    1.1289  737.4430 9822.8030   -1.1120   14.3576 325.08 325.1  70.6 10     0.0000    0.0765
ML07         ?    BHN  e S      ? 20230911 0247    4.8217 GAU  2.95e-04 -1.00e+00 -1.00e+00 -1.00e+00    1.0000 >    6.4962    0.0361    0.9806  737.4430 9822.8030   -1.1120   14.3576 325.08 325.1  54.6 10     0.0000    0.1299
ML05         ?    BHZ  e P      c 20230911 0247    2.0272 GAU  1.96e-03 -1.00e+00 -1.00e+00 -1.00e+00    1.0000 >    3.8678   -0.1302    0.8639  736.2660 9822.0830   -1.1500   14.5064 319.64 319.6  70.6 10     0.0000    0.0774
ML05         ?    BHE  e S      ? 20230911 0247    4.7262 GAU  5.61e-04 -1.00e+00 -1.00e+00 -1.00e+00    1.0000 >    6.5640   -0.1272    0.8292  736.2660 9822.0830   -1.1500   14.5064 319.64 319.6  54.6 10     0.0000    0.1313
END_PHASE
END_NLLOC

