NLLOC "./loc/SEML.20230928.080136.grid0" "LOCATED" "Location completed."
PUBLIC_ID None
SIGNATURE "Arham Zakki Edelo - edelo.17034@mhs.its.ac.id   obs:./obs/2023_09.obs   NLLoc:v7.00.10(30Aug2020)   run:22Jan2024 21h55m54"
COMMENT "SEML"
GRID  2001 2001 1001  727 9811 -2  0.01 0.01 0.01 PROB_DENSITY
SEARCH OCTREE nInitial 4851 nEvaluated 20011 smallestNodeSide 0.014881/0.014881/0.014205 oct_tree_integral 5.859128e-02 scatter_volume 5.859128e-02
HYPOCENTER  x 738.376 y 9818.28 z 0.166193  OT 35.7232  ix -1 iy -1 iz -1 MAXIMUM_LIKELIHOOD
GEOGRAPHIC  OT 2023 09 28  08 01 35.723212  Lat 9818.284226 Long 738.376488 Depth 0.166193
QUALITY  Pmax 1.79833e+28 MFmin 39.1966 MFmax 51.8846 RMS 0.0135656 Nphs 10 Gap 332.154 Dist 0.835424 Mamp -9.90 0 Mdur -9.90 0
VPVSRATIO  VpVsRatio 1.74406  Npair 5  Diff 0.511326
STATISTICS  ExpectX 738.176449 Y 9818.485555 Z 0.420827  CovXX 0.128956 XY -0.047426 XZ -0.0884197 YY 0.0601482 YZ 0.076232 ZZ 0.141448 EllAz1  354.186 Dip1  -33.6369 Len1  0.222275 Az2  243.815 Dip2  -27.6179 Len2  0.436944 Len3  9.625605e-01
STAT_GEOG  ExpectLat 9818.485555 Long 738.176449 Depth 0.420827
TRANSFORM  NONE
QML_OriginQuality  assocPhCt 10  usedPhCt 10  assocStaCt -1  usedStaCt 5  depthPhCt -1  stdErr 0.0135656  azGap 332.154  secAzGap 332.154  gtLevel -  minDist 0.835424 maxDist 4.61419 medDist 2.20763
QML_OriginUncertainty  horUnc -1  minHorUnc 0.287596  maxHorUnc 0.593488  azMaxHorUnc 117.021
QML_ConfidenceEllipsoid  semiMajorAxisLength 0.96256  semiMinorAxisLength 0.222275  semiIntermediateAxisLength 0.436944  majorAxisPlunge -43.7542  majorAxisAzimuth 123.755  majorAxisRotation 267.916
FOCALMECH  Hyp  9818.284226 738.376488 0.166193 Mech  0 0 0 mf  0 nObs -1
PHASE ID Ins Cmp On Pha  FM Date     HrMn   Sec     Err  ErrMag    Coda      Amp       Per       PriorWt  >   TTpred    Res       Weight    StaLoc(X  Y         Z)        SDist    SAzim  RAz  RDip RQual    Tcorr       TTerr
ML06         ?    BHZ  i P      c 20230928 0801   36.3296 GAU  7.49e-04 -1.00e+00  1.17e+02 -1.00e+00    1.0000 >    0.4737    0.1326    0.0054  738.3100 9819.1170   -1.3960    0.8354 355.44 355.4 151.0 10     0.0000    0.0095
ML06         ?    BHN  e S      ? 20230928 0801   36.7696 GAU  8.24e-04 -1.00e+00  4.12e+00 -1.00e+00    1.0000 >    0.8283    0.2181    0.0000  738.3100 9819.1170   -1.3960    0.8354 355.44 355.4 150.4 10     0.0000    0.0166
ML14         ?    BHZ  e P      d 20230928 0801   36.3891 GAU  7.49e-04 -1.00e+00  7.10e+02 -1.00e+00    1.0000 >    0.6602    0.0057    1.5616  737.5530 9820.0110   -1.3980    1.9131 334.50 334.5 126.9 10     0.0000    0.0132
ML14         ?    BHN  e S      ? 20230928 0801   36.8785 GAU  5.42e-04 -1.00e+00  3.27e+02 -1.00e+00    1.0000 >    1.1546    0.0007    1.3982  737.5530 9820.0110   -1.3980    1.9131 334.50 334.5 125.5 10     0.0000    0.0231
ML11         ?    BHZ  i P      d 20230928 0801   36.4259 GAU  2.04e-03 -1.00e+00  1.81e+02 -1.00e+00    1.0000 >    0.7087   -0.0060    1.5320  738.4670 9820.4900   -1.3120    2.2076   2.35   2.3 121.0 10     0.0000    0.0142
ML11         ?    BHN  e S      ? 20230928 0801   36.9864 GAU  2.32e-04 -1.00e+00 -1.00e+00 -1.00e+00    1.0000 >    1.2405    0.0227    1.0907  738.4670 9820.4900   -1.3120    2.2076   2.35   2.3 119.3 10     0.0000    0.0248
ML09         ?    BHZ  i P      c 20230928 0801   36.5400 GAU  3.31e-04 -1.00e+00  7.33e+01 -1.00e+00    1.0000 >    0.8256   -0.0087    1.4496  737.8820 9820.9850   -1.2700    2.7457 349.62 349.6 114.4 10     0.0000    0.0165
ML09         ?    BHN  e S      ? 20230928 0801   37.1377 GAU  5.41e-04 -1.00e+00  5.19e+02 -1.00e+00    1.0000 >    1.4459   -0.0314    0.8314  737.8820 9820.9850   -1.2700    2.7457 349.62 349.6 111.8 10     0.0000    0.0289
ML07         ?    BHZ  e P      c 20230928 0801   37.0089 GAU  1.67e-04 -1.00e+00 -1.00e+00 -1.00e+00    1.0000 >    1.2677    0.0180    1.1804  737.4430 9822.8030   -1.1120    4.6142 348.33 348.3 101.6 10     0.0000    0.0254
ML07         ?    BHE  e S      ? 20230928 0801   37.9602 GAU  8.88e-04 -1.00e+00 -1.00e+00 -1.00e+00    1.0000 >    2.2231    0.0140    0.9507  737.4430 9822.8030   -1.1120    4.6142 348.33 348.3  96.4  9     0.0000    0.0445
END_PHASE
END_NLLOC

