NLLOC "./loc/SEML.20230928.083609.grid0" "LOCATED" "Location completed."
PUBLIC_ID None
SIGNATURE "Arham Zakki Edelo - edelo.17034@mhs.its.ac.id   obs:./obs/2023_09.obs   NLLoc:v7.00.10(30Aug2020)   run:22Jan2024 21h56m16"
COMMENT "SEML"
GRID  2001 2001 1001  727 9811 -2  0.01 0.01 0.01 PROB_DENSITY
SEARCH OCTREE nInitial 4851 nEvaluated 20011 smallestNodeSide 0.014881/0.014881/0.014205 oct_tree_integral 3.479278e-02 scatter_volume 3.479278e-02
HYPOCENTER  x 738.644 y 9818.42 z 0.208807  OT 9.26173  ix -1 iy -1 iz -1 MAXIMUM_LIKELIHOOD
GEOGRAPHIC  OT 2023 09 28  08 36 9.261727  Lat 9818.418155 Long 738.644345 Depth 0.208807
QUALITY  Pmax 1.015e+93 MFmin 96.4655 MFmax 114.71 RMS 0.0388933 Nphs 26 Gap 300.65 Dist 0.774707 Mamp -9.90 0 Mdur -9.90 0
VPVSRATIO  VpVsRatio 1.71853  Npair 13  Diff 0.629578
STATISTICS  ExpectX 738.712872 Y 9818.429679 Z 0.136068  CovXX 0.0448837 XY 0.00160856 XZ -0.0277968 YY 0.011197 YZ -0.0029417 ZZ 0.0357281 EllAz1  20.4851 Dip1  26.1113 Len1  0.190299 Az2  313.438 Dip2  -38.5072 Len2  0.213414 Len3  4.922666e-01
STAT_GEOG  ExpectLat 9818.429679 Long 738.712872 Depth 0.136068
TRANSFORM  NONE
QML_OriginQuality  assocPhCt 26  usedPhCt 26  assocStaCt -1  usedStaCt 13  depthPhCt -1  stdErr 0.0388933  azGap 300.65  secAzGap 300.65  gtLevel -  minDist 0.774707 maxDist 5.27564 medDist 3.0077
QML_OriginUncertainty  horUnc -1  minHorUnc 0.159928  maxHorUnc 0.321572  azMaxHorUnc 87.2724
QML_ConfidenceEllipsoid  semiMajorAxisLength 0.492267  semiMinorAxisLength 0.190299  semiIntermediateAxisLength 0.213414  majorAxisPlunge -40.3182  majorAxisAzimuth 85.9068  majorAxisRotation 102.962
FOCALMECH  Hyp  9818.418155 738.644345 0.208807 Mech  0 0 0 mf  0 nObs -1
PHASE ID Ins Cmp On Pha  FM Date     HrMn   Sec     Err  ErrMag    Coda      Amp       Per       PriorWt  >   TTpred    Res       Weight    StaLoc(X  Y         Z)        SDist    SAzim  RAz  RDip RQual    Tcorr       TTerr
ML06         ?    BHZ  i P      c 20230928 0836    9.8838 GAU  1.19e-03 -1.00e+00 -1.00e+00 -1.00e+00    1.0000 >    0.4762    0.1460    0.0806  738.3100 9819.1170   -1.3960    0.7747 334.43 334.4 153.4 10     0.0000    0.0095
ML06         ?    BHE  e S      ? 20230928 0836   10.3568 GAU  1.08e-03 -1.00e+00 -1.00e+00 -1.00e+00    1.0000 >    0.8322    0.2629    0.0001  738.3100 9819.1170   -1.3960    0.7747 334.43 334.4 152.9 10     0.0000    0.0166
ML04         ?    BHZ  e P      c 20230928 0836    9.9263 GAU  2.06e-03 -1.00e+00 -1.00e+00 -1.00e+00    1.0000 >    0.6626    0.0020    1.3565  737.1400 9819.2520   -1.5710    1.7200 299.00 299.0 134.1 10     0.0000    0.0133
ML04         ?    BHN  e S      ? 20230928 0836   10.4371 GAU  2.07e-03 -1.00e+00 -1.00e+00 -1.00e+00    1.0000 >    1.1566    0.0188    1.3420  737.1400 9819.2520   -1.5710    1.7200 299.00 299.0 133.2 10     0.0000    0.0231
ML14         ?    BHZ  e P      c 20230928 0836    9.9141 GAU  2.78e-03 -1.00e+00 -1.00e+00 -1.00e+00    1.0000 >    0.6706   -0.0182    1.1029  737.5530 9820.0110   -1.3980    1.9309 325.58 325.6 127.5 10     0.0000    0.0134
ML14         ?    BHE  e S      ? 20230928 0836   10.4159 GAU  1.39e-03 -1.00e+00 -1.00e+00 -1.00e+00    1.0000 >    1.1721   -0.0180    1.0675  737.5530 9820.0110   -1.3980    1.9309 325.58 325.6 126.2 10     0.0000    0.0234
ML11         ?    BHZ  i P      c 20230928 0836    9.9982 GAU  1.12e-03 -1.00e+00 -1.00e+00 -1.00e+00    1.0000 >    0.6866    0.0499    1.1637  738.4670 9820.4900   -1.3120    2.0794 355.11 355.1 123.7 10     0.0000    0.0137
ML11         ?    BHN  e S      ? 20230928 0836   10.5212 GAU  3.48e-03 -1.00e+00  1.73e+03 -1.00e+00    1.0000 >    1.2011    0.0584    1.0354  738.4670 9820.4900   -1.3120    2.0794 355.11 355.1 122.2 10     0.0000    0.0240
ML02         ?    BHZ  i P      c 20230928 0836   10.0728 GAU  1.40e-03 -1.00e+00 -1.00e+00 -1.00e+00    1.0000 >    0.7597    0.0514    1.1467  736.5970 9819.4060   -1.4960    2.2732 295.76 295.8 124.2 10     0.0000    0.0152
ML02         ?    BHE  e S      ? 20230928 0836   10.6855 GAU  9.88e-04 -1.00e+00  7.80e+04 -1.00e+00    1.0000 >    1.3270    0.0967    0.4918  736.5970 9819.4060   -1.4960    2.2732 295.76 295.8 122.8 10     0.0000    0.0265
ML09         ?    BHZ  i P      c 20230928 0836   10.0722 GAU  2.24e-03 -1.00e+00 -1.00e+00 -1.00e+00    1.0000 >    0.8143   -0.0039    1.3148  737.8820 9820.9850   -1.2700    2.6777 343.46 343.5 115.9 10     0.0000    0.0163
ML09         ?    BHE  e S      ? 20230928 0836   10.6822 GAU  2.45e-03 -1.00e+00 -1.00e+00 -1.00e+00    1.0000 >    1.4254   -0.0049    1.1983  737.8820 9820.9850   -1.2700    2.6777 343.46 343.5 113.7 10     0.0000    0.0285
ML03         ?    BHZ  e P      d 20230928 0836   10.1904 GAU  5.61e-03 -1.00e+00  6.28e+03 -1.00e+00    1.0000 >    0.9010    0.0277    1.3180  736.8800 9820.8540   -1.3350    3.0077 324.08 324.1 113.9 10     0.0000    0.0180
ML03         ?    BHN  e S      ? 20230928 0836   10.8965 GAU  2.02e-03 -1.00e+00 -1.00e+00 -1.00e+00    1.0000 >    1.5762    0.0586    1.0150  736.8800 9820.8540   -1.3350    3.0077 324.08 324.1 111.5 10     0.0000    0.0315
ML13         ?    BHZ  i P      c 20230928 0836   10.2408 GAU  1.30e-03 -1.00e+00  3.18e+02 -1.00e+00    1.0000 >    0.9925   -0.0135    1.1663  737.1780 9821.5410   -1.2220    3.4500 334.85 334.8 109.1 10     0.0000    0.0199
ML13         ?    BHE  e S      ? 20230928 0836   10.9727 GAU  2.13e-03 -1.00e+00 -1.00e+00 -1.00e+00    1.0000 >    1.7383   -0.0273    0.8725  737.1780 9821.5410   -1.2220    3.4500 334.85 334.8 105.7 10     0.0000    0.0348
ML10         ?    BHZ  i P      c 20230928 0836   10.3208 GAU  5.01e-03 -1.00e+00 -1.00e+00 -1.00e+00    1.0000 >    1.0329    0.0262    1.3268  736.5490 9821.3650   -1.2200    3.6158 324.59 324.6 108.0 10     0.0000    0.0207
ML10         ?    BHN  e S      ? 20230928 0836   11.1345 GAU  1.86e-03 -1.00e+00 -1.00e+00 -1.00e+00    1.0000 >    1.8091    0.0637    0.9447  736.5490 9821.3650   -1.2200    3.6158 324.59 324.6 104.5 10     0.0000    0.0362
ML05         ?    BHZ  i P      d 20230928 0836   10.4781 GAU  2.63e-03 -1.00e+00 -1.00e+00 -1.00e+00    1.0000 >    1.2123    0.0041    1.3078  736.2660 9822.0830   -1.1500    4.3689 327.02 327.0 103.6 10     0.0000    0.0242
ML05         ?    BHN  e S      ? 20230928 0836   11.3896 GAU  6.81e-03 -1.00e+00 -1.00e+00 -1.00e+00    1.0000 >    2.1241    0.0038    1.1126  736.2660 9822.0830   -1.1500    4.3689 327.02 327.0  99.1 10     0.0000    0.0425
ML07         ?    BHZ  e P      c 20230928 0836   10.5724 GAU  2.60e-03 -1.00e+00 -1.00e+00 -1.00e+00    1.0000 >    1.2529    0.0579    1.0406  737.4430 9822.8030   -1.1120    4.5464 344.68 344.7 102.6 10     0.0000    0.0251
ML07         ?    BHE  e S      ? 20230928 0836   11.5297 GAU  1.86e-03 -1.00e+00 -1.00e+00 -1.00e+00    1.0000 >    2.1955    0.0724    0.8402  737.4430 9822.8030   -1.1120    4.5464 344.68 344.7  97.9 10     0.0000    0.0439
ML01         ?    BHZ  i P      c 20230928 0836   10.5332 GAU  1.12e-03 -1.00e+00 -1.00e+00 -1.00e+00    1.0000 >    1.2839   -0.0125    1.1354  736.4090 9822.5140   -1.1200    4.6661 331.38 331.4 102.2 10     0.0000    0.0257
ML01         ?    BHE  e S      ? 20230928 0836   11.4677 GAU  6.04e-03 -1.00e+00 -1.00e+00 -1.00e+00    1.0000 >    2.2496   -0.0437    0.6559  736.4090 9822.5140   -1.1200    4.6661 331.38 331.4  97.6 10     0.0000    0.0450
ML12         ?    BHZ  e P      c 20230928 0836   10.7325 GAU  4.45e-03 -1.00e+00 -1.00e+00 -1.00e+00    1.0000 >    1.4252    0.0455    1.1671  736.8520 9823.3800   -0.9890    5.2756 340.14 340.1  99.5 10     0.0000    0.0285
ML12         ?    BHN  e S      ? 20230928 0836   11.8350 GAU  8.01e-03 -1.00e+00 -1.00e+00 -1.00e+00    1.0000 >    2.4971    0.0761    0.7967  736.8520 9823.3800   -0.9890    5.2756 340.14 340.1  95.1 10     0.0000    0.0499
END_PHASE
END_NLLOC

