NLLOC "./loc/SEML.20230914.160107.grid0" "LOCATED" "Location completed."
PUBLIC_ID None
SIGNATURE "Arham Zakki Edelo - edelo.17034@mhs.its.ac.id   obs:./obs/2023_09.obs   NLLoc:v7.00.10(30Aug2020)   run:22Jan2024 21h53m57"
COMMENT "SEML"
GRID  2001 2001 1001  727 9811 -2  0.01 0.01 0.01 PROB_DENSITY
SEARCH OCTREE nInitial 4851 nEvaluated 20003 smallestNodeSide 0.014881/0.014881/0.014205 oct_tree_integral 1.863781e-02 scatter_volume 1.863781e-02
HYPOCENTER  x 738.376 y 9818.27 z -0.0326705  OT 7.06232  ix -1 iy -1 iz -1 MAXIMUM_LIKELIHOOD
GEOGRAPHIC  OT 2023 09 14  16 01 7.062317  Lat 9818.269345 Long 738.376488 Depth -0.032670
QUALITY  Pmax 5.7517e+43 MFmin 53.4477 MFmax 66.3858 RMS 0.0239482 Nphs 14 Gap 328.706 Dist 0.850258 Mamp -9.90 0 Mdur -9.90 0
VPVSRATIO  VpVsRatio 1.79027  Npair 7  Diff 0.495156
STATISTICS  ExpectX 738.437567 Y 9818.240909 Z -0.086320  CovXX 0.033035 XY 0.00186615 XZ -0.00934578 YY 0.0137674 YZ 0.0119799 ZZ 0.0331921 EllAz1  345.157 Dip1  -27.8365 Len1  0.154115 Az2  240.15 Dip2  -26.1222 Len2  0.318969 Len3  3.960907e-01
STAT_GEOG  ExpectLat 9818.240909 Long 738.437567 Depth -0.086320
TRANSFORM  NONE
QML_OriginQuality  assocPhCt 14  usedPhCt 14  assocStaCt -1  usedStaCt 7  depthPhCt -1  stdErr 0.0239482  azGap 328.706  secAzGap 328.706  gtLevel -  minDist 0.850258 maxDist 4.62876 medDist 2.76031
QML_OriginUncertainty  horUnc -1  minHorUnc 0.176786  maxHorUnc 0.276392  azMaxHorUnc 84.5185
QML_ConfidenceEllipsoid  semiMajorAxisLength 0.396091  semiMinorAxisLength 0.154115  semiIntermediateAxisLength 0.318969  majorAxisPlunge -50.0746  majorAxisAzimuth 114.279  majorAxisRotation 99.4334
FOCALMECH  Hyp  9818.269345 738.376488 -0.032670 Mech  0 0 0 mf  0 nObs -1
PHASE ID Ins Cmp On Pha  FM Date     HrMn   Sec     Err  ErrMag    Coda      Amp       Per       PriorWt  >   TTpred    Res       Weight    StaLoc(X  Y         Z)        SDist    SAzim  RAz  RDip RQual    Tcorr       TTerr
ML06         ?    BHZ  i P      d 20230914 1601    7.6402 GAU  8.98e-04 -1.00e+00 -1.00e+00 -1.00e+00    1.0000 >    0.4317    0.1463    0.1056  738.3100 9819.1170   -1.3960    0.8503 355.52 355.5 146.9 10     0.0000    0.0086
ML06         ?    BHN  i S      ? 20230914 1601    8.1524 GAU  7.49e-04 -1.00e+00 -1.00e+00 -1.00e+00    1.0000 >    0.7557    0.3344    0.0000  738.3100 9819.1170   -1.3960    0.8503 355.52 355.5 147.8 10     0.0000    0.0151
ML14         ?    BHZ  e P      c 20230914 1601    7.6948 GAU  1.48e-03 -1.00e+00 -1.00e+00 -1.00e+00    1.0000 >    0.6339   -0.0014    1.6251  737.5530 9820.0110   -1.3980    1.9265 334.69 334.7 122.4 10     0.0000    0.0127
ML14         ?    BHN  e S      ? 20230914 1601    8.1790 GAU  6.86e-04 -1.00e+00  3.27e+02 -1.00e+00    1.0000 >    1.1104    0.0063    1.3703  737.5530 9820.0110   -1.3980    1.9265 334.69 334.7 124.4 10     0.0000    0.0222
ML11         ?    BHZ  i P      d 20230914 1601    7.7544 GAU  1.81e-03 -1.00e+00  5.80e+01 -1.00e+00    1.0000 >    0.6873    0.0048    1.5831  738.4670 9820.4900   -1.3120    2.2225   2.33   2.3 116.6 10     0.0000    0.0137
ML11         ?    BHE  e S      ? 20230914 1601    8.2736 GAU  7.80e-04 -1.00e+00 -1.00e+00 -1.00e+00    1.0000 >    1.2055    0.0058    1.3279  738.4670 9820.4900   -1.3120    2.2225   2.33   2.3 118.8 10     0.0000    0.0241
ML09         ?    BHZ  e P      c 20230914 1601    7.8666 GAU  1.79e-03 -1.00e+00  7.96e+01 -1.00e+00    1.0000 >    0.8096   -0.0054    1.5002  737.8820 9820.9850   -1.2700    2.7603 349.68 349.7 110.2 10     0.0000    0.0162
ML09         ?    BHN  e S      ? 20230914 1601    8.4858 GAU  3.26e-04 -1.00e+00  5.00e+02 -1.00e+00    1.0000 >    1.4217    0.0018    1.2352  737.8820 9820.9850   -1.2700    2.7603 349.68 349.7 112.8 10     0.0000    0.0284
ML13         ?    BHZ  e P      d 20230914 1601    8.0395 GAU  1.51e-03 -1.00e+00  5.89e+01 -1.00e+00    1.0000 >    0.9832   -0.0060    1.4073  737.1780 9821.5410   -1.2220    3.4843 339.88 339.9 104.4 10     0.0000    0.0197
ML13         ?    BHE  e S      ? 20230914 1601    8.7862 GAU  5.74e-04 -1.00e+00 -1.00e+00 -1.00e+00    1.0000 >    1.7295   -0.0056    1.0831  737.1780 9821.5410   -1.2220    3.4843 339.88 339.9 107.3 10     0.0000    0.0346
ML05         ?    BHZ  e P      c 20230914 1601    8.3219 GAU  6.24e-04 -1.00e+00  5.15e+01 -1.00e+00    1.0000 >    1.1972    0.0624    0.3259  736.2660 9822.0830   -1.1500    4.3587 331.04 331.0 100.0 10     0.0000    0.0239
ML05         ?    BHE  e S      ? 20230914 1601    9.3013 GAU  3.31e-04 -1.00e+00 -1.00e+00 -1.00e+00    1.0000 >    2.1120    0.1269    0.1884  736.2660 9822.0830   -1.1500    4.3587 331.04 331.0 102.7 10     0.0000    0.0422
ML07         ?    BHZ  i P      d 20230914 1601    8.3256 GAU  3.34e-04 -1.00e+00 -1.00e+00 -1.00e+00    1.0000 >    1.2625    0.0008    1.3097  737.4430 9822.8030   -1.1120    4.6288 348.37 348.4  98.9 10     0.0000    0.0252
ML07         ?    BHE  e S      ? 20230914 1601    9.3025 GAU  1.57e-04 -1.00e+00 -1.00e+00 -1.00e+00    1.0000 >    2.2290    0.0111    0.9382  737.4430 9822.8030   -1.1120    4.6288 348.37 348.4  82.6  9     0.0000    0.0446
END_PHASE
END_NLLOC

