NLLOC "./loc/SEML.20230928.080203.grid0" "LOCATED" "Location completed."
PUBLIC_ID None
SIGNATURE "Arham Zakki Edelo - edelo.17034@mhs.its.ac.id   obs:./obs/2023_09.obs   NLLoc:v7.00.10(30Aug2020)   run:22Jan2024 21h55m54"
COMMENT "SEML"
GRID  2001 2001 1001  727 9811 -2  0.01 0.01 0.01 PROB_DENSITY
SEARCH OCTREE nInitial 4851 nEvaluated 20011 smallestNodeSide 0.014881/0.014881/0.014205 oct_tree_integral 1.270088e-02 scatter_volume 1.270088e-02
HYPOCENTER  x 739.061 y 9818.55 z -0.146307  OT 3.36358  ix -1 iy -1 iz -1 MAXIMUM_LIKELIHOOD
GEOGRAPHIC  OT 2023 09 28  08 02 3.363576  Lat 9818.552083 Long 739.061012 Depth -0.146307
QUALITY  Pmax 8.06358e+65 MFmin 77.7544 MFmax 94.1715 RMS 0.0237764 Nphs 20 Gap 306.155 Dist 0.93976 Mamp -9.90 0 Mdur -9.90 0
VPVSRATIO  VpVsRatio 1.75594  Npair 10  Diff 0.482635
STATISTICS  ExpectX 739.030613 Y 9818.593985 Z -0.093115  CovXX 0.0498843 XY -0.022572 XZ -0.0639265 YY 0.0199266 YZ 0.0349518 ZZ 0.108607 EllAz1  14.335 Dip1  -10.1349 Len1  0.164971 Az2  277.345 Dip2  -34.2466 Len2  0.177381 Len3  7.557350e-01
STAT_GEOG  ExpectLat 9818.593985 Long 739.030613 Depth -0.093115
TRANSFORM  NONE
QML_OriginQuality  assocPhCt 20  usedPhCt 20  assocStaCt -1  usedStaCt 10  depthPhCt -1  stdErr 0.0237764  azGap 306.155  secAzGap 306.155  gtLevel -  minDist 0.93976 maxDist 4.54843 medDist 2.65566
QML_OriginUncertainty  horUnc -1  minHorUnc 0.134074  maxHorUnc 0.37761  azMaxHorUnc 118.216
QML_ConfidenceEllipsoid  semiMajorAxisLength 0.755735  semiMinorAxisLength 0.164971  semiIntermediateAxisLength 0.177381  majorAxisPlunge -53.8695  majorAxisAzimuth 118.509  majorAxisRotation 134.257
FOCALMECH  Hyp  9818.552083 739.061012 -0.146307 Mech  0 0 0 mf  0 nObs -1
PHASE ID Ins Cmp On Pha  FM Date     HrMn   Sec     Err  ErrMag    Coda      Amp       Per       PriorWt  >   TTpred    Res       Weight    StaLoc(X  Y         Z)        SDist    SAzim  RAz  RDip RQual    Tcorr       TTerr
ML06         ?    BHZ  i P      c 20230928 0802    3.9131 GAU  4.49e-04 -1.00e+00  2.73e+01 -1.00e+00    1.0000 >    0.4213    0.1283    0.0023  738.3100 9819.1170   -1.3960    0.9398 306.95 307.0 141.5 10     0.0000    0.0084
ML06         ?    BHN  e S      ? 20230928 0802    4.3655 GAU  1.30e-03 -1.00e+00 -1.00e+00 -1.00e+00    1.0000 >    0.7360    0.2659    0.0000  738.3100 9819.1170   -1.3960    0.9398 306.95 307.0 142.7 10     0.0000    0.0147
ML11         ?    BHZ  i P      c 20230928 0802    3.9909 GAU  1.16e-03 -1.00e+00 -1.00e+00 -1.00e+00    1.0000 >    0.6288   -0.0015    1.8639  738.4670 9820.4900   -1.3120    2.0269 342.96 343.0 116.1 10     0.0000    0.0126
ML11         ?    BHE  e S      ? 20230928 0802    4.4998 GAU  1.71e-03 -1.00e+00 -1.00e+00 -1.00e+00    1.0000 >    1.1003    0.0360    0.9021  738.4670 9820.4900   -1.3120    2.0269 342.96 343.0 118.7 10     0.0000    0.0220
ML04         ?    BHZ  e P      c 20230928 0802    4.0251 GAU  2.35e-03 -1.00e+00  2.65e+02 -1.00e+00    1.0000 >    0.6728   -0.0113    1.7244  737.1400 9819.2520   -1.5710    2.0445 290.02 290.0 121.3 10     0.0000    0.0135
ML04         ?    BHN  e S      ? 20230928 0802    4.5077 GAU  2.71e-04 -1.00e+00  7.29e+02 -1.00e+00    1.0000 >    1.1739   -0.0298    1.1919  737.1400 9819.2520   -1.5710    2.0445 290.02 290.0 123.7 10     0.0000    0.0235
ML14         ?    BHZ  i P      c 20230928 0802    4.0263 GAU  3.12e-04 -1.00e+00 -1.00e+00 -1.00e+00    1.0000 >    0.6580    0.0048    1.8150  737.5530 9820.0110   -1.3980    2.0982 314.05 314.1 117.0 10     0.0000    0.0132
ML14         ?    BHE  e S      ? 20230928 0802    4.5188 GAU  4.82e-04 -1.00e+00  5.04e+02 -1.00e+00    1.0000 >    1.1502    0.0051    1.6109  737.5530 9820.0110   -1.3980    2.0982 314.05 314.1 119.6 10     0.0000    0.0230
ML02         ?    BHZ  e P      c 20230928 0802    4.1668 GAU  7.35e-04 -1.00e+00 -1.00e+00 -1.00e+00    1.0000 >    0.7917    0.0115    1.6427  736.5970 9819.4060   -1.4960    2.6078 289.11 289.1 112.9 10     0.0000    0.0158
ML02         ?    BHN  e S      ? 20230928 0802    4.7663 GAU  1.13e-03 -1.00e+00  1.06e+03 -1.00e+00    1.0000 >    1.3830    0.0198    1.3042  736.5970 9819.4060   -1.4960    2.6078 289.11 289.1 116.0 10     0.0000    0.0277
ML09         ?    BHZ  i P      c 20230928 0802    4.1192 GAU  1.56e-03 -1.00e+00  9.18e+01 -1.00e+00    1.0000 >    0.7861   -0.0305    1.1272  737.8820 9820.9850   -1.2700    2.7035 334.14 334.1 107.9 10     0.0000    0.0157
ML09         ?    BHE  e S      ? 20230928 0802    4.7087 GAU  6.13e-04 -1.00e+00  3.56e+02 -1.00e+00    1.0000 >    1.3774   -0.0322    1.1288  737.8820 9820.9850   -1.2700    2.7035 334.14 334.1 111.1 10     0.0000    0.0275
ML13         ?    BHZ  i P      c 20230928 0802    4.2467 GAU  8.98e-04 -1.00e+00 -1.00e+00 -1.00e+00    1.0000 >    0.9887   -0.1057    0.0648  737.1780 9821.5410   -1.2220    3.5326 327.79 327.8 101.6 10     0.0000    0.0198
ML13         ?    BHE  e S      ? 20230928 0802    4.8735 GAU  6.74e-04 -1.00e+00 -1.00e+00 -1.00e+00    1.0000 >    1.7363   -0.2264    0.0743  737.1780 9821.5410   -1.2220    3.5326 327.79 327.8 105.1 10     0.0000    0.0347
ML10         ?    BHZ  e P      d 20230928 0802    4.2421 GAU  1.19e-03 -1.00e+00  4.37e+03 -1.00e+00    1.0000 >    1.0492   -0.1707    0.0612  736.5490 9821.3650   -1.2200    3.7713 318.23 318.2 100.5 10     0.0000    0.0210
ML10         ?    BHE  e S      ? 20230928 0802    4.8994 GAU  5.87e-04 -1.00e+00 -1.00e+00 -1.00e+00    1.0000 >    1.8435   -0.3077    0.0271  736.5490 9821.3650   -1.2200    3.7713 318.23 318.2 103.9 10     0.0000    0.0369
ML05         ?    BHZ  i P      c 20230928 0802    4.6062 GAU  4.78e-04 -1.00e+00 -1.00e+00 -1.00e+00    1.0000 >    1.2297    0.0128    1.4765  736.2660 9822.0830   -1.1500    4.5033 321.64 321.6  97.5 10     0.0000    0.0246
ML05         ?    BHE  e S      ? 20230928 0802    5.5272 GAU  5.90e-04 -1.00e+00 -1.00e+00 -1.00e+00    1.0000 >    2.1674   -0.0037    1.2046  736.2660 9822.0830   -1.1500    4.5033 321.64 321.6 100.4 10     0.0000    0.0433
ML07         ?    BHZ  i P      c 20230928 0802    4.6000 GAU  2.89e-04 -1.00e+00 -1.00e+00 -1.00e+00    1.0000 >    1.2377   -0.0013    1.5973  737.4430 9822.8030   -1.1120    4.5484 339.16 339.2  97.2 10     0.0000    0.0248
ML07         ?    BHE  e S      ? 20230928 0802    5.5350 GAU  5.20e-04 -1.00e+00 -1.00e+00 -1.00e+00    1.0000 >    2.1835   -0.0121    1.1809  737.4430 9822.8030   -1.1120    4.5484 339.16 339.2  99.8 10     0.0000    0.0437
END_PHASE
END_NLLOC

