NLLOC "./loc/SEML.20230915.175110.grid0" "LOCATED" "Location completed."
PUBLIC_ID None
SIGNATURE "Arham Zakki Edelo - edelo.17034@mhs.its.ac.id   obs:./obs/2023_09.obs   NLLoc:v7.00.10(30Aug2020)   run:22Jan2024 21h55m09"
COMMENT "SEML"
GRID  2001 2001 1001  727 9811 -2  0.01 0.01 0.01 PROB_DENSITY
SEARCH OCTREE nInitial 4851 nEvaluated 20011 smallestNodeSide 0.014881/0.014881/0.014205 oct_tree_integral 4.879853e-02 scatter_volume 4.836537e-02
HYPOCENTER  x 739.106 y 9818.43 z 0.919034  OT 9.40067  ix -1 iy -1 iz -1 MAXIMUM_LIKELIHOOD
GEOGRAPHIC  OT 2023 09 15  17 51 9.400665  Lat 9818.433036 Long 739.105655 Depth 0.919034
QUALITY  Pmax 5.49266e+42 MFmin 48.7745 MFmax 60.6147 RMS 0.0188967 Nphs 14 Gap 327.932 Dist 1.04923 Mamp -9.90 0 Mdur -9.90 0
VPVSRATIO  VpVsRatio 1.81185  Npair 7  Diff 0.600269
STATISTICS  ExpectX 738.963944 Y 9818.386630 Z 0.768926  CovXX 0.370585 XY 0.0843891 XZ 0.23219 YY 0.0456756 YZ 0.0476335 ZZ 0.215652 EllAz1  158.221 Dip1  -12.2821 Len1  0.285718 Az2  231.776 Dip2  52.4393 Len2  0.431368 Len3  1.401048e+00
STAT_GEOG  ExpectLat 9818.386630 Long 738.963944 Depth 0.768926
TRANSFORM  NONE
QML_OriginQuality  assocPhCt 14  usedPhCt 14  assocStaCt -1  usedStaCt 7  depthPhCt -1  stdErr 0.0188967  azGap 327.932  secAzGap 327.932  gtLevel -  minDist 1.04923 maxDist 5.43612 medDist 2.83017
QML_OriginUncertainty  horUnc -1  minHorUnc 0.240101  maxHorUnc 0.948552  azMaxHorUnc 76.2749
QML_ConfidenceEllipsoid  semiMajorAxisLength 1.40105  semiMinorAxisLength 0.285718  semiIntermediateAxisLength 0.431368  majorAxisPlunge 34.8396  majorAxisAzimuth 76.9371  majorAxisRotation 322.306
FOCALMECH  Hyp  9818.433036 739.105655 0.919034 Mech  0 0 0 mf  0 nObs -1
PHASE ID Ins Cmp On Pha  FM Date     HrMn   Sec     Err  ErrMag    Coda      Amp       Per       PriorWt  >   TTpred    Res       Weight    StaLoc(X  Y         Z)        SDist    SAzim  RAz  RDip RQual    Tcorr       TTerr
ML06         ?    BHZ  i P      d 20230915 1751   10.0691 GAU  6.40e-04 -1.00e+00 -1.00e+00 -1.00e+00    1.0000 >    0.6712   -0.0027    1.6495  738.3100 9819.1170   -1.3960    1.0492 310.68 310.7 154.9 10     0.0000    0.0134
ML06         ?    BHE  e S      ? 20230915 1751   10.5700 GAU  6.08e-04 -1.00e+00 -1.00e+00 -1.00e+00    1.0000 >    1.1533    0.0160    1.3818  738.3100 9819.1170   -1.3960    1.0492 310.68 310.7 153.0 10     0.0000    0.0231
ML11         ?    BHZ  e P      c 20230915 1751   10.2147 GAU  2.02e-03 -1.00e+00 -1.00e+00 -1.00e+00    1.0000 >    0.8168   -0.0028    1.6074  738.4670 9820.4900   -1.3120    2.1538 342.75 342.8 134.5 10     0.0000    0.0163
ML11         ?    BHN  e S      ? 20230915 1751   10.8181 GAU  2.26e-04 -1.00e+00 -1.00e+00 -1.00e+00    1.0000 >    1.4025    0.0150    1.3193  738.4670 9820.4900   -1.3120    2.1538 342.75 342.8 130.5 10     0.0000    0.0280
ML14         ?    BHZ  e P      d 20230915 1751   10.0457 GAU  1.29e-03 -1.00e+00  4.67e+02 -1.00e+00    1.0000 >    0.8454   -0.2004    0.0013  737.5530 9820.0110   -1.3980    2.2138 315.46 315.5 134.7 10     0.0000    0.0169
ML14         ?    BHE  e S      ? 20230915 1751   10.5460 GAU  1.02e-03 -1.00e+00  3.94e+02 -1.00e+00    1.0000 >    1.4518   -0.3065    0.0012  737.5530 9820.0110   -1.3980    2.2138 315.46 315.5 130.7 10     0.0000    0.0290
ML09         ?    BHZ  e P      d 20230915 1751   10.3390 GAU  6.49e-04 -1.00e+00  1.76e+02 -1.00e+00    1.0000 >    0.9416   -0.0033    1.5605  737.8820 9820.9850   -1.2700    2.8302 334.38 334.4 125.6 10     0.0000    0.0188
ML09         ?    BHN  e S      ? 20230915 1751   10.9634 GAU  8.29e-04 -1.00e+00  4.75e+02 -1.00e+00    1.0000 >    1.6150   -0.0523    0.5906  737.8820 9820.9850   -1.2700    2.8302 334.38 334.4 120.2 10     0.0000    0.0323
ML13         ?    BHZ  e P      d 20230915 1751   10.5333 GAU  7.36e-04 -1.00e+00 -1.00e+00 -1.00e+00    1.0000 >    1.1140    0.0186    1.3463  737.1780 9821.5410   -1.2220    3.6572 328.19 328.2 117.7 10     0.0000    0.0223
ML13         ?    BHN  e S      ? 20230915 1751   11.2886 GAU  1.06e-03 -1.00e+00 -1.00e+00 -1.00e+00    1.0000 >    1.9072   -0.0192    1.0879  737.1780 9821.5410   -1.2220    3.6572 328.19 328.2 110.9 10     0.0000    0.0381
ML07         ?    BHZ  e P      c 20230915 1751   10.7569 GAU  8.24e-04 -1.00e+00 -1.00e+00 -1.00e+00    1.0000 >    1.3363    0.0199    1.2730  737.4430 9822.8030   -1.1120    4.6756 339.17 339.2 110.5 10     0.0000    0.0267
ML07         ?    BHN  e S      ? 20230915 1751   11.7866 GAU  1.22e-04 -1.00e+00 -1.00e+00 -1.00e+00    1.0000 >    2.2783    0.1076    0.1923  737.4430 9822.8030   -1.1120    4.6756 339.17 339.2 102.7 10     0.0000    0.0456
ML12         ?    BHZ  e P      c 20230915 1751   10.8799 GAU  1.49e-03 -1.00e+00 -1.00e+00 -1.00e+00    1.0000 >    1.5055   -0.0263    1.0576  736.8520 9823.3800   -0.9890    5.4361 335.51 335.5 106.3 10     0.0000    0.0301
ML12         ?    BHN  e S      ? 20230915 1751   11.9805 GAU  6.48e-04 -1.00e+00 -1.00e+00 -1.00e+00    1.0000 >    2.5525    0.0272    0.9310  736.8520 9823.3800   -0.9890    5.4361 335.51 335.5  73.2  9     0.0000    0.0511
END_PHASE
END_NLLOC

