NLLOC "./loc/SEML.20230928.083741.grid0" "LOCATED" "Location completed."
PUBLIC_ID None
SIGNATURE "Arham Zakki Edelo - edelo.17034@mhs.its.ac.id   obs:./obs/2023_09.obs   NLLoc:v7.00.10(30Aug2020)   run:22Jan2024 21h56m22"
COMMENT "SEML"
GRID  2001 2001 1001  727 9811 -2  0.01 0.01 0.01 PROB_DENSITY
SEARCH OCTREE nInitial 4851 nEvaluated 20003 smallestNodeSide 0.014881/0.014881/0.014205 oct_tree_integral 1.819504e-02 scatter_volume 1.796908e-02
HYPOCENTER  x 738.243 y 9818.51 z 0.663352  OT 40.7666  ix -1 iy -1 iz -1 MAXIMUM_LIKELIHOOD
GEOGRAPHIC  OT 2023 09 28  08 37 40.766601  Lat 9818.507440 Long 738.242560 Depth 0.663352
QUALITY  Pmax 7.48317e+97 MFmin 96.2701 MFmax 113.235 RMS 0.0218605 Nphs 26 Gap 292.178 Dist 0.613279 Mamp -9.90 0 Mdur -9.90 0
VPVSRATIO  VpVsRatio 1.74  Npair 13  Diff 0.592247
STATISTICS  ExpectX 738.231316 Y 9818.494308 Z 0.643351  CovXX 0.0120409 XY 0.000608951 XZ 0.00292888 YY 0.00828967 YZ -0.00274586 ZZ 0.0142629 EllAz1  158.672 Dip1  -25.4478 Len1  0.153205 Az2  238.932 Dip2  19.5712 Len2  0.198766 Len3  2.431773e-01
STAT_GEOG  ExpectLat 9818.494308 Long 738.231316 Depth 0.643351
TRANSFORM  NONE
QML_OriginQuality  assocPhCt 26  usedPhCt 26  assocStaCt -1  usedStaCt 13  depthPhCt -1  stdErr 0.0218605  azGap 292.178  secAzGap 292.178  gtLevel -  minDist 0.613279 maxDist 5.0671 medDist 2.71347
QML_OriginUncertainty  horUnc -1  minHorUnc 0.137276  maxHorUnc 0.16708  azMaxHorUnc 81.0065
QML_ConfidenceEllipsoid  semiMajorAxisLength 0.243177  semiMinorAxisLength 0.153205  semiIntermediateAxisLength 0.198766  majorAxisPlunge 56.9867  majorAxisAzimuth 115.759  majorAxisRotation 72.4241
FOCALMECH  Hyp  9818.507440 738.242560 0.663352 Mech  0 0 0 mf  0 nObs -1
PHASE ID Ins Cmp On Pha  FM Date     HrMn   Sec     Err  ErrMag    Coda      Amp       Per       PriorWt  >   TTpred    Res       Weight    StaLoc(X  Y         Z)        SDist    SAzim  RAz  RDip RQual    Tcorr       TTerr
ML06         ?    BHZ  i P      c 20230928 0837   41.3474 GAU  1.24e-03 -1.00e+00  1.90e+03 -1.00e+00    1.0000 >    0.5696    0.0111    1.2694  738.3100 9819.1170   -1.3960    0.6133   6.31   6.3 162.8 10     0.0000    0.0114
ML06         ?    BHE  e S      ? 20230928 0837   41.7999 GAU  6.74e-04 -1.00e+00  1.08e+03 -1.00e+00    1.0000 >    0.9869    0.0464    0.5629  738.3100 9819.1170   -1.3960    0.6133   6.31   6.3 161.3 10     0.0000    0.0197
ML04         ?    BHZ  i P      c 20230928 0837   41.4238 GAU  2.32e-03 -1.00e+00  9.12e+02 -1.00e+00    1.0000 >    0.6911   -0.0339    0.8930  737.1400 9819.2520   -1.5710    1.3304 304.03 304.0 148.0 10     0.0000    0.0138
ML04         ?    BHN  e S      ? 20230928 0837   41.9028 GAU  2.02e-03 -1.00e+00 -1.00e+00 -1.00e+00    1.0000 >    1.1968   -0.0606    0.4324  737.1400 9819.2520   -1.5710    1.3304 304.03 304.0 145.1 10     0.0000    0.0239
ML14         ?    BHZ  i P      c 20230928 0837   41.4727 GAU  2.46e-03 -1.00e+00  2.99e+03 -1.00e+00    1.0000 >    0.7002    0.0059    1.3311  737.5530 9820.0110   -1.3980    1.6541 335.36 335.4 139.8 10     0.0000    0.0140
ML14         ?    BHE  e S      ? 20230928 0837   41.9711 GAU  1.40e-03 -1.00e+00  4.33e+03 -1.00e+00    1.0000 >    1.2128   -0.0083    1.2159  737.5530 9820.0110   -1.3980    1.6541 335.36 335.4 135.9 10     0.0000    0.0243
ML02         ?    BHZ  i P      c 20230928 0837   41.5209 GAU  2.46e-03 -1.00e+00  1.17e+03 -1.00e+00    1.0000 >    0.7587   -0.0045    1.3616  736.5970 9819.4060   -1.4960    1.8749 298.64 298.6 137.4 10     0.0000    0.0152
ML02         ?    BHN  i S      ? 20230928 0837   42.1165 GAU  1.84e-03 -1.00e+00  8.92e+04 -1.00e+00    1.0000 >    1.3139    0.0359    0.7839  736.5970 9819.4060   -1.4960    1.8749 298.64 298.6 133.0 10     0.0000    0.0263
ML11         ?    BHZ  i P      c 20230928 0837   41.4892 GAU  2.25e-03 -1.00e+00  4.31e+02 -1.00e+00    1.0000 >    0.7424   -0.0198    1.2005  738.4670 9820.4900   -1.3120    1.9952   6.46   6.5 132.8 10     0.0000    0.0148
ML11         ?    BHN  i S      ? 20230928 0837   42.0552 GAU  3.73e-03 -1.00e+00  9.09e+02 -1.00e+00    1.0000 >    1.2858    0.0027    1.1885  738.4670 9820.4900   -1.3120    1.9952   6.46   6.5 127.8 10     0.0000    0.0257
ML09         ?    BHZ  i P      c 20230928 0837   41.5919 GAU  1.67e-03 -1.00e+00  2.43e+03 -1.00e+00    1.0000 >    0.8357   -0.0104    1.3119  737.8820 9820.9850   -1.2700    2.5037 351.72 351.7 125.2 10     0.0000    0.0167
ML09         ?    BHN  e S      ? 20230928 0837   42.1832 GAU  1.34e-03 -1.00e+00  2.43e+03 -1.00e+00    1.0000 >    1.4469   -0.0303    0.9411  737.8820 9820.9850   -1.2700    2.5037 351.72 351.7 118.5 10     0.0000    0.0289
ML03         ?    BHZ  i P      d 20230928 0837   41.6540 GAU  1.35e-03 -1.00e+00 -1.00e+00 -1.00e+00    1.0000 >    0.8914   -0.0040    1.3283  736.8800 9820.8540   -1.3350    2.7135 329.86 329.9 123.7 10     0.0000    0.0178
ML03         ?    BHE  e S      ? 20230928 0837   42.3292 GAU  1.74e-03 -1.00e+00 -1.00e+00 -1.00e+00    1.0000 >    1.5430    0.0196    0.9929  736.8800 9820.8540   -1.3350    2.7135 329.86 329.9 116.6 10     0.0000    0.0309
ML13         ?    BHZ  i P      c 20230928 0837   41.7111 GAU  4.64e-03 -1.00e+00  2.16e+02 -1.00e+00    1.0000 >    0.9835   -0.0389    0.8086  737.1780 9821.5410   -1.2220    3.2149 340.66 340.7 117.4 10     0.0000    0.0197
ML13         ?    BHN  e S      ? 20230928 0837   42.4255 GAU  1.77e-03 -1.00e+00 -1.00e+00 -1.00e+00    1.0000 >    1.7011   -0.0423    0.7544  737.1780 9821.5410   -1.2220    3.2149 340.66 340.7 108.1 10     0.0000    0.0340
ML10         ?    BHZ  i P      c 20230928 0837   41.7713 GAU  2.24e-03 -1.00e+00 -1.00e+00 -1.00e+00    1.0000 >    1.0075   -0.0028    1.2922  736.5490 9821.3650   -1.2200    3.3217 329.35 329.3 116.4 10     0.0000    0.0202
ML10         ?    BHE  e S      ? 20230928 0837   42.5065 GAU  1.66e-03 -1.00e+00 -1.00e+00 -1.00e+00    1.0000 >    1.7424   -0.0025    1.0610  736.5490 9821.3650   -1.2200    3.3217 329.35 329.3 106.9 10     0.0000    0.0348
ML05         ?    BHZ  i P      d 20230928 0837   41.9538 GAU  4.81e-03 -1.00e+00 -1.00e+00 -1.00e+00    1.0000 >    1.1771    0.0101    1.1664  736.2660 9822.0830   -1.1500    4.0855 331.07 331.1 110.4 10     0.0000    0.0235
ML05         ?    BHN  e S      ? 20230928 0837   42.8365 GAU  1.40e-03 -1.00e+00  3.56e+02 -1.00e+00    1.0000 >    2.0302    0.0397    0.7223  736.2660 9822.0830   -1.1500    4.0855 331.07 331.1  99.0  9     0.0000    0.0406
ML07         ?    BHZ  i P      d 20230928 0837   42.0183 GAU  2.58e-03 -1.00e+00 -1.00e+00 -1.00e+00    1.0000 >    1.2406    0.0111    1.1454  737.4430 9822.8030   -1.1120    4.3693 349.46 349.5 108.4 10     0.0000    0.0248
ML07         ?    BHE  e S      ? 20230928 0837   42.9639 GAU  1.33e-03 -1.00e+00 -1.00e+00 -1.00e+00    1.0000 >    2.1362    0.0611    0.5018  737.4430 9822.8030   -1.1120    4.3693 349.46 349.5  97.1  9     0.0000    0.0427
ML01         ?    BHZ  i P      c 20230928 0837   42.0030 GAU  1.86e-03 -1.00e+00 -1.00e+00 -1.00e+00    1.0000 >    1.2506   -0.0142    1.1673  736.4090 9822.5140   -1.1200    4.4062 335.41 335.4 108.3 10     0.0000    0.0250
ML01         ?    BHE  e S      ? 20230928 0837   42.9027 GAU  1.23e-03 -1.00e+00  5.37e+02 -1.00e+00    1.0000 >    2.1531   -0.0170    0.9148  736.4090 9822.5140   -1.1200    4.4062 335.41 335.4  97.1  9     0.0000    0.0431
ML12         ?    BHZ  i P      d 20230928 0837   42.1728 GAU  1.03e-03 -1.00e+00 -1.00e+00 -1.00e+00    1.0000 >    1.3972    0.0090    1.1238  736.8520 9823.3800   -0.9890    5.0671 344.07 344.1 104.2 10     0.0000    0.0279
ML12         ?    BHE  e S      ? 20230928 0837   43.2176 GAU  3.78e-03 -1.00e+00  9.02e+01 -1.00e+00    1.0000 >    2.3916    0.0594    0.5282  736.8520 9823.3800   -0.9890    5.0671 344.07 344.1  94.6  9     0.0000    0.0478
END_PHASE
END_NLLOC

