NLLOC "./loc/SEML.20230928.084720.grid0" "LOCATED" "Location completed."
PUBLIC_ID None
SIGNATURE "Arham Zakki Edelo - edelo.17034@mhs.its.ac.id   obs:./obs/2023_09.obs   NLLoc:v7.00.10(30Aug2020)   run:22Jan2024 21h56m40"
COMMENT "SEML"
GRID  2001 2001 1001  727 9811 -2  0.01 0.01 0.01 PROB_DENSITY
SEARCH OCTREE nInitial 4851 nEvaluated 20003 smallestNodeSide 0.007440/0.007440/0.007102 oct_tree_integral 9.819923e-03 scatter_volume 9.699909e-03
HYPOCENTER  x 738.276 y 9818.38 z 0.645597  OT 19.863  ix -1 iy -1 iz -1 MAXIMUM_LIKELIHOOD
GEOGRAPHIC  OT 2023 09 28  08 47 19.863003  Lat 9818.377232 Long 738.276042 Depth 0.645597
QUALITY  Pmax 2.88862e+95 MFmin 95.1133 MFmax 113.235 RMS 0.0239409 Nphs 26 Gap 296.332 Dist 0.740547 Mamp -9.90 0 Mdur -9.90 0
VPVSRATIO  VpVsRatio 1.72284  Npair 13  Diff 0.54715
STATISTICS  ExpectX 738.258072 Y 9818.380789 Z 0.681575  CovXX 0.0131974 XY -0.00239404 XZ -0.00403729 YY 0.00699046 YZ -0.0020266 ZZ 0.0117318 EllAz1  28.6614 Dip1  27.1755 Len1  0.125982 Az2  323.759 Dip2  -39.5635 Len2  0.195446 Len3  2.420863e-01
STAT_GEOG  ExpectLat 9818.380789 Long 738.258072 Depth 0.681575
TRANSFORM  NONE
QML_OriginQuality  assocPhCt 26  usedPhCt 26  assocStaCt -1  usedStaCt 13  depthPhCt -1  stdErr 0.0239409  azGap 296.332  secAzGap 296.332  gtLevel -  minDist 0.740547 maxDist 5.2015 medDist 2.84312
QML_OriginUncertainty  horUnc -1  minHorUnc 0.119168  maxHorUnc 0.17953  azMaxHorUnc 108.823
QML_ConfidenceEllipsoid  semiMajorAxisLength 0.242086  semiMinorAxisLength 0.125982  semiIntermediateAxisLength 0.195446  majorAxisPlunge -38.3941  majorAxisAzimuth 94.656  majorAxisRotation 107.679
FOCALMECH  Hyp  9818.377232 738.276042 0.645597 Mech  0 0 0 mf  0 nObs -1
PHASE ID Ins Cmp On Pha  FM Date     HrMn   Sec     Err  ErrMag    Coda      Amp       Per       PriorWt  >   TTpred    Res       Weight    StaLoc(X  Y         Z)        SDist    SAzim  RAz  RDip RQual    Tcorr       TTerr
ML06         ?    BHZ  i P      c 20230928 0847   20.5129 GAU  1.49e-03 -1.00e+00  2.44e+02 -1.00e+00    1.0000 >    0.5759    0.0740    0.3166  738.3100 9819.1170   -1.3960    0.7405   2.63   2.6 159.3 10     0.0000    0.0115
ML06         ?    BHN  e S      ? 20230928 0847   20.9952 GAU  3.40e-04 -1.00e+00  2.96e+02 -1.00e+00    1.0000 >    0.9984    0.1337    0.0770  738.3100 9819.1170   -1.3960    0.7405   2.63   2.6 157.5 10     0.0000    0.0200
ML04         ?    BHZ  i P      c 20230928 0847   20.5643 GAU  5.47e-03 -1.00e+00  6.19e+02 -1.00e+00    1.0000 >    0.7017   -0.0004    1.5299  737.1400 9819.2520   -1.5710    1.4338 307.60 307.6 145.8 10     0.0000    0.0140
ML04         ?    BHE  e S      ? 20230928 0847   21.0768 GAU  2.56e-03 -1.00e+00  2.55e+02 -1.00e+00    1.0000 >    1.2159   -0.0022    1.3447  737.1400 9819.2520   -1.5710    1.4338 307.60 307.6 142.6 10     0.0000    0.0243
ML14         ?    BHZ  i P      c 20230928 0847   20.5990 GAU  1.02e-03 -1.00e+00 -1.00e+00 -1.00e+00    1.0000 >    0.7192    0.0167    1.2983  737.5530 9820.0110   -1.3980    1.7866 336.13 336.1 137.2 10     0.0000    0.0144
ML14         ?    BHN  e S      ? 20230928 0847   21.1092 GAU  1.80e-03 -1.00e+00  1.42e+03 -1.00e+00    1.0000 >    1.2466   -0.0003    1.3356  737.5530 9820.0110   -1.3980    1.7866 336.13 336.1 132.8 10     0.0000    0.0249
ML02         ?    BHZ  i P      c 20230928 0847   20.6353 GAU  2.32e-03 -1.00e+00 -1.00e+00 -1.00e+00    1.0000 >    0.7720    0.0003    1.5196  736.5970 9819.4060   -1.4960    1.9691 301.50 301.5 135.6 10     0.0000    0.0154
ML02         ?    BHE  e S      ? 20230928 0847   21.1879 GAU  1.68e-03 -1.00e+00 -1.00e+00 -1.00e+00    1.0000 >    1.3378   -0.0129    1.2357  736.5970 9819.4060   -1.4960    1.9691 301.50 301.5 130.9 10     0.0000    0.0268
ML11         ?    BHZ  i P      c 20230928 0847   20.6236 GAU  7.19e-04 -1.00e+00 -1.00e+00 -1.00e+00    1.0000 >    0.7634   -0.0028    1.5222  738.4670 9820.4900   -1.3120    2.1214   5.16   5.2 130.5 10     0.0000    0.0153
ML11         ?    BHN  e S      ? 20230928 0847   21.1926 GAU  6.07e-04 -1.00e+00  1.38e+02 -1.00e+00    1.0000 >    1.3231    0.0065    1.2895  738.4670 9820.4900   -1.3120    2.1214   5.16   5.2 124.9 10     0.0000    0.0265
ML09         ?    BHZ  i P      c 20230928 0847   20.6999 GAU  1.26e-03 -1.00e+00 -1.00e+00 -1.00e+00    1.0000 >    0.8614   -0.0245    1.1303  737.8820 9820.9850   -1.2700    2.6374 351.41 351.4 123.3 10     0.0000    0.0172
ML09         ?    BHN  e S      ? 20230928 0847   21.3511 GAU  1.19e-03 -1.00e+00  1.07e+02 -1.00e+00    1.0000 >    1.4924   -0.0043    1.2374  737.8820 9820.9850   -1.2700    2.6374 351.41 351.4 116.0 10     0.0000    0.0298
ML03         ?    BHZ  i P      c 20230928 0847   20.8429 GAU  6.24e-04 -1.00e+00 -1.00e+00 -1.00e+00    1.0000 >    0.9167    0.0631    0.4466  736.8800 9820.8540   -1.3350    2.8431 330.59 330.6 122.0 10     0.0000    0.0183
ML03         ?    BHN  e S      ? 20230928 0847   21.5590 GAU  1.05e-03 -1.00e+00 -1.00e+00 -1.00e+00    1.0000 >    1.5879    0.1081    0.2171  736.8800 9820.8540   -1.3350    2.8431 330.59 330.6 114.2 10     0.0000    0.0318
ML13         ?    BHZ  i P      c 20230928 0847   20.8448 GAU  1.03e-03 -1.00e+00 -1.00e+00 -1.00e+00    1.0000 >    1.0120   -0.0302    0.9883  737.1780 9821.5410   -1.2220    3.3489 340.86 340.9 116.0 10     0.0000    0.0202
ML13         ?    BHN  e S      ? 20230928 0847   21.6071 GAU  1.16e-03 -1.00e+00  3.38e+02 -1.00e+00    1.0000 >    1.7515   -0.0075    1.1396  737.1780 9821.5410   -1.2220    3.3489 340.86 340.9 105.9 10     0.0000    0.0350
ML10         ?    BHZ  e P      d 20230928 0847   20.9134 GAU  3.24e-03 -1.00e+00  2.90e+03 -1.00e+00    1.0000 >    1.0353    0.0151    1.2824  736.5490 9821.3650   -1.2200    3.4510 329.97 330.0 115.1 10     0.0000    0.0207
ML10         ?    BHN  e S      ? 20230928 0847   21.6867 GAU  2.57e-03 -1.00e+00 -1.00e+00 -1.00e+00    1.0000 >    1.7914    0.0323    0.9487  736.5490 9821.3650   -1.2200    3.4510 329.97 330.0 104.7 10     0.0000    0.0358
ML05         ?    BHZ  e P      d 20230928 0847   21.0591 GAU  4.43e-03 -1.00e+00  5.98e+02 -1.00e+00    1.0000 >    1.2069   -0.0108    1.2945  736.2660 9822.0830   -1.1500    4.2158 331.52 331.5 109.4 10     0.0000    0.0241
ML05         ?    BHN  e S      ? 20230928 0847   21.9592 GAU  1.81e-03 -1.00e+00  3.38e+02 -1.00e+00    1.0000 >    2.0820    0.0142    1.0353  736.2660 9822.0830   -1.1500    4.2158 331.52 331.5  97.5  9     0.0000    0.0416
ML07         ?    BHZ  i P      d 20230928 0847   21.1323 GAU  3.69e-03 -1.00e+00 -1.00e+00 -1.00e+00    1.0000 >    1.2719   -0.0026    1.3194  737.4430 9822.8030   -1.1120    4.5035 349.34 349.3 107.5 10     0.0000    0.0254
ML07         ?    BHE  e S      ? 20230928 0847   22.0711 GAU  3.41e-03 -1.00e+00 -1.00e+00 -1.00e+00    1.0000 >    2.1900    0.0181    0.9934  737.4430 9822.8030   -1.1120    4.5035 349.34 349.3  96.1  9     0.0000    0.0438
ML01         ?    BHZ  i P      c 20230928 0847   21.0651 GAU  1.50e-03 -1.00e+00 -1.00e+00 -1.00e+00    1.0000 >    1.2814   -0.0794    0.2043  736.4090 9822.5140   -1.1200    4.5386 335.71 335.7 107.4 10     0.0000    0.0256
ML01         ?    BHE  e S      ? 20230928 0847   21.9358 GAU  1.09e-03 -1.00e+00  4.58e+02 -1.00e+00    1.0000 >    2.2062   -0.1334    0.0742  736.4090 9822.5140   -1.1200    4.5386 335.71 335.7  96.0  9     0.0000    0.0441
ML12         ?    BHZ  e P      d 20230928 0847   21.2939 GAU  1.31e-03 -1.00e+00 -1.00e+00 -1.00e+00    1.0000 >    1.4295    0.0014    1.2664  736.8520 9823.3800   -0.9890    5.2015 344.11 344.1 103.4 10     0.0000    0.0286
ML12         ?    BHE  e S      ? 20230928 0847   22.3233 GAU  3.49e-03 -1.00e+00  2.84e+02 -1.00e+00    1.0000 >    2.4460    0.0143    0.9533  736.8520 9823.3800   -0.9890    5.2015 344.11 344.1  93.9  9     0.0000    0.0489
END_PHASE
END_NLLOC

