NLLOC "./loc/SEML.20230921.180302.grid0" "LOCATED" "Location completed."
PUBLIC_ID None
SIGNATURE "Arham Zakki Edelo - edelo.17034@mhs.its.ac.id   obs:./obs/2023_09.obs   NLLoc:v7.00.10(30Aug2020)   run:22Jan2024 21h55m37"
COMMENT "SEML"
GRID  2001 2001 1001  727 9811 -2  0.01 0.01 0.01 PROB_DENSITY
SEARCH OCTREE nInitial 4851 nEvaluated 20003 smallestNodeSide 0.014881/0.014881/0.014205 oct_tree_integral 3.596471e-02 scatter_volume 3.585535e-02
HYPOCENTER  x 738.481 y 9818.24 z 0.393466  OT 1.86321  ix -1 iy -1 iz -1 MAXIMUM_LIKELIHOOD
GEOGRAPHIC  OT 2023 09 21  18 03 1.863211  Lat 9818.239583 Long 738.480655 Depth 0.393466
QUALITY  Pmax 3.41122e+63 MFmin 74.0652 MFmax 92.1332 RMS 0.0363626 Nphs 20 Gap 302.115 Dist 0.893859 Mamp -9.90 0 Mdur -9.90 0
VPVSRATIO  VpVsRatio 1.70407  Npair 10  Diff 0.645131
STATISTICS  ExpectX 738.411438 Y 9818.350463 Z 0.498773  CovXX 0.0300811 XY -0.0122847 XZ -0.0231152 YY 0.027725 YZ 0.00856571 ZZ 0.0472132 EllAz1  64.2429 Dip1  25.7526 Len1  0.203859 Az2  169.959 Dip2  29.3152 Len2  0.297161 Len3  4.907699e-01
STAT_GEOG  ExpectLat 9818.350463 Long 738.411438 Depth 0.498773
TRANSFORM  NONE
QML_OriginQuality  assocPhCt 20  usedPhCt 20  assocStaCt -1  usedStaCt 10  depthPhCt -1  stdErr 0.0363626  azGap 302.115  secAzGap 302.115  gtLevel -  minDist 0.893859 maxDist 5.39225 medDist 2.53019
QML_OriginUncertainty  horUnc -1  minHorUnc 0.195173  maxHorUnc 0.307996  azMaxHorUnc 132.261
QML_ConfidenceEllipsoid  semiMajorAxisLength 0.49077  semiMinorAxisLength 0.203859  semiIntermediateAxisLength 0.297161  majorAxisPlunge -49.1107  majorAxisAzimuth 120.387  majorAxisRotation 260.846
FOCALMECH  Hyp  9818.239583 738.480655 0.393466 Mech  0 0 0 mf  0 nObs -1
PHASE ID Ins Cmp On Pha  FM Date     HrMn   Sec     Err  ErrMag    Coda      Amp       Per       PriorWt  >   TTpred    Res       Weight    StaLoc(X  Y         Z)        SDist    SAzim  RAz  RDip RQual    Tcorr       TTerr
ML06         ?    BHZ  i P      c 20230921 1803    2.4998 GAU  1.03e-03 -1.00e+00 -1.00e+00 -1.00e+00    1.0000 >    0.5327    0.1039    0.0762  738.3100 9819.1170   -1.3960    0.8939 348.99 349.0 152.7 10     0.0000    0.0107
ML06         ?    BHN  e S      ? 20230921 1803    2.9545 GAU  2.17e-04 -1.00e+00 -1.00e+00 -1.00e+00    1.0000 >    0.9294    0.1619    0.0114  738.3100 9819.1170   -1.3960    0.8939 348.99 349.0 152.3 10     0.0000    0.0186
ML04         ?    BHZ  e P      c 20230921 1803    2.4665 GAU  8.51e-04 -1.00e+00 -1.00e+00 -1.00e+00    1.0000 >    0.6898   -0.0865    0.3805  737.1400 9819.2520   -1.5710    1.6800 307.06 307.1 138.0 10     0.0000    0.0138
ML04         ?    BHE  e S      ? 20230921 1803    2.9040 GAU  1.86e-03 -1.00e+00  3.00e+02 -1.00e+00    1.0000 >    1.2024   -0.1617    0.1812  737.1400 9819.2520   -1.5710    1.6800 307.06 307.1 137.3 10     0.0000    0.0240
ML14         ?    BHZ  i P      c 20230921 1803    2.5966 GAU  1.79e-03 -1.00e+00  6.93e+01 -1.00e+00    1.0000 >    0.7143    0.0191    1.5900  737.5530 9820.0110   -1.3980    1.9996 332.36 332.4 129.9 10     0.0000    0.0143
ML14         ?    BHE  e S      ? 20230921 1803    3.1038 GAU  5.39e-04 -1.00e+00  3.82e+02 -1.00e+00    1.0000 >    1.2464   -0.0058    1.6686  737.5530 9820.0110   -1.3980    1.9996 332.36 332.4 128.9 10     0.0000    0.0249
ML02         ?    BHZ  e P      c 20230921 1803    2.6353 GAU  5.07e-04 -1.00e+00 -1.00e+00 -1.00e+00    1.0000 >    0.7760   -0.0039    1.8386  736.5970 9819.4060   -1.4960    2.2156 301.77 301.8 128.3 10     0.0000    0.0155
ML02         ?    BHN  e S      ? 20230921 1803    3.2197 GAU  1.26e-03 -1.00e+00 -1.00e+00 -1.00e+00    1.0000 >    1.3533    0.0032    1.6488  736.5970 9819.4060   -1.4960    2.2156 301.77 301.8 127.3 10     0.0000    0.0271
ML11         ?    BHZ  i P      c 20230921 1803    2.6124 GAU  2.78e-03 -1.00e+00 -1.00e+00 -1.00e+00    1.0000 >    0.7500   -0.0008    1.8623  738.4670 9820.4900   -1.3120    2.2505 359.65 359.7 125.1 10     0.0000    0.0150
ML11         ?    BHE  e S      ? 20230921 1803    3.2047 GAU  7.69e-04 -1.00e+00 -1.00e+00 -1.00e+00    1.0000 >    1.3096    0.0319    1.2474  738.4670 9820.4900   -1.3120    2.2505 359.65 359.7 123.8 10     0.0000    0.0262
ML09         ?    BHZ  i P      c 20230921 1803    2.7084 GAU  1.88e-03 -1.00e+00  1.85e+02 -1.00e+00    1.0000 >    0.8665   -0.0213    1.4555  737.8820 9820.9850   -1.2700    2.8099 347.70 347.7 118.2 10     0.0000    0.0173
ML09         ?    BHE  e S      ? 20230921 1803    3.2950 GAU  3.63e-04 -1.00e+00  3.51e+02 -1.00e+00    1.0000 >    1.5134   -0.0816    0.5470  737.8820 9820.9850   -1.2700    2.8099 347.70 347.7 116.5 10     0.0000    0.0303
ML13         ?    BHZ  i P      c 20230921 1803    2.7052 GAU  7.76e-04 -1.00e+00 -1.00e+00 -1.00e+00    1.0000 >    1.0332   -0.1912    0.1362  737.1780 9821.5410   -1.2220    3.5491 338.47 338.5 111.6 10     0.0000    0.0207
ML13         ?    BHN  e S      ? 20230921 1803    3.3256 GAU  4.68e-04 -1.00e+00 -1.00e+00 -1.00e+00    1.0000 >    1.8051   -0.3427    0.0002  737.1780 9821.5410   -1.2220    3.5491 338.47 338.5 109.3 10     0.0000    0.0361
ML05         ?    BHZ  e P      d 20230921 1803    3.1399 GAU  7.28e-04 -1.00e+00  1.64e+02 -1.00e+00    1.0000 >    1.2412    0.0355    1.1583  736.2660 9822.0830   -1.1500    4.4358 330.05 330.0 106.1 10     0.0000    0.0248
ML05         ?    BHN  e S      ? 20230921 1803    4.0563 GAU  1.39e-04 -1.00e+00  2.56e+02 -1.00e+00    1.0000 >    2.1692    0.0238    1.2453  736.2660 9822.0830   -1.1500    4.4358 330.05 330.0 103.2 10     0.0000    0.0434
ML07         ?    BHZ  i P      d 20230921 1803    3.1366 GAU  3.64e-04 -1.00e+00 -1.00e+00 -1.00e+00    1.0000 >    1.2977   -0.0243    1.3818  737.4430 9822.8030   -1.1120    4.6799 347.19 347.2 104.9 10     0.0000    0.0260
ML07         ?    BHN  e S      ? 20230921 1803    4.0545 GAU  4.53e-04 -1.00e+00 -1.00e+00 -1.00e+00    1.0000 >    2.2681   -0.0769    0.7201  737.4430 9822.8030   -1.1120    4.6799 347.19 347.2 101.7 10     0.0000    0.0454
ML12         ?    BHZ  i P      c 20230921 1803    3.3296 GAU  1.40e-03 -1.00e+00 -1.00e+00 -1.00e+00    1.0000 >    1.4637    0.0027    1.6047  736.8520 9823.3800   -0.9890    5.3923 342.42 342.4 101.7 10     0.0000    0.0293
ML12         ?    BHN  e S      ? 20230921 1803    4.4122 GAU  1.30e-03 -1.00e+00 -1.00e+00 -1.00e+00    1.0000 >    2.5402    0.0088    1.2460  736.8520 9823.3800   -0.9890    5.3923 342.42 342.4  67.2 10     0.0000    0.0508
END_PHASE
END_NLLOC

