NLLOC "./loc/SEML.20230928.084429.grid0" "LOCATED" "Location completed."
PUBLIC_ID None
SIGNATURE "Arham Zakki Edelo - edelo.17034@mhs.its.ac.id   obs:./obs/2023_09.obs   NLLoc:v7.00.10(30Aug2020)   run:22Jan2024 21h56m39"
COMMENT "SEML"
GRID  2001 2001 1001  727 9811 -2  0.01 0.01 0.01 PROB_DENSITY
SEARCH OCTREE nInitial 4851 nEvaluated 20011 smallestNodeSide 0.014881/0.014881/0.014205 oct_tree_integral 3.776631e-02 scatter_volume 3.776631e-02
HYPOCENTER  x 738.6 y 9818.82 z 1.14631  OT 28.3792  ix -1 iy -1 iz -1 MAXIMUM_LIKELIHOOD
GEOGRAPHIC  OT 2023 09 28  08 44 28.379225  Lat 9818.819940 Long 738.599702 Depth 1.146307
QUALITY  Pmax 1.42661e+73 MFmin 80.023 MFmax 97.0969 RMS 0.0345013 Nphs 22 Gap 290.854 Dist 0.414936 Mamp -9.90 0 Mdur -9.90 0
VPVSRATIO  VpVsRatio 1.70232  Npair 11  Diff 0.60264
STATISTICS  ExpectX 738.322820 Y 9818.628370 Z 0.926840  CovXX 0.0875849 XY 0.0272055 XZ 0.0273698 YY 0.0317971 YZ 0.0181083 ZZ 0.04206 EllAz1  169.803 Dip1  27.6327 Len1  0.246919 Az2  301.096 Dip2  51.5743 Len2  0.330196 Len3  6.323701e-01
STAT_GEOG  ExpectLat 9818.628370 Long 738.322820 Depth 0.926840
TRANSFORM  NONE
QML_OriginQuality  assocPhCt 22  usedPhCt 22  assocStaCt -1  usedStaCt 11  depthPhCt -1  stdErr 0.0345013  azGap 290.854  secAzGap 290.854  gtLevel -  minDist 0.414936 maxDist 4.8835 medDist 2.28092
QML_OriginUncertainty  horUnc -1  minHorUnc 0.218338  maxHorUnc 0.476348  azMaxHorUnc 67.8579
QML_ConfidenceEllipsoid  semiMajorAxisLength 0.63237  semiMinorAxisLength 0.246919  semiIntermediateAxisLength 0.330196  majorAxisPlunge 24.4376  majorAxisAzimuth 66.0413  majorAxisRotation 41.9917
FOCALMECH  Hyp  9818.819940 738.599702 1.146307 Mech  0 0 0 mf  0 nObs -1
PHASE ID Ins Cmp On Pha  FM Date     HrMn   Sec     Err  ErrMag    Coda      Amp       Per       PriorWt  >   TTpred    Res       Weight    StaLoc(X  Y         Z)        SDist    SAzim  RAz  RDip RQual    Tcorr       TTerr
ML06         ?    BHZ  i P      c 20230928 0844   29.0562 GAU  7.19e-04 -1.00e+00  2.17e+02 -1.00e+00    1.0000 >    0.6752    0.0018    1.8344  738.3100 9819.1170   -1.3960    0.4149 315.72 315.7 169.5 10     0.0000    0.0135
ML06         ?    BHE  e S      ? 20230928 0844   29.5345 GAU  1.29e-03 -1.00e+00  8.00e+00 -1.00e+00    1.0000 >    1.1553   -0.0000    1.6418  738.3100 9819.1170   -1.3960    0.4149 315.72 315.7 169.1 10     0.0000    0.0231
ML04         ?    BHZ  e P      c 20230928 0844   29.1022 GAU  1.55e-03 -1.00e+00 -1.00e+00 -1.00e+00    1.0000 >    0.8187   -0.0958    0.1204  737.1400 9819.2520   -1.5710    1.5223 286.49 286.5 147.1 10     0.0000    0.0164
ML04         ?    BHN  e S      ? 20230928 0844   29.5903 GAU  1.21e-03 -1.00e+00  6.92e+02 -1.00e+00    1.0000 >    1.4012   -0.1901    0.0027  737.1400 9819.2520   -1.5710    1.5223 286.49 286.5 145.6 10     0.0000    0.0280
ML14         ?    BHZ  i P      c 20230928 0844   29.1396 GAU  3.74e-03 -1.00e+00  3.31e+02 -1.00e+00    1.0000 >    0.7856   -0.0253    1.3616  737.5530 9820.0110   -1.3980    1.5856 318.69 318.7 144.1 10     0.0000    0.0157
ML14         ?    BHE  e S      ? 20230928 0844   29.6652 GAU  7.55e-04 -1.00e+00  5.68e+02 -1.00e+00    1.0000 >    1.3436   -0.0576    0.6560  737.5530 9820.0110   -1.3980    1.5856 318.69 318.7 142.5 10     0.0000    0.0269
ML11         ?    BHZ  i P      c 20230928 0844   29.1558 GAU  1.40e-03 -1.00e+00  6.17e+01 -1.00e+00    1.0000 >    0.7782   -0.0016    1.8155  738.4670 9820.4900   -1.3120    1.6753 355.46 355.5 141.5 10     0.0000    0.0156
ML11         ?    BHN  e S      ? 20230928 0844   29.7124 GAU  4.21e-04 -1.00e+00  3.00e+01 -1.00e+00    1.0000 >    1.3304    0.0028    1.5502  738.4670 9820.4900   -1.3120    1.6753 355.46 355.5 139.8 10     0.0000    0.0266
ML02         ?    BHZ  e P      c 20230928 0844   29.2712 GAU  7.28e-04 -1.00e+00 -1.00e+00 -1.00e+00    1.0000 >    0.8835    0.0085    1.6647  736.5970 9819.4060   -1.4960    2.0867 286.31 286.3 136.6 10     0.0000    0.0177
ML02         ?    BHE  e S      ? 20230928 0844   29.9069 GAU  1.50e-03 -1.00e+00  1.84e+03 -1.00e+00    1.0000 >    1.5110    0.0167    1.3420  736.5970 9819.4060   -1.4960    2.0867 286.31 286.3 134.5 10     0.0000    0.0302
ML09         ?    BHZ  i P      c 20230928 0844   29.2499 GAU  1.52e-03 -1.00e+00  1.28e+02 -1.00e+00    1.0000 >    0.8679    0.0028    1.7536  737.8820 9820.9850   -1.2700    2.2809 341.66 341.7 130.7 10     0.0000    0.0174
ML09         ?    BHN  e S      ? 20230928 0844   29.8905 GAU  6.24e-04 -1.00e+00  4.25e+02 -1.00e+00    1.0000 >    1.4826    0.0287    1.1454  737.8820 9820.9850   -1.2700    2.2809 341.66 341.7 128.3 10     0.0000    0.0297
ML13         ?    BHZ  i P      c 20230928 0844   29.3596 GAU  1.74e-03 -1.00e+00 -1.00e+00 -1.00e+00    1.0000 >    1.0112   -0.0309    1.2146  737.1780 9821.5410   -1.2220    3.0701 332.41 332.4 119.0 10     0.0000    0.0202
ML13         ?    BHN  e S      ? 20230928 0844   30.0798 GAU  1.84e-03 -1.00e+00 -1.00e+00 -1.00e+00    1.0000 >    1.7247   -0.0241    1.2641  737.1780 9821.5410   -1.2220    3.0701 332.41 332.4 115.7 10     0.0000    0.0345
ML10         ?    BHZ  e P      d 20230928 0844   29.5466 GAU  3.91e-04 -1.00e+00  2.74e+03 -1.00e+00    1.0000 >    1.0522    0.1153    0.3392  736.5490 9821.3650   -1.2200    3.2684 321.14 321.1 116.6 10     0.0000    0.0210
ML10         ?    BHN  e S      ? 20230928 0844   30.3433 GAU  8.39e-04 -1.00e+00  5.59e+01 -1.00e+00    1.0000 >    1.7938    0.1703    0.2200  736.5490 9821.3650   -1.2200    3.2684 321.14 321.1 113.2 10     0.0000    0.0359
ML05         ?    BHZ  e P      d 20230928 0844   29.5714 GAU  8.11e-04 -1.00e+00  9.21e+02 -1.00e+00    1.0000 >    1.2025   -0.0103    1.5903  736.2660 9822.0830   -1.1500    4.0117 324.43 324.4 107.8 10     0.0000    0.0240
ML05         ?    BHN  e S      ? 20230928 0844   30.4315 GAU  9.11e-04 -1.00e+00  3.26e+02 -1.00e+00    1.0000 >    2.0450    0.0073    1.2701  736.2660 9822.0830   -1.1500    4.0117 324.43 324.4 103.9 10     0.0000    0.0409
ML07         ?    BHZ  i P      d 20230928 0844   29.6722 GAU  1.74e-04 -1.00e+00 -1.00e+00 -1.00e+00    1.0000 >    1.2272    0.0658    0.4586  737.4430 9822.8030   -1.1120    4.1476 343.81 343.8 106.0 10     0.0000    0.0245
ML07         ?    BHN  e S      ? 20230928 0844   30.5860 GAU  7.45e-04 -1.00e+00 -1.00e+00 -1.00e+00    1.0000 >    2.0853    0.1215    0.3853  737.4430 9822.8030   -1.1120    4.1476 343.81 343.8 102.2 10     0.0000    0.0417
ML12         ?    BHZ  i P      c 20230928 0844   29.8919 GAU  8.63e-04 -1.00e+00 -1.00e+00 -1.00e+00    1.0000 >    1.3782    0.1344    0.3314  736.8520 9823.3800   -0.9890    4.8835 339.03 339.0  98.7  9     0.0000    0.0276
ML12         ?    BHN  e S      ? 20230928 0844   30.9728 GAU  2.17e-03 -1.00e+00 -1.00e+00 -1.00e+00    1.0000 >    2.3317    0.2619    0.0382  736.8520 9823.3800   -0.9890    4.8835 339.03 339.0  96.5  9     0.0000    0.0466
END_PHASE
END_NLLOC

