NLLOC "./loc/SEML.20230914.162852.grid0" "LOCATED" "Location completed."
PUBLIC_ID None
SIGNATURE "Arham Zakki Edelo - edelo.17034@mhs.its.ac.id   obs:./obs/2023_09.obs   NLLoc:v7.00.10(30Aug2020)   run:22Jan2024 21h54m36"
COMMENT "SEML"
GRID  2001 2001 1001  727 9811 -2  0.01 0.01 0.01 PROB_DENSITY
SEARCH OCTREE nInitial 4851 nEvaluated 20019 smallestNodeSide 0.014881/0.014881/0.014205 oct_tree_integral 3.785944e-02 scatter_volume 3.749027e-02
HYPOCENTER  x 738.243 y 9818.19 z 0.43608  OT 51.5787  ix -1 iy -1 iz -1 MAXIMUM_LIKELIHOOD
GEOGRAPHIC  OT 2023 09 14  16 28 51.578746  Lat 9818.194940 Long 738.242560 Depth 0.436080
QUALITY  Pmax 5.95024e+64 MFmin 72.9252 MFmax 87.1177 RMS 0.042074 Nphs 20 Gap 308.208 Dist 0.924523 Mamp -9.90 0 Mdur -9.90 0
VPVSRATIO  VpVsRatio 1.7288  Npair 10  Diff 0.746792
STATISTICS  ExpectX 738.130627 Y 9818.219616 Z 0.543895  CovXX 0.0428034 XY -0.0042491 XZ -0.0126722 YY 0.0205829 YZ 0.00206683 ZZ 0.0303613 EllAz1  12.7341 Dip1  4.20069 Len1  0.26423 Az2  289.559 Dip2  -58.2821 Len2  0.28216 Len3  4.260250e-01
STAT_GEOG  ExpectLat 9818.219616 Long 738.130627 Depth 0.543895
TRANSFORM  NONE
QML_OriginQuality  assocPhCt 20  usedPhCt 20  assocStaCt -1  usedStaCt 10  depthPhCt -1  stdErr 0.042074  azGap 308.208  secAzGap 308.208  gtLevel -  minDist 0.924523 maxDist 5.36829 medDist 3.16229
QML_OriginUncertainty  horUnc -1  minHorUnc 0.213391  maxHorUnc 0.316627  azMaxHorUnc 100.465
QML_ConfidenceEllipsoid  semiMajorAxisLength 0.426025  semiMinorAxisLength 0.26423  semiIntermediateAxisLength 0.28216  majorAxisPlunge -31.3731  majorAxisAzimuth 100.167  majorAxisRotation 169.35
FOCALMECH  Hyp  9818.194940 738.242560 0.436080 Mech  0 0 0 mf  0 nObs -1
PHASE ID Ins Cmp On Pha  FM Date     HrMn   Sec     Err  ErrMag    Coda      Amp       Per       PriorWt  >   TTpred    Res       Weight    StaLoc(X  Y         Z)        SDist    SAzim  RAz  RDip RQual    Tcorr       TTerr
ML06         ?    BHZ  i P      c 20230914 1628   52.2544 GAU  9.32e-04 -1.00e+00 -1.00e+00 -1.00e+00    1.0000 >    0.5461    0.1295    0.2356  738.3100 9819.1170   -1.3960    0.9245   4.18   4.2 152.5 10     0.0000    0.0109
ML06         ?    BHN  e S      ? 20230914 1628   52.7032 GAU  9.70e-04 -1.00e+00 -1.00e+00 -1.00e+00    1.0000 >    0.9526    0.1719    0.1675  738.3100 9819.1170   -1.3960    0.9245   4.18   4.2 152.1 10     0.0000    0.0191
ML04         ?    BHZ  e P      c 20230914 1628   52.2884 GAU  5.20e-04 -1.00e+00 -1.00e+00 -1.00e+00    1.0000 >    0.6727    0.0369    1.3483  737.1400 9819.2520   -1.5710    1.5274 313.79 313.8 141.5 10     0.0000    0.0135
ML04         ?    BHE  e S      ? 20230914 1628   52.7844 GAU  1.35e-03 -1.00e+00  3.93e+02 -1.00e+00    1.0000 >    1.1723    0.0333    1.3881  737.1400 9819.2520   -1.5710    1.5274 313.79 313.8 140.9 10     0.0000    0.0234
ML14         ?    BHZ  e P      d 20230914 1628   52.2718 GAU  2.82e-03 -1.00e+00  6.84e+02 -1.00e+00    1.0000 >    0.7103   -0.0172    1.2467  737.5530 9820.0110   -1.3980    1.9426 339.21 339.2 131.6 10     0.0000    0.0142
ML14         ?    BHE  e S      ? 20230914 1628   52.8172 GAU  7.28e-04 -1.00e+00  4.81e+02 -1.00e+00    1.0000 >    1.2390   -0.0006    1.4716  737.5530 9820.0110   -1.3980    1.9426 339.21 339.2 130.7 10     0.0000    0.0248
ML11         ?    BHZ  i P      c 20230914 1628   52.3461 GAU  1.49e-03 -1.00e+00 -1.00e+00 -1.00e+00    1.0000 >    0.7681   -0.0008    1.5212  738.4670 9820.4900   -1.3120    2.3060   5.59   5.6 125.1 10     0.0000    0.0154
ML11         ?    BHN  e S      ? 20230914 1628   52.9654 GAU  2.90e-04 -1.00e+00 -1.00e+00 -1.00e+00    1.0000 >    1.3407    0.0459    1.1623  738.4670 9820.4900   -1.3120    2.3060   5.59   5.6 123.9 10     0.0000    0.0268
ML09         ?    BHZ  i P      c 20230914 1628   52.4388 GAU  1.52e-03 -1.00e+00  1.05e+02 -1.00e+00    1.0000 >    0.8725   -0.0125    1.3545  737.8820 9820.9850   -1.2700    2.8133 352.64 352.6 118.9 10     0.0000    0.0175
ML09         ?    BHN  e S      ? 20230914 1628   53.1209 GAU  6.87e-04 -1.00e+00  4.57e+02 -1.00e+00    1.0000 >    1.5233    0.0188    1.4413  737.8820 9820.9850   -1.2700    2.8133 352.64 352.6 117.3 10     0.0000    0.0305
ML13         ?    BHZ  i P      c 20230914 1628   52.5548 GAU  3.76e-04 -1.00e+00 -1.00e+00 -1.00e+00    1.0000 >    1.0283   -0.0523    0.4984  737.1780 9821.5410   -1.2220    3.5113 342.35 342.4 112.6 10     0.0000    0.0206
ML13         ?    BHE  e S      ? 20230914 1628   53.2923 GAU  2.30e-04 -1.00e+00 -1.00e+00 -1.00e+00    1.0000 >    1.7958   -0.0822    0.2954  737.1780 9821.5410   -1.2220    3.5113 342.35 342.4 110.4 10     0.0000    0.0359
ML10         ?    BHZ  e P      c 20230914 1628   52.6330 GAU  1.55e-03 -1.00e+00 -1.00e+00 -1.00e+00    1.0000 >    1.0478    0.0064    1.5511  736.5490 9821.3650   -1.2200    3.5941 331.89 331.9 112.0 10     0.0000    0.0210
ML10         ?    BHN  e S      ? 20230914 1628   53.3903 GAU  3.01e-04 -1.00e+00 -1.00e+00 -1.00e+00    1.0000 >    1.8299   -0.0184    1.1640  736.5490 9821.3650   -1.2200    3.5941 331.89 331.9 109.8 10     0.0000    0.0366
ML05         ?    BHZ  i P      c 20230914 1628   52.8376 GAU  1.71e-03 -1.00e+00 -1.00e+00 -1.00e+00    1.0000 >    1.2260    0.0328    1.3876  736.2660 9822.0830   -1.1500    4.3616 333.05 333.1 107.1 10     0.0000    0.0245
ML05         ?    BHN  e S      ? 20230914 1628   53.7436 GAU  5.26e-04 -1.00e+00  2.81e+02 -1.00e+00    1.0000 >    2.1417    0.0232    1.2577  736.2660 9822.0830   -1.1500    4.3616 333.05 333.1 104.3 10     0.0000    0.0428
ML07         ?    BHZ  i P      c 20230914 1628   52.9218 GAU  1.19e-03 -1.00e+00 -1.00e+00 -1.00e+00    1.0000 >    1.2998    0.0432    1.2134  737.4430 9822.8030   -1.1120    4.6769 350.16 350.2 105.5 10     0.0000    0.0260
ML07         ?    BHE  e S      ? 20230914 1628   53.9063 GAU  3.74e-04 -1.00e+00 -1.00e+00 -1.00e+00    1.0000 >    2.2685    0.0591    0.9560  737.4430 9822.8030   -1.1120    4.6769 350.16 350.2  72.6  8     0.0000    0.0454
ML12         ?    BHZ  e P      c 20230914 1628   53.1825 GAU  6.60e-04 -1.00e+00 -1.00e+00 -1.00e+00    1.0000 >    1.4599    0.1438    0.3156  736.8520 9823.3800   -0.9890    5.3683 344.99 345.0 102.3 10     0.0000    0.0292
ML12         ?    BHN  e S      ? 20230914 1628   54.3781 GAU  7.55e-04 -1.00e+00 -1.00e+00 -1.00e+00    1.0000 >    2.5231    0.2763    0.0238  736.8520 9823.3800   -0.9890    5.3683 344.99 345.0  67.2 10     0.0000    0.0505
END_PHASE
END_NLLOC

