NLLOC "./loc/SEML.20230928.083352.grid0" "LOCATED" "Location completed."
PUBLIC_ID None
SIGNATURE "Arham Zakki Edelo - edelo.17034@mhs.its.ac.id   obs:./obs/2023_09.obs   NLLoc:v7.00.10(30Aug2020)   run:22Jan2024 21h56m11"
COMMENT "SEML"
GRID  2001 2001 1001  727 9811 -2  0.01 0.01 0.01 PROB_DENSITY
SEARCH OCTREE nInitial 4851 nEvaluated 20011 smallestNodeSide 0.007440/0.007440/0.007102 oct_tree_integral 8.406604e-03 scatter_volume 8.326974e-03
HYPOCENTER  x 737.874 y 9818.76 z 0.879972  OT 52.3835  ix -1 iy -1 iz -1 MAXIMUM_LIKELIHOOD
GEOGRAPHIC  OT 2023 09 28  08 33 52.383476  Lat 9818.756696 Long 737.874256 Depth 0.879972
QUALITY  Pmax 2.36727e+56 MFmin 67.644 MFmax 89.3729 RMS 0.039743 Nphs 18 Gap 253.589 Dist 0.565413 Mamp -9.90 0 Mdur -9.90 0
VPVSRATIO  VpVsRatio 1.75482  Npair 9  Diff 0.609871
STATISTICS  ExpectX 737.844396 Y 9818.756459 Z 0.833759  CovXX 0.0101459 XY 0.000218614 XZ 0.00293164 YY 0.00630623 YZ -0.00406024 ZZ 0.0133668 EllAz1  163.683 Dip1  -26.9675 Len1  0.120152 Az2  246.063 Dip2  14.6084 Len2  0.182226 Len3  2.400374e-01
STAT_GEOG  ExpectLat 9818.756459 Long 737.844396 Depth 0.833759
TRANSFORM  NONE
QML_OriginQuality  assocPhCt 18  usedPhCt 18  assocStaCt -1  usedStaCt 9  depthPhCt -1  stdErr 0.039743  azGap 253.589  secAzGap 253.589  gtLevel -  minDist 0.565413 maxDist 4.73497 medDist 2.22832
QML_OriginUncertainty  horUnc -1  minHorUnc 0.120315  maxHorUnc 0.152853  azMaxHorUnc 86.7518
QML_ConfidenceEllipsoid  semiMajorAxisLength 0.240037  semiMinorAxisLength 0.120152  semiIntermediateAxisLength 0.182226  majorAxisPlunge 58.7414  majorAxisAzimuth 130.635  majorAxisRotation 75.6052
FOCALMECH  Hyp  9818.756696 737.874256 0.879972 Mech  0 0 0 mf  0 nObs -1
PHASE ID Ins Cmp On Pha  FM Date     HrMn   Sec     Err  ErrMag    Coda      Amp       Per       PriorWt  >   TTpred    Res       Weight    StaLoc(X  Y         Z)        SDist    SAzim  RAz  RDip RQual    Tcorr       TTerr
ML06         ?    BHZ  i P      c 20230928 0833   52.9965 GAU  8.16e-04 -1.00e+00  2.83e+02 -1.00e+00    1.0000 >    0.6196   -0.0066    1.8932  738.3100 9819.1170   -1.3960    0.5654  50.41  50.4 165.5 10     0.0000    0.0124
ML06         ?    BHN  e S      ? 20230928 0833   53.4620 GAU  2.11e-04 -1.00e+00  2.49e+01 -1.00e+00    1.0000 >    1.0661    0.0124    1.5827  738.3100 9819.1170   -1.3960    0.5654  50.41  50.4 164.4 10     0.0000    0.0213
ML04         ?    BHZ  e P      c 20230928 0833   53.0860 GAU  0.00e+00 -1.00e+00 -1.00e+00 -1.00e+00    1.0000 >    0.6904    0.0121    1.7055  737.1400 9819.2520   -1.5710    0.8857 304.00 304.0 159.4 10     0.0000    0.0138
ML04         ?    BHN  e S      ? 20230928 0833   53.5739 GAU  7.80e-04 -1.00e+00  7.43e+02 -1.00e+00    1.0000 >    1.1881    0.0023    1.6689  737.1400 9819.2520   -1.5710    0.8857 304.00 304.0 157.9 10     0.0000    0.0238
ML14         ?    BHZ  e P      c 20230928 0833   53.0429 GAU  1.68e-03 -1.00e+00 -1.00e+00 -1.00e+00    1.0000 >    0.6922   -0.0327    1.0219  737.5530 9820.0110   -1.3980    1.2948 345.63 345.6 149.5 10     0.0000    0.0138
ML14         ?    BHE  e S      ? 20230928 0833   53.5162 GAU  1.25e-03 -1.00e+00  3.86e+02 -1.00e+00    1.0000 >    1.1907   -0.0580    0.4897  737.5530 9820.0110   -1.3980    1.2948 345.63 345.6 147.0 10     0.0000    0.0238
ML11         ?    BHZ  i P      c 20230928 0833   53.1350 GAU  7.98e-04 -1.00e+00 -1.00e+00 -1.00e+00    1.0000 >    0.7531   -0.0015    1.9042  738.4670 9820.4900   -1.3120    1.8319  18.88  18.9 138.9 10     0.0000    0.0151
ML11         ?    BHN  e S      ? 20230928 0833   53.6558 GAU  3.36e-04 -1.00e+00 -1.00e+00 -1.00e+00    1.0000 >    1.2948   -0.0225    1.3961  738.4670 9820.4900   -1.3120    1.8319  18.88  18.9 135.3 10     0.0000    0.0259
ML09         ?    BHZ  i P      c 20230928 0833   53.2085 GAU  7.76e-04 -1.00e+00  6.66e+01 -1.00e+00    1.0000 >    0.8153    0.0097    1.7414  737.8820 9820.9850   -1.2700    2.2283   0.20   0.2 132.2 10     0.0000    0.0163
ML09         ?    BHE  e S      ? 20230928 0833   53.8205 GAU  5.83e-05 -1.00e+00  3.70e+02 -1.00e+00    1.0000 >    1.4012    0.0358    0.9172  737.8820 9820.9850   -1.2700    2.2283   0.20   0.2 127.9 10     0.0000    0.0280
ML13         ?    BHZ  e P      c 20230928 0833   53.3087 GAU  5.01e-04 -1.00e+00 -1.00e+00 -1.00e+00    1.0000 >    0.9358   -0.0106    1.7373  737.1780 9821.5410   -1.2220    2.8700 345.96 346.0 124.0 10     0.0000    0.0187
ML13         ?    BHE  e S      ? 20230928 0833   53.9901 GAU  2.89e-04 -1.00e+00 -1.00e+00 -1.00e+00    1.0000 >    1.6066    0.0000    1.4649  737.1780 9821.5410   -1.2220    2.8700 345.96 346.0 118.1 10     0.0000    0.0321
ML05         ?    BHZ  e P      c 20230928 0833   53.7936 GAU  7.82e-04 -1.00e+00 -1.00e+00 -1.00e+00    1.0000 >    1.1071    0.3030    0.1148  736.2660 9822.0830   -1.1500    3.6947 334.20 334.2 116.2 10     0.0000    0.0221
ML05         ?    BHE  e S      ? 20230928 0833   54.8213 GAU  2.72e-04 -1.00e+00 -1.00e+00 -1.00e+00    1.0000 >    1.8965    0.5413    0.0162  736.2660 9822.0830   -1.1500    3.6947 334.20 334.2 108.8 10     0.0000    0.0379
ML07         ?    BHZ  e P      c 20230928 0833   53.8084 GAU  4.26e-04 -1.00e+00 -1.00e+00 -1.00e+00    1.0000 >    1.1886    0.2363    0.1185  737.4430 9822.8030   -1.1120    4.0692 353.92 353.9 113.3 10     0.0000    0.0238
ML07         ?    BHN  e S      ? 20230928 0833   54.8504 GAU  4.45e-04 -1.00e+00  4.78e+00 -1.00e+00    1.0000 >    2.0332    0.4337    0.0209  737.4430 9822.8030   -1.1120    4.0692 353.92 353.9 105.4 10     0.0000    0.0407
ML12         ?    BHZ  e P      c 20230928 0833   53.8441 GAU  6.30e-04 -1.00e+00 -1.00e+00 -1.00e+00    1.0000 >    1.3314    0.1292    0.0157  736.8520 9823.3800   -0.9890    4.7350 347.53 347.5 108.6 10     0.0000    0.0266
ML12         ?    BHE  e S      ? 20230928 0833   54.9194 GAU  7.41e-04 -1.00e+00  4.36e+02 -1.00e+00    1.0000 >    2.2684    0.2676    0.1911  736.8520 9823.3800   -0.9890    4.7350 347.53 347.5 100.6 10     0.0000    0.0454
END_PHASE
END_NLLOC

