NLLOC "./loc/SEML.20230928.083619.grid0" "LOCATED" "Location completed."
PUBLIC_ID None
SIGNATURE "Arham Zakki Edelo - edelo.17034@mhs.its.ac.id   obs:./obs/2023_09.obs   NLLoc:v7.00.10(30Aug2020)   run:22Jan2024 21h56m18"
COMMENT "SEML"
GRID  2001 2001 1001  727 9811 -2  0.01 0.01 0.01 PROB_DENSITY
SEARCH OCTREE nInitial 4851 nEvaluated 20011 smallestNodeSide 0.029762/0.029762/0.028409 oct_tree_integral 9.012618e-02 scatter_volume 8.877137e-02
HYPOCENTER  x 738.86 y 9818.19 z 0.315341  OT 18.6953  ix -1 iy -1 iz -1 MAXIMUM_LIKELIHOOD
GEOGRAPHIC  OT 2023 09 28  08 36 18.695253  Lat 9818.187500 Long 738.860119 Depth 0.315341
QUALITY  Pmax 6.90922e+88 MFmin 92.5193 MFmax 114.366 RMS 0.0597185 Nphs 26 Gap 307.988 Dist 1.08009 Mamp -9.90 0 Mdur -9.90 0
VPVSRATIO  VpVsRatio 1.69279  Npair 13  Diff 0.645102
STATISTICS  ExpectX 738.928033 Y 9818.183965 Z 0.066147  CovXX 0.118297 XY 0.0120067 XZ -0.150445 YY 0.0211803 YZ -0.0312808 ZZ 0.284428 EllAz1  16.8966 Dip1  15.3367 Len1  0.236623 Az2  294.616 Dip2  -26.0926 Len2  0.334795 Len3  1.152523e+00
STAT_GEOG  ExpectLat 9818.183965 Long 738.928033 Depth 0.066147
TRANSFORM  NONE
QML_OriginQuality  assocPhCt 26  usedPhCt 26  assocStaCt -1  usedStaCt 13  depthPhCt -1  stdErr 0.0597185  azGap 307.988  secAzGap 307.988  gtLevel -  minDist 1.08009 maxDist 5.56728 medDist 3.32131
QML_OriginUncertainty  horUnc -1  minHorUnc 0.212958  maxHorUnc 0.524831  azMaxHorUnc 83.0557
QML_ConfidenceEllipsoid  semiMajorAxisLength 1.15252  semiMinorAxisLength 0.236623  semiIntermediateAxisLength 0.334795  majorAxisPlunge -59.1211  majorAxisAzimuth 79.5975  majorAxisRotation 231.801
FOCALMECH  Hyp  9818.187500 738.860119 0.315341 Mech  0 0 0 mf  0 nObs -1
PHASE ID Ins Cmp On Pha  FM Date     HrMn   Sec     Err  ErrMag    Coda      Amp       Per       PriorWt  >   TTpred    Res       Weight    StaLoc(X  Y         Z)        SDist    SAzim  RAz  RDip RQual    Tcorr       TTerr
ML06         ?    BHZ  e P      c 20230928 0836   19.2895 GAU  2.42e-03 -1.00e+00 -1.00e+00 -1.00e+00    1.0000 >    0.5395    0.0547    0.5947  738.3100 9819.1170   -1.3960    1.0801 329.38 329.4 146.8 10     0.0000    0.0108
ML06         ?    BHN  e S      ? 20230928 0836   19.7988 GAU  1.76e-03 -1.00e+00  1.76e+03 -1.00e+00    1.0000 >    0.9420    0.1616    0.0067  738.3100 9819.1170   -1.3960    1.0801 329.38 329.4 146.2 10     0.0000    0.0188
ML04         ?    BHZ  e P      d 20230928 0836   19.3535 GAU  2.62e-03 -1.00e+00  9.34e+03 -1.00e+00    1.0000 >    0.7389   -0.0807    1.1089  737.1400 9819.2520   -1.5710    2.0229 301.75 301.8 130.9 10     0.0000    0.0148
ML04         ?    BHE  e S      ? 20230928 0836   19.9050 GAU  1.50e-03 -1.00e+00  1.77e+02 -1.00e+00    1.0000 >    1.2888   -0.0790    1.0725  737.1400 9819.2520   -1.5710    2.0229 301.75 301.8 129.9 10     0.0000    0.0258
ML14         ?    BHZ  e P      c 20230928 0836   19.3595 GAU  3.67e-03 -1.00e+00 -1.00e+00 -1.00e+00    1.0000 >    0.7520   -0.0878    1.0924  737.5530 9820.0110   -1.3980    2.2436 324.37 324.4 125.1 10     0.0000    0.0150
ML14         ?    BHE  e S      ? 20230928 0836   19.9002 GAU  2.07e-03 -1.00e+00 -1.00e+00 -1.00e+00    1.0000 >    1.3132   -0.1083    0.8610  737.5530 9820.0110   -1.3980    2.2436 324.37 324.4 123.7 10     0.0000    0.0263
ML11         ?    BHZ  e P      c 20230928 0836   19.4399 GAU  6.18e-03 -1.00e+00 -1.00e+00 -1.00e+00    1.0000 >    0.7572   -0.0126    1.2816  738.4670 9820.4900   -1.3120    2.3358 350.31 350.3 122.5 10     0.0000    0.0151
ML11         ?    BHE  e S      ? 20230928 0836   20.0408 GAU  1.34e-03 -1.00e+00 -1.00e+00 -1.00e+00    1.0000 >    1.3231    0.0225    1.1734  738.4670 9820.4900   -1.3120    2.3358 350.31 350.3 121.0 10     0.0000    0.0265
ML02         ?    BHZ  e P      c 20230928 0836   19.5376 GAU  1.86e-03 -1.00e+00 -1.00e+00 -1.00e+00    1.0000 >    0.8390    0.0034    1.3678  736.5970 9819.4060   -1.4960    2.5703 298.30 298.3 122.6 10     0.0000    0.0168
ML02         ?    BHE  e S      ? 20230928 0836   20.1833 GAU  2.07e-03 -1.00e+00 -1.00e+00 -1.00e+00    1.0000 >    1.4642    0.0239    1.1423  736.5970 9819.4060   -1.4960    2.5703 298.30 298.3 121.2 10     0.0000    0.0293
ML09         ?    BHZ  e P      c 20230928 0836   19.5244 GAU  1.71e-03 -1.00e+00 -1.00e+00 -1.00e+00    1.0000 >    0.8929   -0.0637    1.0222  737.8820 9820.9850   -1.2700    2.9636 340.73 340.7 115.4 10     0.0000    0.0179
ML09         ?    BHN  e S      ? 20230928 0836   20.1964 GAU  1.07e-03 -1.00e+00 -1.00e+00 -1.00e+00    1.0000 >    1.5608   -0.0596    1.1017  737.8820 9820.9850   -1.2700    2.9636 340.73 340.7 113.3 10     0.0000    0.0312
ML03         ?    BHZ  e P      c 20230928 0836   19.6831 GAU  1.40e-03 -1.00e+00 -1.00e+00 -1.00e+00    1.0000 >    0.9863    0.0015    1.3497  736.8800 9820.8540   -1.3350    3.3213 323.40 323.4 113.3 10     0.0000    0.0197
ML03         ?    BHN  e S      ? 20230928 0836   20.4536 GAU  2.65e-03 -1.00e+00 -1.00e+00 -1.00e+00    1.0000 >    1.7233    0.0350    0.9910  736.8800 9820.8540   -1.3350    3.3213 323.40 323.4 111.1 10     0.0000    0.0345
ML13         ?    BHZ  e P      c 20230928 0836   19.6725 GAU  1.68e-03 -1.00e+00 -1.00e+00 -1.00e+00    1.0000 >    1.0752   -0.0980    0.9880  737.1780 9821.5410   -1.2220    3.7517 333.36 333.4 109.1 10     0.0000    0.0215
ML13         ?    BHE  e S      ? 20230928 0836   20.4561 GAU  3.27e-03 -1.00e+00  1.36e+02 -1.00e+00    1.0000 >    1.8803   -0.1195    0.7262  737.1780 9821.5410   -1.2220    3.7517 333.36 333.4 106.2 10     0.0000    0.0376
ML10         ?    BHZ  e P      c 20230928 0836   19.6868 GAU  5.03e-03 -1.00e+00 -1.00e+00 -1.00e+00    1.0000 >    1.1184   -0.1269    0.5981  736.5490 9821.3650   -1.2200    3.9291 323.97 324.0 108.1 10     0.0000    0.0224
ML10         ?    BHE  e S      ? 20230928 0836   20.4941 GAU  2.57e-03 -1.00e+00  3.58e+02 -1.00e+00    1.0000 >    1.9559   -0.1570    0.3541  736.5490 9821.3650   -1.2200    3.9291 323.97 324.0 105.0 10     0.0000    0.0391
ML05         ?    BHZ  e P      c 20230928 0836   20.0111 GAU  7.12e-04 -1.00e+00 -1.00e+00 -1.00e+00    1.0000 >    1.2970    0.0188    1.2128  736.2660 9822.0830   -1.1500    4.6802 326.34 326.3 104.1 10     0.0000    0.0259
ML05         ?    BHE  e S      ? 20230928 0836   20.9828 GAU  4.57e-03 -1.00e+00 -1.00e+00 -1.00e+00    1.0000 >    2.2685    0.0190    1.0663  736.2660 9822.0830   -1.1500    4.6802 326.34 326.3 100.4 10     0.0000    0.0454
ML07         ?    BHZ  e P      c 20230928 0836   20.0235 GAU  1.11e-03 -1.00e+00 -1.00e+00 -1.00e+00    1.0000 >    1.3300   -0.0017    1.2939  737.4430 9822.8030   -1.1120    4.8282 342.93 342.9 103.2 10     0.0000    0.0266
ML07         ?    BHN  e S      ? 20230928 0836   21.0326 GAU  1.55e-03 -1.00e+00 -1.00e+00 -1.00e+00    1.0000 >    2.3265    0.0108    1.1078  737.4430 9822.8030   -1.1120    4.8282 342.93 342.9  99.5 10     0.0000    0.0465
ML01         ?    BHZ  e P      c 20230928 0836   20.0290 GAU  1.19e-03 -1.00e+00  7.85e+02 -1.00e+00    1.0000 >    1.3672   -0.0334    1.1491  736.4090 9822.5140   -1.1200    4.9726 330.47 330.5 102.8 10     0.0000    0.0273
ML01         ?    BHE  e S      ? 20230928 0836   21.0231 GAU  3.18e-03 -1.00e+00  3.36e+02 -1.00e+00    1.0000 >    2.3913   -0.0635    1.0854  736.4090 9822.5140   -1.1200    4.9726 330.47 330.5  99.0 10     0.0000    0.0478
ML12         ?    BHZ  e P      c 20230928 0836   20.1901 GAU  1.29e-03 -1.00e+00 -1.00e+00 -1.00e+00    1.0000 >    1.5042   -0.0094    1.2609  736.8520 9823.3800   -0.9890    5.5673 338.86 338.9 100.3 10     0.0000    0.0301
ML12         ?    BHN  e S      ? 20230928 0836   21.3445 GAU  4.14e-03 -1.00e+00  3.87e+02 -1.00e+00    1.0000 >    2.6254    0.0239    0.9915  736.8520 9823.3800   -0.9890    5.5673 338.86 338.9  67.2 10     0.0000    0.0525
END_PHASE
END_NLLOC

