NLLOC "./loc/SEML.20230921.034309.grid0" "LOCATED" "Location completed."
PUBLIC_ID None
SIGNATURE "Arham Zakki Edelo - edelo.17034@mhs.its.ac.id   obs:./obs/2023_09.obs   NLLoc:v7.00.10(30Aug2020)   run:22Jan2024 21h55m22"
COMMENT "SEML"
GRID  2001 2001 1001  727 9811 -2  0.01 0.01 0.01 PROB_DENSITY
SEARCH OCTREE nInitial 4851 nEvaluated 20003 smallestNodeSide 0.029762/0.029762/0.028409 oct_tree_integral 9.590268e-02 scatter_volume 9.590268e-02
HYPOCENTER  x 738.384 y 9817.89 z 0.03125  OT 8.54757  ix -1 iy -1 iz -1 MAXIMUM_LIKELIHOOD
GEOGRAPHIC  OT 2023 09 21  03 43 8.547568  Lat 9817.889881 Long 738.383929 Depth 0.031250
QUALITY  Pmax 2.03458e+28 MFmin 38.5345 MFmax 46.095 RMS 0.0128102 Nphs 10 Gap 336.778 Dist 1.22934 Mamp -9.90 0 Mdur -9.90 0
VPVSRATIO  VpVsRatio 1.67302  Npair 5  Diff 0.254147
STATISTICS  ExpectX 738.822135 Y 9818.192778 Z 0.470701  CovXX 0.388154 XY 0.225746 XZ 0.289747 YY 0.176483 YZ 0.235146 ZZ 0.393462 EllAz1  163.188 Dip1  20.5346 Len1  0.239585 Az2  273.738 Dip2  43.1414 Len2  0.59797 Len3  1.722533e+00
STAT_GEOG  ExpectLat 9818.192778 Long 738.822135 Depth 0.470701
TRANSFORM  NONE
QML_OriginQuality  assocPhCt 10  usedPhCt 10  assocStaCt -1  usedStaCt 5  depthPhCt -1  stdErr 0.0128102  azGap 336.778  secAzGap 336.778  gtLevel -  minDist 1.22934 maxDist 3.84512 medDist 2.60145
QML_OriginUncertainty  horUnc -1  minHorUnc 0.275476  maxHorUnc 1.10579  azMaxHorUnc 57.5592
QML_ConfidenceEllipsoid  semiMajorAxisLength 1.72253  semiMinorAxisLength 0.239585  semiIntermediateAxisLength 0.59797  majorAxisPlunge 39.7787  majorAxisAzimuth 55.0171  majorAxisRotation 70.5401
FOCALMECH  Hyp  9817.889881 738.383929 0.031250 Mech  0 0 0 mf  0 nObs -1
PHASE ID Ins Cmp On Pha  FM Date     HrMn   Sec     Err  ErrMag    Coda      Amp       Per       PriorWt  >   TTpred    Res       Weight    StaLoc(X  Y         Z)        SDist    SAzim  RAz  RDip RQual    Tcorr       TTerr
ML06         ?    BHZ  e P      d 20230921 0343    9.2229 GAU  1.44e-03 -1.00e+00  3.68e+01 -1.00e+00    1.0000 >    0.5050    0.1703    0.0000  738.3100 9819.1170   -1.3960    1.2293 356.55 356.6 137.6 10     0.0000    0.0101
ML06         ?    BHE  e S      ? 20230921 0343    9.7635 GAU  8.23e-04 -1.00e+00  2.92e+01 -1.00e+00    1.0000 >    0.8844    0.3315    0.0000  738.3100 9819.1170   -1.3960    1.2293 356.55 356.6 136.6 10     0.0000    0.0177
ML14         ?    BHZ  e P      c 20230921 0343    9.2598 GAU  7.28e-04 -1.00e+00 -1.00e+00 -1.00e+00    1.0000 >    0.7207   -0.0085    1.4424  737.5530 9820.0110   -1.3980    2.2781 338.61 338.6 118.7 10     0.0000    0.0144
ML14         ?    BHN  e S      ? 20230921 0343    9.8230 GAU  8.62e-04 -1.00e+00  4.03e+02 -1.00e+00    1.0000 >    1.2628    0.0126    1.2666  737.5530 9820.0110   -1.3980    2.2781 338.61 338.6 116.5 10     0.0000    0.0253
ML11         ?    BHZ  i P      c 20230921 0343    9.3338 GAU  4.64e-04 -1.00e+00 -1.00e+00 -1.00e+00    1.0000 >    0.7832    0.0031    1.5361  738.4670 9820.4900   -1.3120    2.6014   1.83   1.8 113.5 10     0.0000    0.0157
ML11         ?    BHN  e S      ? 20230921 0343    9.9074 GAU  1.42e-03 -1.00e+00 -1.00e+00 -1.00e+00    1.0000 >    1.3740   -0.0142    1.1660  738.4670 9820.4900   -1.3120    2.6014   1.83   1.8 110.4 10     0.0000    0.0275
ML09         ?    BHZ  e P      c 20230921 0343    9.4709 GAU  3.87e-04 -1.00e+00 -1.00e+00 -1.00e+00    1.0000 >    0.9068    0.0165    1.2904  737.8820 9820.9850   -1.2700    3.1356 350.79 350.8 108.3 10     0.0000    0.0181
ML09         ?    BHN  e S      ? 20230921 0343   10.1644 GAU  7.28e-04 -1.00e+00  5.28e+02 -1.00e+00    1.0000 >    1.5925    0.0244    1.0029  737.8820 9820.9850   -1.2700    3.1356 350.79 350.8 103.4 10     0.0000    0.0318
ML13         ?    BHZ  e P      c 20230921 0343    9.6222 GAU  5.60e-04 -1.00e+00 -1.00e+00 -1.00e+00    1.0000 >    1.0778   -0.0031    1.4067  737.1780 9821.5410   -1.2220    3.8451 341.72 341.7 103.3 10     0.0000    0.0216
ML13         ?    BHN  e S      ? 20230921 0343   10.4170 GAU  4.20e-04 -1.00e+00 -1.00e+00 -1.00e+00    1.0000 >    1.8952   -0.0258    0.8889  737.1780 9821.5410   -1.2220    3.8451 341.72 341.7  95.1  9     0.0000    0.0379
END_PHASE
END_NLLOC

