NLLOC "./loc/SEML.20230921.180532.grid0" "LOCATED" "Location completed."
PUBLIC_ID None
SIGNATURE "Arham Zakki Edelo - edelo.17034@mhs.its.ac.id   obs:./obs/2023_09.obs   NLLoc:v7.00.10(30Aug2020)   run:22Jan2024 21h55m41"
COMMENT "SEML"
GRID  2001 2001 1001  727 9811 -2  0.01 0.01 0.01 PROB_DENSITY
SEARCH OCTREE nInitial 4851 nEvaluated 20011 smallestNodeSide 0.014881/0.014881/0.014205 oct_tree_integral 4.134056e-02 scatter_volume 4.111754e-02
HYPOCENTER  x 737.975 y 9817.7 z 0.890625  OT 31.9334  ix -1 iy -1 iz -1 MAXIMUM_LIKELIHOOD
GEOGRAPHIC  OT 2023 09 21  18 05 31.933446  Lat 9817.703869 Long 737.974702 Depth 0.890625
QUALITY  Pmax 3.29505e+35 MFmin 40.2965 MFmax 46.0694 RMS 0.0191098 Nphs 12 Gap 335.464 Dist 1.45236 Mamp -9.90 0 Mdur -9.90 0
VPVSRATIO  VpVsRatio 1.68794  Npair 6  Diff 0.630547
STATISTICS  ExpectX 738.020959 Y 9817.693969 Z 0.902952  CovXX 0.0696071 XY 0.0115404 XZ 0.0164873 YY 0.0213721 YZ -0.000226651 ZZ 0.0149335 EllAz1  135.261 Dip1  -64.3084 Len1  0.180924 Az2  353.868 Dip2  -20.6034 Len2  0.26715 Len3  5.193930e-01
STAT_GEOG  ExpectLat 9817.693969 Long 738.020959 Depth 0.902952
TRANSFORM  NONE
QML_OriginQuality  assocPhCt 12  usedPhCt 12  assocStaCt -1  usedStaCt 6  depthPhCt -1  stdErr 0.0191098  azGap 335.464  secAzGap 335.464  gtLevel -  minDist 1.45236 maxDist 5.7861 medDist 3.05587
QML_OriginUncertainty  horUnc -1  minHorUnc 0.207683  maxHorUnc 0.407578  azMaxHorUnc 77.2142
QML_ConfidenceEllipsoid  semiMajorAxisLength 0.519393  semiMinorAxisLength 0.180924  semiIntermediateAxisLength 0.26715  majorAxisPlunge 14.6674  majorAxisAzimuth 78.2206  majorAxisRotation 288.8
FOCALMECH  Hyp  9817.703869 737.974702 0.890625 Mech  0 0 0 mf  0 nObs -1
PHASE ID Ins Cmp On Pha  FM Date     HrMn   Sec     Err  ErrMag    Coda      Amp       Per       PriorWt  >   TTpred    Res       Weight    StaLoc(X  Y         Z)        SDist    SAzim  RAz  RDip RQual    Tcorr       TTerr
ML06         ?    BHZ  i P      c 20230921 1805   32.6515 GAU  9.06e-04 -1.00e+00 -1.00e+00 -1.00e+00    1.0000 >    0.7154    0.0027    1.5486  738.3100 9819.1170   -1.3960    1.4524  13.35  13.3 146.6 10     0.0000    0.0143
ML06         ?    BHN  e S      ? 20230921 1805   33.1581 GAU  1.05e-03 -1.00e+00 -1.00e+00 -1.00e+00    1.0000 >    1.2301   -0.0054    1.3774  738.3100 9819.1170   -1.3960    1.4524  13.35  13.3 143.9 10     0.0000    0.0246
ML14         ?    BHZ  e P      c 20230921 1805   32.8036 GAU  8.62e-04 -1.00e+00 -1.00e+00 -1.00e+00    1.0000 >    0.8648    0.0053    1.4844  737.5530 9820.0110   -1.3980    2.3454 349.64 349.6 132.5 10     0.0000    0.0173
ML14         ?    BHE  e S      ? 20230921 1805   33.4170 GAU  3.97e-04 -1.00e+00  3.75e+02 -1.00e+00    1.0000 >    1.4861   -0.0026    1.2831  737.5530 9820.0110   -1.3980    2.3454 349.64 349.6 128.2 10     0.0000    0.0297
ML11         ?    BHZ  e P      c 20230921 1805   32.8644 GAU  1.26e-03 -1.00e+00 -1.00e+00 -1.00e+00    1.0000 >    0.9448   -0.0138    1.3802  738.4670 9820.4900   -1.3120    2.8293  10.02  10.0 125.7 10     0.0000    0.0189
ML11         ?    BHN  e S      ? 20230921 1805   33.5831 GAU  1.90e-04 -1.00e+00 -1.00e+00 -1.00e+00    1.0000 >    1.6220    0.0277    0.9629  738.4670 9820.4900   -1.3120    2.8293  10.02  10.0 120.1 10     0.0000    0.0324
ML09         ?    BHZ  e P      c 20230921 1805   32.8256 GAU  6.29e-04 -1.00e+00  5.60e+01 -1.00e+00    1.0000 >    1.0345   -0.1423    0.0424  737.8820 9820.9850   -1.2700    3.2824 358.38 358.4 120.9 10     0.0000    0.0207
ML09         ?    BHN  e S      ? 20230921 1805   33.4912 GAU  1.44e-04 -1.00e+00  4.87e+02 -1.00e+00    1.0000 >    1.7745   -0.2167    0.0309  737.8820 9820.9850   -1.2700    3.2824 358.38 358.4 114.4 10     0.0000    0.0355
ML07         ?    BHZ  e P      c 20230921 1805   33.3472 GAU  3.51e-04 -1.00e+00 -1.00e+00 -1.00e+00    1.0000 >    1.4429   -0.0291    1.0121  737.4430 9822.8030   -1.1120    5.1268 354.05 354.0 108.1 10     0.0000    0.0289
ML07         ?    BHN  e S      ? 20230921 1805   34.3672 GAU  1.31e-04 -1.00e+00 -1.00e+00 -1.00e+00    1.0000 >    2.4573   -0.0236    0.9043  737.4430 9822.8030   -1.1120    5.1268 354.05 354.0 100.1 10     0.0000    0.0491
ML12         ?    BHZ  e P      d 20230921 1805   33.5258 GAU  5.20e-04 -1.00e+00 -1.00e+00 -1.00e+00    1.0000 >    1.5898    0.0026    1.2369  736.8520 9823.3800   -0.9890    5.7861 348.81 348.8 104.7 10     0.0000    0.0318
ML12         ?    BHE  e S      ? 20230921 1805   34.6630 GAU  9.87e-05 -1.00e+00  5.08e+00 -1.00e+00    1.0000 >    2.6916    0.0379    0.7368  736.8520 9823.3800   -0.9890    5.7861 348.81 348.8  70.6 10     0.0000    0.0538
END_PHASE
END_NLLOC

