NLLOC "./loc/SEML.20230914.162500.grid0" "LOCATED" "Location completed."
PUBLIC_ID None
SIGNATURE "Arham Zakki Edelo - edelo.17034@mhs.its.ac.id   obs:./obs/2023_09.obs   NLLoc:v7.00.10(30Aug2020)   run:22Jan2024 21h54m12"
COMMENT "SEML"
GRID  2001 2001 1001  727 9811 -2  0.01 0.01 0.01 PROB_DENSITY
SEARCH OCTREE nInitial 4851 nEvaluated 20003 smallestNodeSide 0.014881/0.014881/0.014205 oct_tree_integral 2.868160e-02 scatter_volume 2.868160e-02
HYPOCENTER  x 737.871 y 9818.05 z 0.649148  OT 59.3783  ix -1 iy -1 iz -1 MAXIMUM_LIKELIHOOD
GEOGRAPHIC  OT 2023 09 14  16 24 59.378260  Lat 9818.046131 Long 737.870536 Depth 0.649148
QUALITY  Pmax 2.51909e+72 MFmin 79.7008 MFmax 97.1187 RMS 0.051028 Nphs 22 Gap 294.565 Dist 1.15754 Mamp -9.90 0 Mdur -9.90 0
VPVSRATIO  VpVsRatio 1.68761  Npair 11  Diff 0.61153
STATISTICS  ExpectX 737.997459 Y 9817.978609 Z 0.479902  CovXX 0.0783519 XY -0.0370048 XZ -0.077961 YY 0.036813 YZ 0.0405633 ZZ 0.107882 EllAz1  61.368 Dip1  27.1907 Len1  0.210219 Az2  169.51 Dip2  31.2209 Len2  0.256655 Len3  8.229776e-01
STAT_GEOG  ExpectLat 9817.978609 Long 737.997459 Depth 0.479902
TRANSFORM  NONE
QML_OriginQuality  assocPhCt 22  usedPhCt 22  assocStaCt -1  usedStaCt 11  depthPhCt -1  stdErr 0.051028  azGap 294.565  secAzGap 294.565  gtLevel -  minDist 1.15754 maxDist 5.43025 medDist 2.93889
QML_OriginUncertainty  horUnc -1  minHorUnc 0.186653  maxHorUnc 0.479625  azMaxHorUnc 120.348
QML_ConfidenceEllipsoid  semiMajorAxisLength 0.822978  semiMinorAxisLength 0.210219  semiIntermediateAxisLength 0.256655  majorAxisPlunge -46.2907  majorAxisAzimuth 118.861  majorAxisRotation 267.075
FOCALMECH  Hyp  9818.046131 737.870536 0.649148 Mech  0 0 0 mf  0 nObs -1
PHASE ID Ins Cmp On Pha  FM Date     HrMn   Sec     Err  ErrMag    Coda      Amp       Per       PriorWt  >   TTpred    Res       Weight    StaLoc(X  Y         Z)        SDist    SAzim  RAz  RDip RQual    Tcorr       TTerr
ML06         ?    BHZ  i P      c 20230914 1625    0.0752 GAU  5.20e-04 -1.00e+00 -1.00e+00 -1.00e+00    1.0000 >    0.6230    0.0740    0.3843  738.3100 9819.1170   -1.3960    1.1575  22.31  22.3 149.4 10     0.0000    0.0125
ML06         ?    BHN  i S      ? 20230914 1625    0.6059 GAU  6.86e-04 -1.00e+00  3.20e+01 -1.00e+00    1.0000 >    1.0798    0.1478    0.4794  738.3100 9819.1170   -1.3960    1.1575  22.31  22.3 146.7 10     0.0000    0.0216
ML04         ?    BHZ  e P      c 20230914 1625    0.0797 GAU  2.46e-03 -1.00e+00 -1.00e+00 -1.00e+00    1.0000 >    0.6990    0.0024    1.7867  737.1400 9819.2520   -1.5710    1.4099 328.79 328.8 146.3 10     0.0000    0.0140
ML04         ?    BHE  e S      ? 20230914 1625    0.5839 GAU  7.49e-04 -1.00e+00  2.57e+02 -1.00e+00    1.0000 >    1.2112   -0.0056    1.5370  737.1400 9819.2520   -1.5710    1.4099 328.79 328.8 143.2 10     0.0000    0.0242
ML02         ?    BHZ  e P      c 20230914 1625    0.1263 GAU  7.49e-04 -1.00e+00 -1.00e+00 -1.00e+00    1.0000 >    0.7540   -0.0059    1.7263  736.5970 9819.4060   -1.4960    1.8631 316.88 316.9 137.3 10     0.0000    0.0151
ML02         ?    BHN  e S      ? 20230914 1625    0.7103 GAU  8.24e-04 -1.00e+00 -1.00e+00 -1.00e+00    1.0000 >    1.3064    0.0256    1.2688  736.5970 9819.4060   -1.4960    1.8631 316.88 316.9 132.9 10     0.0000    0.0261
ML14         ?    BHZ  i P      c 20230914 1625    0.1324 GAU  2.68e-03 -1.00e+00 -1.00e+00 -1.00e+00    1.0000 >    0.7563   -0.0021    1.7608  737.5530 9820.0110   -1.3980    1.9904 350.82 350.8 133.9 10     0.0000    0.0151
ML14         ?    BHE  e S      ? 20230914 1625    0.7055 GAU  5.99e-04 -1.00e+00  2.06e+02 -1.00e+00    1.0000 >    1.3106    0.0166    1.4131  737.5530 9820.0110   -1.3980    1.9904 350.82 350.8 129.0 10     0.0000    0.0262
ML11         ?    BHZ  i P      c 20230914 1625    0.2431 GAU  1.79e-03 -1.00e+00  2.27e+01 -1.00e+00    1.0000 >    0.8436    0.0213    1.3762  738.4670 9820.4900   -1.3120    2.5156  13.72  13.7 125.4 10     0.0000    0.0169
ML11         ?    BHN  i S      ? 20230914 1625    0.8359 GAU  8.84e-04 -1.00e+00 -1.00e+00 -1.00e+00    1.0000 >    1.4614   -0.0037    1.4407  738.4670 9820.4900   -1.3120    2.5156  13.72  13.7 118.6 10     0.0000    0.0292
ML09         ?    BHZ  i P      c 20230914 1625    0.2793 GAU  1.04e-03 -1.00e+00  4.28e+01 -1.00e+00    1.0000 >    0.9274   -0.0264    1.1513  737.8820 9820.9850   -1.2700    2.9389   0.22   0.2 120.3 10     0.0000    0.0185
ML09         ?    BHE  e S      ? 20230914 1625    0.9171 GAU  6.86e-04 -1.00e+00  3.29e+02 -1.00e+00    1.0000 >    1.6060   -0.0671    0.3812  737.8820 9820.9850   -1.2700    2.9389   0.22   0.2 111.9 10     0.0000    0.0321
ML13         ?    BHZ  i P      c 20230914 1625    0.4391 GAU  6.50e-04 -1.00e+00 -1.00e+00 -1.00e+00    1.0000 >    1.0620   -0.0011    1.6324  737.1780 9821.5410   -1.2220    3.5628 348.79 348.8 114.4 10     0.0000    0.0212
ML13         ?    BHE  e S      ? 20230914 1625    1.1967 GAU  2.61e-03 -1.00e+00 -1.00e+00 -1.00e+00    1.0000 >    1.8367   -0.0183    1.1840  737.1780 9821.5410   -1.2220    3.5628 348.79 348.8 103.7 10     0.0000    0.0367
ML10         ?    BHZ  e P      c 20230914 1625    0.5786 GAU  6.74e-04 -1.00e+00 -1.00e+00 -1.00e+00    1.0000 >    1.0639    0.1364    0.4762  736.5490 9821.3650   -1.2200    3.5723 338.29 338.3 114.3 10     0.0000    0.0213
ML10         ?    BHN  e S      ? 20230914 1625    1.4406 GAU  3.31e-04 -1.00e+00 -1.00e+00 -1.00e+00    1.0000 >    1.8400    0.2223    0.2117  736.5490 9821.3650   -1.2200    3.5723 338.29 338.3 103.6 10     0.0000    0.0368
ML05         ?    BHZ  i P      c 20230914 1625    0.7681 GAU  4.68e-04 -1.00e+00  1.41e+02 -1.00e+00    1.0000 >    1.2382    0.1516    0.4713  736.2660 9822.0830   -1.1500    4.3441 338.32 338.3 108.7 10     0.0000    0.0248
ML05         ?    BHN  e S      ? 20230914 1625    1.7606 GAU  2.09e-04 -1.00e+00  2.52e+02 -1.00e+00    1.0000 >    2.1343    0.2480    0.1509  736.2660 9822.0830   -1.1500    4.3441 338.32 338.3  97.1  9     0.0000    0.0427
ML07         ?    BHZ  i P      c 20230914 1625    0.8018 GAU  3.44e-03 -1.00e+00 -1.00e+00 -1.00e+00    1.0000 >    1.3389    0.0847    0.5005  737.4430 9822.8030   -1.1120    4.7760 354.86 354.9 106.2 10     0.0000    0.0268
ML07         ?    BHE  e S      ? 20230914 1625    1.8522 GAU  5.42e-04 -1.00e+00 -1.00e+00 -1.00e+00    1.0000 >    2.3013    0.1726    0.4063  737.4430 9822.8030   -1.1120    4.7760 354.86 354.9  95.3  9     0.0000    0.0460
ML12         ?    BHZ  i P      c 20230914 1625    0.8705 GAU  1.40e-03 -1.00e+00 -1.00e+00 -1.00e+00    1.0000 >    1.4867    0.0055    1.4405  736.8520 9823.3800   -0.9890    5.4302 349.19 349.2 102.7 10     0.0000    0.0297
ML12         ?    BHE  e S      ? 20230914 1625    1.9862 GAU  1.06e-03 -1.00e+00  8.66e+01 -1.00e+00    1.0000 >    2.5396    0.0683    0.8205  736.8520 9823.3800   -0.9890    5.4302 349.19 349.2  93.7  9     0.0000    0.0508
END_PHASE
END_NLLOC

