NLLOC "./loc/SEML.20230928.083930.grid0" "LOCATED" "Location completed."
PUBLIC_ID None
SIGNATURE "Arham Zakki Edelo - edelo.17034@mhs.its.ac.id   obs:./obs/2023_09.obs   NLLoc:v7.00.10(30Aug2020)   run:22Jan2024 21h56m27"
COMMENT "SEML"
GRID  2001 2001 1001  727 9811 -2  0.01 0.01 0.01 PROB_DENSITY
SEARCH OCTREE nInitial 4851 nEvaluated 20011 smallestNodeSide 0.007440/0.007440/0.007102 oct_tree_integral 6.886372e-03 scatter_volume 6.886372e-03
HYPOCENTER  x 738.045 y 9818.15 z 0.247869  OT 29.691  ix -1 iy -1 iz -1 MAXIMUM_LIKELIHOOD
GEOGRAPHIC  OT 2023 09 28  08 39 29.691031  Lat 9818.146577 Long 738.045387 Depth 0.247869
QUALITY  Pmax 4.64463e+56 MFmin 69.6808 MFmax 82.2552 RMS 0.0227728 Nphs 18 Gap 295.756 Dist 1.00585 Mamp -9.90 0 Mdur -9.90 0
VPVSRATIO  VpVsRatio 1.7441  Npair 9  Diff 0.501377
STATISTICS  ExpectX 738.019430 Y 9818.143916 Z 0.207446  CovXX 0.00851182 XY -0.00127842 XZ 0.00280908 YY 0.00637757 YZ 0.000780321 ZZ 0.0130153 EllAz1  214.487 Dip1  16.0049 Len1  0.135846 Az2  310.228 Dip2  19.2244 Len2  0.171275 Len3  2.251985e-01
STAT_GEOG  ExpectLat 9818.143916 Long 738.019430 Depth 0.207446
TRANSFORM  NONE
QML_OriginQuality  assocPhCt 18  usedPhCt 18  assocStaCt -1  usedStaCt 9  depthPhCt -1  stdErr 0.0227728  azGap 295.756  secAzGap 295.756  gtLevel -  minDist 1.00585 maxDist 4.69523 medDist 2.38105
QML_OriginUncertainty  horUnc -1  minHorUnc 0.115294  maxHorUnc 0.144751  azMaxHorUnc 115.074
QML_ConfidenceEllipsoid  semiMajorAxisLength 0.225198  semiMinorAxisLength 0.135846  semiIntermediateAxisLength 0.171275  majorAxisPlunge 64.5665  majorAxisAzimuth 87.3902  majorAxisRotation 307.005
FOCALMECH  Hyp  9818.146577 738.045387 0.247869 Mech  0 0 0 mf  0 nObs -1
PHASE ID Ins Cmp On Pha  FM Date     HrMn   Sec     Err  ErrMag    Coda      Amp       Per       PriorWt  >   TTpred    Res       Weight    StaLoc(X  Y         Z)        SDist    SAzim  RAz  RDip RQual    Tcorr       TTerr
ML06         ?    BHZ  i P      c 20230928 0839   30.3322 GAU  1.56e-03 -1.00e+00  3.16e+01 -1.00e+00    1.0000 >    0.5144    0.1267    0.0083  738.3100 9819.1170   -1.3960    1.0059  15.25  15.3 147.5 10     0.0000    0.0103
ML06         ?    BHN  e S      ? 20230928 0839   30.8289 GAU  2.47e-03 -1.00e+00 -1.00e+00 -1.00e+00    1.0000 >    0.8987    0.2391    0.0225  738.3100 9819.1170   -1.3960    1.0059  15.25  15.3 147.0 10     0.0000    0.0180
ML04         ?    BHZ  e P      c 20230928 0839   30.3076 GAU  1.72e-03 -1.00e+00 -1.00e+00 -1.00e+00    1.0000 >    0.6189   -0.0024    1.9532  737.1400 9819.2520   -1.5710    1.4289 320.68 320.7 140.4 10     0.0000    0.0124
ML04         ?    BHN  e S      ? 20230928 0839   30.7851 GAU  5.22e-04 -1.00e+00  7.70e+02 -1.00e+00    1.0000 >    1.0800    0.0141    1.5466  737.1400 9819.2520   -1.5710    1.4289 320.68 320.7 139.7 10     0.0000    0.0216
ML02         ?    BHZ  e P      d 20230928 0839   30.5716 GAU  1.62e-03 -1.00e+00 -1.00e+00 -1.00e+00    1.0000 >    0.6929    0.1877    0.0223  736.5970 9819.4060   -1.4960    1.9194 311.01 311.0 130.1 10     0.0000    0.0139
ML02         ?    BHE  e S      ? 20230928 0839   31.2378 GAU  5.20e-04 -1.00e+00 -1.00e+00 -1.00e+00    1.0000 >    1.2097    0.3370    0.0011  736.5970 9819.4060   -1.4960    1.9194 311.01 311.0 129.0 10     0.0000    0.0242
ML14         ?    BHZ  e P      c 20230928 0839   30.3242 GAU  3.12e-03 -1.00e+00 -1.00e+00 -1.00e+00    1.0000 >    0.6762   -0.0430    0.7864  737.5530 9820.0110   -1.3980    1.9283 345.21 345.2 128.3 10     0.0000    0.0135
ML14         ?    BHN  e S      ? 20230928 0839   30.8252 GAU  3.74e-04 -1.00e+00  3.31e+02 -1.00e+00    1.0000 >    1.1816   -0.0474    0.8537  737.5530 9820.0110   -1.3980    1.9283 345.21 345.2 127.1 10     0.0000    0.0236
ML11         ?    BHZ  i P      c 20230928 0839   30.4524 GAU  1.27e-03 -1.00e+00 -1.00e+00 -1.00e+00    1.0000 >    0.7580    0.0034    1.8855  738.4670 9820.4900   -1.3120    2.3810  10.20  10.2 120.6 10     0.0000    0.0152
ML11         ?    BHN  e S      ? 20230928 0839   31.0235 GAU  1.20e-03 -1.00e+00 -1.00e+00 -1.00e+00    1.0000 >    1.3255    0.0069    1.5739  738.4670 9820.4900   -1.3120    2.3810  10.20  10.2 118.9 10     0.0000    0.0265
ML09         ?    BHZ  i P      c 20230928 0839   30.5455 GAU  3.83e-04 -1.00e+00  2.94e+01 -1.00e+00    1.0000 >    0.8573   -0.0028    1.8642  737.8820 9820.9850   -1.2700    2.8431 356.71 356.7 115.1 10     0.0000    0.0171
ML09         ?    BHE  e S      ? 20230928 0839   31.1916 GAU  3.90e-04 -1.00e+00  3.95e+02 -1.00e+00    1.0000 >    1.4998    0.0008    1.5414  737.8820 9820.9850   -1.2700    2.8431 356.71 356.7 112.9 10     0.0000    0.0300
ML13         ?    BHZ  e P      d 20230928 0839   30.5876 GAU  5.24e-04 -1.00e+00  1.59e+02 -1.00e+00    1.0000 >    1.0089   -0.1124    0.0837  737.1780 9821.5410   -1.2220    3.5035 345.67 345.7 109.4 10     0.0000    0.0202
ML13         ?    BHN  e S      ? 20230928 0839   31.2787 GAU  2.76e-04 -1.00e+00  2.31e+01 -1.00e+00    1.0000 >    1.7660   -0.1783    0.0433  737.1780 9821.5410   -1.2220    3.5035 345.67 345.7 106.3 10     0.0000    0.0353
ML05         ?    BHZ  e P      d 20230928 0839   30.8886 GAU  5.24e-04 -1.00e+00  2.30e+02 -1.00e+00    1.0000 >    1.2024   -0.0049    1.6927  736.2660 9822.0830   -1.1500    4.3199 335.68 335.7 104.4 10     0.0000    0.0240
ML05         ?    BHN  e S      ? 20230928 0839   31.7937 GAU  4.53e-04 -1.00e+00  2.90e+02 -1.00e+00    1.0000 >    2.1055   -0.0028    1.2990  736.2660 9822.0830   -1.1500    4.3199 335.68 335.7 100.3 10     0.0000    0.0421
ML07         ?    BHZ  i P      c 20230928 0839   30.9862 GAU  5.09e-04 -1.00e+00 -1.00e+00 -1.00e+00    1.0000 >    1.2926    0.0026    1.6311  737.4430 9822.8030   -1.1120    4.6952 352.63 352.6 102.7 10     0.0000    0.0259
ML07         ?    BHE  e S      ? 20230928 0839   31.9652 GAU  1.00e-03 -1.00e+00 -1.00e+00 -1.00e+00    1.0000 >    2.2635    0.0106    1.1911  737.4430 9822.8030   -1.1120    4.6952 352.63 352.6  98.4 10     0.0000    0.0453
END_PHASE
END_NLLOC

