NLLOC "./loc/SEML.20230928.083524.grid0" "LOCATED" "Location completed."
PUBLIC_ID None
SIGNATURE "Arham Zakki Edelo - edelo.17034@mhs.its.ac.id   obs:./obs/2023_09.obs   NLLoc:v7.00.10(30Aug2020)   run:22Jan2024 21h56m14"
COMMENT "SEML"
GRID  2001 2001 1001  727 9811 -2  0.01 0.01 0.01 PROB_DENSITY
SEARCH OCTREE nInitial 4851 nEvaluated 20003 smallestNodeSide 0.007440/0.007440/0.007102 oct_tree_integral 8.005355e-03 scatter_volume 7.992902e-03
HYPOCENTER  x 737.874 y 9818.6 z 0.816051  OT 23.6644  ix -1 iy -1 iz -1 MAXIMUM_LIKELIHOOD
GEOGRAPHIC  OT 2023 09 28  08 35 23.664381  Lat 9818.600446 Long 737.874256 Depth 0.816051
QUALITY  Pmax 7.17372e+91 MFmin 97.2635 MFmax 113.701 RMS 0.0326315 Nphs 26 Gap 262.09 Dist 0.675796 Mamp -9.90 0 Mdur -9.90 0
VPVSRATIO  VpVsRatio 1.7238  Npair 13  Diff 0.585333
STATISTICS  ExpectX 737.908613 Y 9818.579579 Z 0.794559  CovXX 0.0127412 XY -0.00342316 XZ -0.00206327 YY 0.00887687 YZ -0.000886895 ZZ 0.0101737 EllAz1  34.3227 Dip1  24.6719 Len1  0.146096 Az2  176.482 Dip2  59.8149 Len2  0.193573 Len3  2.311066e-01
STAT_GEOG  ExpectLat 9818.579579 Long 737.908613 Depth 0.794559
TRANSFORM  NONE
QML_OriginQuality  assocPhCt 26  usedPhCt 26  assocStaCt -1  usedStaCt 13  depthPhCt -1  stdErr 0.0326315  azGap 262.09  secAzGap 262.09  gtLevel -  minDist 0.675796 maxDist 4.88765 medDist 2.46314
QML_OriginUncertainty  horUnc -1  minHorUnc 0.125777  maxHorUnc 0.184124  azMaxHorUnc 120.279
QML_ConfidenceEllipsoid  semiMajorAxisLength 0.231107  semiMinorAxisLength 0.146096  semiIntermediateAxisLength 0.193573  majorAxisPlunge -16.2774  majorAxisAzimuth 116.614  majorAxisRotation 150.191
FOCALMECH  Hyp  9818.600446 737.874256 0.816051 Mech  0 0 0 mf  0 nObs -1
PHASE ID Ins Cmp On Pha  FM Date     HrMn   Sec     Err  ErrMag    Coda      Amp       Per       PriorWt  >   TTpred    Res       Weight    StaLoc(X  Y         Z)        SDist    SAzim  RAz  RDip RQual    Tcorr       TTerr
ML06         ?    BHZ  i P      c 20230928 0835   24.2776 GAU  4.99e-04 -1.00e+00  3.07e+02 -1.00e+00    1.0000 >    0.6117    0.0015    1.7661  738.3100 9819.1170   -1.3960    0.6758  40.15  40.1 162.4 10     0.0000    0.0122
ML06         ?    BHN  e S      ? 20230928 0835   24.7170 GAU  1.12e-03 -1.00e+00 -1.00e+00 -1.00e+00    1.0000 >    1.0545   -0.0018    1.6086  738.3100 9819.1170   -1.3960    0.6758  40.15  40.1 161.1 10     0.0000    0.0211
ML04         ?    BHZ  e P      c 20230928 0835   24.3555 GAU  1.04e-03 -1.00e+00 -1.00e+00 -1.00e+00    1.0000 >    0.6844    0.0067    1.6941  737.1400 9819.2520   -1.5710    0.9817 311.58 311.6 156.8 10     0.0000    0.0137
ML04         ?    BHE  e S      ? 20230928 0835   24.8603 GAU  5.05e-04 -1.00e+00  2.79e+02 -1.00e+00    1.0000 >    1.1798    0.0161    1.4083  737.1400 9819.2520   -1.5710    0.9817 311.58 311.6 155.0 10     0.0000    0.0236
ML14         ?    BHZ  i P      c 20230928 0835   24.3857 GAU  1.40e-03 -1.00e+00 -1.00e+00 -1.00e+00    1.0000 >    0.6992    0.0222    1.2943  737.5530 9820.0110   -1.3980    1.4467 347.17 347.2 145.7 10     0.0000    0.0140
ML14         ?    BHE  e S      ? 20230928 0835   24.8957 GAU  8.62e-04 -1.00e+00  7.36e+02 -1.00e+00    1.0000 >    1.2050    0.0263    1.2143  737.5530 9820.0110   -1.3980    1.4467 347.17 347.2 142.8 10     0.0000    0.0241
ML02         ?    BHZ  i P      c 20230928 0835   24.3818 GAU  6.74e-04 -1.00e+00 -1.00e+00 -1.00e+00    1.0000 >    0.7312   -0.0138    1.5891  736.5970 9819.4060   -1.4960    1.5101 302.24 302.2 145.7 10     0.0000    0.0146
ML02         ?    BHN  e S      ? 20230928 0835   24.9028 GAU  1.29e-03 -1.00e+00 -1.00e+00 -1.00e+00    1.0000 >    1.2602   -0.0218    1.3107  736.5970 9819.4060   -1.4960    1.5101 302.24 302.2 142.8 10     0.0000    0.0252
ML11         ?    BHZ  i P      c 20230928 0835   24.4075 GAU  1.93e-03 -1.00e+00 -1.00e+00 -1.00e+00    1.0000 >    0.7669   -0.0238    1.3188  738.4670 9820.4900   -1.3120    1.9803  17.42  17.4 135.6 10     0.0000    0.0153
ML11         ?    BHN  e S      ? 20230928 0835   24.9692 GAU  7.49e-04 -1.00e+00  4.50e+01 -1.00e+00    1.0000 >    1.3211   -0.0163    1.3826  738.4670 9820.4900   -1.3120    1.9803  17.42  17.4 131.4 10     0.0000    0.0264
ML09         ?    BHZ  i P      c 20230928 0835   24.4988 GAU  4.49e-04 -1.00e+00  1.75e+02 -1.00e+00    1.0000 >    0.8350   -0.0005    1.7015  737.8820 9820.9850   -1.2700    2.3846   0.19   0.2 129.1 10     0.0000    0.0167
ML09         ?    BHE  e S      ? 20230928 0835   25.1024 GAU  6.76e-04 -1.00e+00  3.31e+02 -1.00e+00    1.0000 >    1.4377    0.0004    1.4461  737.8820 9820.9850   -1.2700    2.3846   0.19   0.2 124.0 10     0.0000    0.0288
ML03         ?    BHZ  i P      c 20230928 0835   24.5885 GAU  7.49e-04 -1.00e+00 -1.00e+00 -1.00e+00    1.0000 >    0.8629    0.0612    0.4790  736.8800 9820.8540   -1.3350    2.4631 336.19 336.2 129.0 10     0.0000    0.0173
ML03         ?    BHN  e S      ? 20230928 0835   25.2662 GAU  2.01e-03 -1.00e+00  1.83e+01 -1.00e+00    1.0000 >    1.4859    0.1159    0.3144  736.8800 9820.8540   -1.3350    2.4631 336.19 336.2 123.8 10     0.0000    0.0297
ML13         ?    BHZ  i P      c 20230928 0835   24.5760 GAU  1.55e-03 -1.00e+00 -1.00e+00 -1.00e+00    1.0000 >    0.9597   -0.0480    0.6511  737.1780 9821.5410   -1.2220    3.0219 346.68 346.7 121.5 10     0.0000    0.0192
ML13         ?    BHE  e S      ? 20230928 0835   25.2230 GAU  8.38e-04 -1.00e+00 -1.00e+00 -1.00e+00    1.0000 >    1.6506   -0.0919    0.1855  737.1780 9821.5410   -1.2220    3.0219 346.68 346.7 114.8 10     0.0000    0.0330
ML10         ?    BHZ  e P      c 20230928 0835   24.6197 GAU  1.35e-03 -1.00e+00  1.24e+03 -1.00e+00    1.0000 >    0.9689   -0.0136    1.5357  736.5490 9821.3650   -1.2200    3.0658 334.39 334.4 121.1 10     0.0000    0.0194
ML10         ?    BHN  e S      ? 20230928 0835   25.3128 GAU  8.98e-04 -1.00e+00 -1.00e+00 -1.00e+00    1.0000 >    1.6664   -0.0180    1.2556  736.5490 9821.3650   -1.2200    3.0658 334.39 334.4 114.3 10     0.0000    0.0333
ML05         ?    BHZ  i P      c 20230928 0835   24.9643 GAU  1.51e-03 -1.00e+00 -1.00e+00 -1.00e+00    1.0000 >    1.1328    0.1671    0.1589  736.2660 9822.0830   -1.1500    3.8360 335.21 335.2 114.2 10     0.0000    0.0227
ML05         ?    BHN  e S      ? 20230928 0835   25.9133 GAU  1.43e-03 -1.00e+00  2.61e+02 -1.00e+00    1.0000 >    1.9440    0.3050    0.0324  736.2660 9822.0830   -1.1500    3.8360 335.21 335.2 105.9 10     0.0000    0.0389
ML01         ?    BHZ  e P      c 20230928 0835   24.9874 GAU  1.64e-03 -1.00e+00 -1.00e+00 -1.00e+00    1.0000 >    1.2094    0.1136    0.2958  736.4090 9822.5140   -1.1200    4.1789 339.47 339.5 111.8 10     0.0000    0.0242
ML01         ?    BHE  e S      ? 20230928 0835   25.9726 GAU  2.50e-03 -1.00e+00  4.56e+02 -1.00e+00    1.0000 >    2.0724    0.2358    0.0818  736.4090 9822.5140   -1.1200    4.1789 339.47 339.5 103.1 10     0.0000    0.0414
ML07         ?    BHZ  e P      c 20230928 0835   24.9002 GAU  1.82e-03 -1.00e+00 -1.00e+00 -1.00e+00    1.0000 >    1.2192    0.0167    1.3893  737.4430 9822.8030   -1.1120    4.2246 354.14 354.1 111.5 10     0.0000    0.0244
ML07         ?    BHE  e S      ? 20230928 0835   25.7797 GAU  8.63e-04 -1.00e+00 -1.00e+00 -1.00e+00    1.0000 >    2.0887    0.0267    1.1041  737.4430 9822.8030   -1.1120    4.2246 354.14 354.1 102.7 10     0.0000    0.0418
ML12         ?    BHZ  e P      c 20230928 0835   25.1035 GAU  1.64e-03 -1.00e+00 -1.00e+00 -1.00e+00    1.0000 >    1.3635    0.0756    0.4802  736.8520 9823.3800   -0.9890    4.8877 347.93 347.9 107.1 10     0.0000    0.0273
ML12         ?    BHE  e S      ? 20230928 0835   26.1283 GAU  3.92e-03 -1.00e+00  4.18e+02 -1.00e+00    1.0000 >    2.3257    0.1382    0.3018  736.8520 9823.3800   -0.9890    4.8877 347.93 347.9  98.6 10     0.0000    0.0465
END_PHASE
END_NLLOC

