NLLOC "./loc/SEML.20230914.172243.grid0" "LOCATED" "Location completed."
PUBLIC_ID None
SIGNATURE "Arham Zakki Edelo - edelo.17034@mhs.its.ac.id   obs:./obs/2023_09.obs   NLLoc:v7.00.10(30Aug2020)   run:22Jan2024 21h54m59"
COMMENT "SEML"
GRID  2001 2001 1001  727 9811 -2  0.01 0.01 0.01 PROB_DENSITY
SEARCH OCTREE nInitial 4851 nEvaluated 20011 smallestNodeSide 0.014881/0.014881/0.014205 oct_tree_integral 1.568294e-02 scatter_volume 1.547687e-02
HYPOCENTER  x 737.662 y 9818.43 z 0.421875  OT 43.4119  ix -1 iy -1 iz -1 MAXIMUM_LIKELIHOOD
GEOGRAPHIC  OT 2023 09 14  17 22 43.411852  Lat 9818.433036 Long 737.662202 Depth 0.421875
QUALITY  Pmax 3.30002e+65 MFmin 77.1483 MFmax 88.4749 RMS 0.0516622 Nphs 20 Gap 268.964 Dist 0.942045 Mamp -9.90 0 Mdur -9.90 0
VPVSRATIO  VpVsRatio 1.76674  Npair 10  Diff 0.601223
STATISTICS  ExpectX 737.639784 Y 9818.391111 Z 0.357275  CovXX 0.0212357 XY 0.000883003 XZ 0.0031514 YY 0.0210797 YZ 0.000579065 ZZ 0.0258781 EllAz1  110.902 Dip1  -23.0982 Len1  0.262093 Az2  14.0513 Dip2  -15.6247 Len2  0.273134 Len3  3.121349e-01
STAT_GEOG  ExpectLat 9818.391111 Long 737.639784 Depth 0.357275
TRANSFORM  NONE
QML_OriginQuality  assocPhCt 20  usedPhCt 20  assocStaCt -1  usedStaCt 10  depthPhCt -1  stdErr 0.0516622  azGap 268.964  secAzGap 268.964  gtLevel -  minDist 0.942045 maxDist 5.01287 medDist 2.38511
QML_OriginUncertainty  horUnc -1  minHorUnc 0.215926  maxHorUnc 0.22517  azMaxHorUnc 47.5251
QML_ConfidenceEllipsoid  semiMajorAxisLength 0.312135  semiMinorAxisLength 0.262093  semiIntermediateAxisLength 0.273134  majorAxisPlunge 61.5844  majorAxisAzimuth 72.9267  majorAxisRotation 69.4133
FOCALMECH  Hyp  9818.433036 737.662202 0.421875 Mech  0 0 0 mf  0 nObs -1
PHASE ID Ins Cmp On Pha  FM Date     HrMn   Sec     Err  ErrMag    Coda      Amp       Per       PriorWt  >   TTpred    Res       Weight    StaLoc(X  Y         Z)        SDist    SAzim  RAz  RDip RQual    Tcorr       TTerr
ML06         ?    BHZ  i P      c 20230914 1722   43.9457 GAU  5.24e-04 -1.00e+00 -1.00e+00 -1.00e+00    1.0000 >    0.5450   -0.0111    1.0731  738.3100 9819.1170   -1.3960    0.9420  43.44  43.4 151.9 10     0.0000    0.0109
ML06         ?    BHN  e S      ? 20230914 1722   44.3859 GAU  1.51e-03 -1.00e+00 -1.00e+00 -1.00e+00    1.0000 >    0.9507    0.0233    1.1999  738.3100 9819.1170   -1.3960    0.9420  43.44  43.4 151.4 10     0.0000    0.0190
ML04         ?    BHZ  i P      c 20230914 1722   44.0434 GAU  1.19e-03 -1.00e+00 -1.00e+00 -1.00e+00    1.0000 >    0.5917    0.0399    0.8929  737.1400 9819.2520   -1.5710    0.9713 327.48 327.5 153.2 10     0.0000    0.0118
ML04         ?    BHE  e S      ? 20230914 1722   44.4555 GAU  1.31e-03 -1.00e+00  2.75e+02 -1.00e+00    1.0000 >    1.0312    0.0124    1.2592  737.1400 9819.2520   -1.5710    0.9713 327.48 327.5 152.8 10     0.0000    0.0206
ML02         ?    BHZ  e P      c 20230914 1722   43.9780 GAU  2.85e-03 -1.00e+00 -1.00e+00 -1.00e+00    1.0000 >    0.6395   -0.0734    1.0433  736.5970 9819.4060   -1.4960    1.4427 312.41 312.4 141.9 10     0.0000    0.0128
ML02         ?    BHN  e S      ? 20230914 1722   44.4372 GAU  9.74e-04 -1.00e+00 -1.00e+00 -1.00e+00    1.0000 >    1.1150   -0.0897    0.8547  736.5970 9819.4060   -1.4960    1.4427 312.41 312.4 141.3 10     0.0000    0.0223
ML14         ?    BHZ  i P      c 20230914 1722   43.9861 GAU  1.86e-03 -1.00e+00 -1.00e+00 -1.00e+00    1.0000 >    0.6414   -0.0671    0.9805  737.5530 9820.0110   -1.3980    1.5817 356.04 356.0 137.8 10     0.0000    0.0128
ML14         ?    BHE  e S      ? 20230914 1722   44.4364 GAU  7.76e-04 -1.00e+00  4.72e+02 -1.00e+00    1.0000 >    1.1189   -0.0943    0.7941  737.5530 9820.0110   -1.3980    1.5817 356.04 356.0 137.0 10     0.0000    0.0224
ML11         ?    BHZ  i P      c 20230914 1722   44.0823 GAU  3.48e-03 -1.00e+00 -1.00e+00 -1.00e+00    1.0000 >    0.7455   -0.0751    1.0282  738.4670 9820.4900   -1.3120    2.2088  21.37  21.4 126.1 10     0.0000    0.0149
ML11         ?    BHN  e S      ? 20230914 1722   44.6703 GAU  1.24e-03 -1.00e+00 -1.00e+00 -1.00e+00    1.0000 >    1.3014   -0.0430    0.8997  738.4670 9820.4900   -1.3120    2.2088  21.37  21.4 124.9 10     0.0000    0.0260
ML09         ?    BHZ  i P      c 20230914 1722   44.2236 GAU  1.71e-03 -1.00e+00  2.28e+02 -1.00e+00    1.0000 >    0.8143   -0.0026    1.2247  737.8820 9820.9850   -1.2700    2.5614   4.92   4.9 121.2 10     0.0000    0.0163
ML09         ?    BHN  e S      ? 20230914 1722   44.8524 GAU  1.17e-03 -1.00e+00  5.27e+02 -1.00e+00    1.0000 >    1.4219    0.0187    1.1424  737.8820 9820.9850   -1.2700    2.5614   4.92   4.9 119.7 10     0.0000    0.0284
ML13         ?    BHZ  i P      c 20230914 1722   44.2609 GAU  7.49e-04 -1.00e+00 -1.00e+00 -1.00e+00    1.0000 >    0.9403   -0.0912    0.8576  737.1780 9821.5410   -1.2220    3.1455 351.14 351.1 115.1 10     0.0000    0.0188
ML13         ?    BHE  e S      ? 20230914 1722   44.9378 GAU  8.98e-04 -1.00e+00 -1.00e+00 -1.00e+00    1.0000 >    1.6424   -0.1164    0.4860  737.1780 9821.5410   -1.2220    3.1455 351.14 351.1 113.1 10     0.0000    0.0328
ML05         ?    BHZ  e P      c 20230914 1722   44.5426 GAU  2.24e-03 -1.00e+00  1.08e+02 -1.00e+00    1.0000 >    1.1134    0.0173    1.2218  736.2660 9822.0830   -1.1500    3.9079 339.07 339.1 109.2 10     0.0000    0.0223
ML05         ?    BHE  e S      ? 20230914 1722   45.3735 GAU  9.77e-04 -1.00e+00 -1.00e+00 -1.00e+00    1.0000 >    1.9456    0.0160    1.0433  736.2660 9822.0830   -1.1500    3.9079 339.07 339.1 106.6 10     0.0000    0.0389
ML07         ?    BHZ  i P      d 20230914 1722   44.6551 GAU  2.51e-04 -1.00e+00 -1.00e+00 -1.00e+00    1.0000 >    1.2239    0.0194    1.1852  737.4430 9822.8030   -1.1120    4.3755 357.13 357.1 106.5 10     0.0000    0.0245
ML07         ?    BHN  e S      ? 20230914 1722   45.6064 GAU  4.51e-04 -1.00e+00 -1.00e+00 -1.00e+00    1.0000 >    2.1388    0.0558    0.6556  737.4430 9822.8030   -1.1120    4.3755 357.13 357.1 103.6 10     0.0000    0.0428
ML12         ?    BHZ  i P      c 20230914 1722   44.7729 GAU  2.79e-03 -1.00e+00 -1.00e+00 -1.00e+00    1.0000 >    1.3695   -0.0085    1.1233  736.8520 9823.3800   -0.9890    5.0129 350.70 350.7 103.2 10     0.0000    0.0274
ML12         ?    BHE  e S      ? 20230914 1722   45.7862 GAU  5.35e-04 -1.00e+00  1.71e+01 -1.00e+00    1.0000 >    2.3799   -0.0055    1.0345  736.8520 9823.3800   -0.9890    5.0129 350.70 350.7  67.2 10     0.0000    0.0476
END_PHASE
END_NLLOC

