NLLOC "./loc/SEML.20230914.162811.grid0" "LOCATED" "Location completed."
PUBLIC_ID None
SIGNATURE "Arham Zakki Edelo - edelo.17034@mhs.its.ac.id   obs:./obs/2023_09.obs   NLLoc:v7.00.10(30Aug2020)   run:22Jan2024 21h54m30"
COMMENT "SEML"
GRID  2001 2001 1001  727 9811 -2  0.01 0.01 0.01 PROB_DENSITY
SEARCH OCTREE nInitial 4851 nEvaluated 20003 smallestNodeSide 0.014881/0.014881/0.014205 oct_tree_integral 2.174435e-02 scatter_volume 2.174435e-02
HYPOCENTER  x 738.644 y 9818.27 z 0.0241477  OT 10.9819  ix -1 iy -1 iz -1 MAXIMUM_LIKELIHOOD
GEOGRAPHIC  OT 2023 09 14  16 28 10.981918  Lat 9818.269345 Long 738.644345 Depth 0.024148
QUALITY  Pmax 3.1351e+83 MFmin 88.5447 MFmax 105.921 RMS 0.0306607 Nphs 24 Gap 303.604 Dist 0.911211 Mamp -9.90 0 Mdur -9.90 0
VPVSRATIO  VpVsRatio 1.79414  Npair 12  Diff 0.668627
STATISTICS  ExpectX 738.648560 Y 9818.290775 Z 0.095004  CovXX 0.0299369 XY -0.00529798 XZ -0.0213608 YY 0.0109015 YZ 0.00478323 ZZ 0.0347113 EllAz1  26.3306 Dip1  11.5701 Len1  0.18189 Az2  306.384 Dip2  -40.4538 Len2  0.198979 Len3  4.404700e-01
STAT_GEOG  ExpectLat 9818.290775 Long 738.648560 Depth 0.095004
TRANSFORM  NONE
QML_OriginQuality  assocPhCt 24  usedPhCt 24  assocStaCt -1  usedStaCt 12  depthPhCt -1  stdErr 0.0306607  azGap 303.604  secAzGap 303.604  gtLevel -  minDist 0.911211 maxDist 5.41584 medDist 3.20293
QML_OriginUncertainty  horUnc -1  minHorUnc 0.148022  maxHorUnc 0.268361  azMaxHorUnc 104.551
QML_ConfidenceEllipsoid  semiMajorAxisLength 0.44047  semiMinorAxisLength 0.18189  semiIntermediateAxisLength 0.198979  majorAxisPlunge -47.2245  majorAxisAzimuth 103.547  majorAxisRotation 255.913
FOCALMECH  Hyp  9818.269345 738.644345 0.024148 Mech  0 0 0 mf  0 nObs -1
PHASE ID Ins Cmp On Pha  FM Date     HrMn   Sec     Err  ErrMag    Coda      Amp       Per       PriorWt  >   TTpred    Res       Weight    StaLoc(X  Y         Z)        SDist    SAzim  RAz  RDip RQual    Tcorr       TTerr
ML06         ?    BHZ  i P      c 20230914 1628   11.5635 GAU  1.88e-03 -1.00e+00  3.22e+02 -1.00e+00    1.0000 >    0.4526    0.1289    0.0938  738.3100 9819.1170   -1.3960    0.9112 338.47 338.5 146.1 10     0.0000    0.0091
ML06         ?    BHE  e S      ? 20230914 1628   11.9972 GAU  1.99e-03 -1.00e+00 -1.00e+00 -1.00e+00    1.0000 >    0.7927    0.2226    0.0022  738.3100 9819.1170   -1.3960    0.9112 338.47 338.5 145.3 10     0.0000    0.0159
ML04         ?    BHZ  e P      d 20230914 1628   11.6249 GAU  4.76e-03 -1.00e+00  2.86e+03 -1.00e+00    1.0000 >    0.6458   -0.0029    1.6836  737.1400 9819.2520   -1.5710    1.7968 303.15 303.2 128.9 10     0.0000    0.0129
ML04         ?    BHN  e S      ? 20230914 1628   12.1045 GAU  5.99e-04 -1.00e+00  6.78e+02 -1.00e+00    1.0000 >    1.1294   -0.0068    1.4612  737.1400 9819.2520   -1.5710    1.7968 303.15 303.2 127.6 10     0.0000    0.0226
ML14         ?    BHZ  i P      c 20230914 1628   11.6484 GAU  2.72e-03 -1.00e+00 -1.00e+00 -1.00e+00    1.0000 >    0.6700   -0.0035    1.6779  737.5530 9820.0110   -1.3980    2.0553 327.93 327.9 121.5 10     0.0000    0.0134
ML14         ?    BHN  e S      ? 20230914 1628   12.1527 GAU  5.78e-04 -1.00e+00  2.00e+02 -1.00e+00    1.0000 >    1.1739   -0.0032    1.4774  737.5530 9820.0110   -1.3980    2.0553 327.93 327.9 119.6 10     0.0000    0.0235
ML11         ?    BHZ  i P      c 20230914 1628   11.6823 GAU  1.94e-03 -1.00e+00  1.15e+02 -1.00e+00    1.0000 >    0.6952    0.0052    1.6846  738.4670 9820.4900   -1.3120    2.2277 355.43 355.4 117.6 10     0.0000    0.0139
ML11         ?    BHN  e S      ? 20230914 1628   12.2280 GAU  2.26e-03 -1.00e+00 -1.00e+00 -1.00e+00    1.0000 >    1.2195    0.0266    1.2648  738.4670 9820.4900   -1.3120    2.2277 355.43 355.4 115.1 10     0.0000    0.0244
ML02         ?    BHZ  e P      c 20230914 1628   11.7845 GAU  8.73e-04 -1.00e+00 -1.00e+00 -1.00e+00    1.0000 >    0.7495    0.0531    0.7001  736.5970 9819.4060   -1.4960    2.3417 299.04 299.0 119.6 10     0.0000    0.0150
ML02         ?    BHN  e S      ? 20230914 1628   12.3634 GAU  4.49e-04 -1.00e+00  2.68e+03 -1.00e+00    1.0000 >    1.3120    0.0695    0.5685  736.5970 9819.4060   -1.4960    2.3417 299.04 299.0 117.5 10     0.0000    0.0262
ML09         ?    BHZ  i P      c 20230914 1628   11.8080 GAU  5.39e-04 -1.00e+00  2.05e+02 -1.00e+00    1.0000 >    0.8294   -0.0033    1.6206  737.8820 9820.9850   -1.2700    2.8206 344.32 344.3 110.6 10     0.0000    0.0166
ML09         ?    BHN  e S      ? 20230914 1628   12.4441 GAU  1.25e-03 -1.00e+00  3.79e+02 -1.00e+00    1.0000 >    1.4564    0.0058    1.3935  737.8820 9820.9850   -1.2700    2.8206 344.32 344.3 106.6 10     0.0000    0.0291
ML13         ?    BHZ  i P      c 20230914 1628   11.9156 GAU  6.76e-04 -1.00e+00 -1.00e+00 -1.00e+00    1.0000 >    1.0122   -0.0785    0.3634  737.1780 9821.5410   -1.2220    3.5852 335.86 335.9 104.5 10     0.0000    0.0202
ML13         ?    BHE  e S      ? 20230914 1628   12.6536 GAU  2.21e-03 -1.00e+00 -1.00e+00 -1.00e+00    1.0000 >    1.7799   -0.1083    0.2585  737.1780 9821.5410   -1.2220    3.5852 335.86 335.9  97.0  9     0.0000    0.0356
ML10         ?    BHZ  e P      c 20230914 1628   12.0406 GAU  9.06e-04 -1.00e+00 -1.00e+00 -1.00e+00    1.0000 >    1.0503    0.0085    1.5323  736.5490 9821.3650   -1.2200    3.7381 325.91 325.9 103.7 10     0.0000    0.0210
ML10         ?    BHN  e S      ? 20230914 1628   12.8353 GAU  6.24e-04 -1.00e+00 -1.00e+00 -1.00e+00    1.0000 >    1.8472    0.0061    1.2681  736.5490 9821.3650   -1.2200    3.7381 325.91 325.9  95.3  9     0.0000    0.0369
ML05         ?    BHZ  e P      c 20230914 1628   12.2646 GAU  6.12e-03 -1.00e+00 -1.00e+00 -1.00e+00    1.0000 >    1.2344    0.0483    0.8881  736.2660 9822.0830   -1.1500    4.4945 328.05 328.1  99.8 10     0.0000    0.0247
ML05         ?    BHE  e S      ? 20230914 1628   13.2515 GAU  2.07e-03 -1.00e+00 -1.00e+00 -1.00e+00    1.0000 >    2.1715    0.0981    0.4231  736.2660 9822.0830   -1.1500    4.4945 328.05 328.1  91.8  9     0.0000    0.0434
ML07         ?    BHZ  i P      c 20230914 1628   12.2688 GAU  3.48e-03 -1.00e+00 -1.00e+00 -1.00e+00    1.0000 >    1.2804    0.0065    1.4518  737.4430 9822.8030   -1.1120    4.6901 345.16 345.2  98.9 10     0.0000    0.0256
ML07         ?    BHN  e S      ? 20230914 1628   13.2666 GAU  1.55e-03 -1.00e+00 -1.00e+00 -1.00e+00    1.0000 >    2.2523    0.0324    1.0508  737.4430 9822.8030   -1.1120    4.6901 345.16 345.2  91.5  9     0.0000    0.0450
ML01         ?    BHZ  e P      c 20230914 1628   12.2267 GAU  4.02e-03 -1.00e+00 -1.00e+00 -1.00e+00    1.0000 >    1.3086   -0.0638    0.5245  736.4090 9822.5140   -1.1200    4.7973 332.23 332.2  98.6 10     0.0000    0.0262
ML01         ?    BHE  e S      ? 20230914 1628   13.1883 GAU  2.77e-03 -1.00e+00  4.29e+02 -1.00e+00    1.0000 >    2.3012   -0.0948    0.3996  736.4090 9822.5140   -1.1200    4.7973 332.23 332.2  91.4  9     0.0000    0.0460
ML12         ?    BHZ  i P      c 20230914 1628   12.4155 GAU  9.32e-04 -1.00e+00 -1.00e+00 -1.00e+00    1.0000 >    1.4545   -0.0209    1.1862  736.8520 9823.3800   -0.9890    5.4158 340.67 340.7  96.3 10     0.0000    0.0291
ML12         ?    BHN  e S      ? 20230914 1628   13.5179 GAU  1.93e-03 -1.00e+00 -1.00e+00 -1.00e+00    1.0000 >    2.5550   -0.0190    1.0252  736.8520 9823.3800   -0.9890    5.4158 340.67 340.7  90.9  9     0.0000    0.0511
END_PHASE
END_NLLOC

