NLLOC "./loc/SEML.20230928.083738.grid0" "LOCATED" "Location completed."
PUBLIC_ID None
SIGNATURE "Arham Zakki Edelo - edelo.17034@mhs.its.ac.id   obs:./obs/2023_09.obs   NLLoc:v7.00.10(30Aug2020)   run:22Jan2024 21h56m21"
COMMENT "SEML"
GRID  2001 2001 1001  727 9811 -2  0.01 0.01 0.01 PROB_DENSITY
SEARCH OCTREE nInitial 4851 nEvaluated 20003 smallestNodeSide 0.014881/0.014881/0.014205 oct_tree_integral 5.457839e-02 scatter_volume 5.455276e-02
HYPOCENTER  x 738.912 y 9817.39 z -1.62358  OT 37.7401  ix -1 iy -1 iz -1 MAXIMUM_LIKELIHOOD
GEOGRAPHIC  OT 2023 09 28  08 37 37.740103  Lat 9817.391369 Long 738.912202 Depth -1.623580
QUALITY  Pmax 3.80055e+40 MFmin 50.2385 MFmax 61.7714 RMS 0.0252255 Nphs 14 Gap 319.205 Dist 1.82769 Mamp -9.90 0 Mdur -9.90 0
VPVSRATIO  VpVsRatio 1.71265  Npair 7  Diff 0.573345
STATISTICS  ExpectX 738.742632 Y 9817.431131 Z -1.214932  CovXX 0.145943 XY -0.0483144 XZ -0.286881 YY 0.0279709 YZ 0.0953426 ZZ 0.718707 EllAz1  26.4985 Dip1  3.44718 Len1  0.190691 Az2  297.994 Dip2  -23.4281 Len2  0.329955 Len3  1.733700e+00
STAT_GEOG  ExpectLat 9817.431131 Long 738.742632 Depth -1.214932
TRANSFORM  NONE
QML_OriginQuality  assocPhCt 14  usedPhCt 14  assocStaCt -1  usedStaCt 7  depthPhCt -1  stdErr 0.0252255  azGap 319.205  secAzGap 319.205  gtLevel -  minDist 1.82769 maxDist 5.60752 medDist 3.13045
QML_OriginUncertainty  horUnc -1  minHorUnc 0.156947  maxHorUnc 0.612674  azMaxHorUnc 109.66
QML_ConfidenceEllipsoid  semiMajorAxisLength 1.7337  semiMinorAxisLength 0.190691  semiIntermediateAxisLength 0.329955  majorAxisPlunge -66.2893  majorAxisAzimuth 108.615  majorAxisRotation 192.599
FOCALMECH  Hyp  9817.391369 738.912202 -1.623580 Mech  0 0 0 mf  0 nObs -1
PHASE ID Ins Cmp On Pha  FM Date     HrMn   Sec     Err  ErrMag    Coda      Amp       Per       PriorWt  >   TTpred    Res       Weight    StaLoc(X  Y         Z)        SDist    SAzim  RAz  RDip RQual    Tcorr       TTerr
ML06         ?    BHZ  i P      c 20230928 0837   38.5060 GAU  8.11e-04 -1.00e+00 -1.00e+00 -1.00e+00    1.0000 >    0.5062    0.2596    0.0000  738.3100 9819.1170   -1.3960    1.8277 340.76 340.8  82.8 10     0.0000    0.0101
ML06         ?    BHN  e S      ? 20230928 0837   39.0719 GAU  3.47e-04 -1.00e+00 -1.00e+00 -1.00e+00    1.0000 >    0.8733    0.4585    0.0000  738.3100 9819.1170   -1.3960    1.8277 340.76 340.8  82.8 10     0.0000    0.0175
ML14         ?    BHZ  e P      c 20230928 0837   38.5144 GAU  5.39e-04 -1.00e+00 -1.00e+00 -1.00e+00    1.0000 >    0.8133   -0.0390    0.9672  737.5530 9820.0110   -1.3980    2.9513 332.58 332.6  85.4 10     0.0000    0.0163
ML14         ?    BHE  e S      ? 20230928 0837   39.0699 GAU  4.37e-04 -1.00e+00  3.88e+02 -1.00e+00    1.0000 >    1.4031   -0.0733    0.5633  737.5530 9820.0110   -1.3980    2.9513 332.58 332.6  85.4 10     0.0000    0.0281
ML02         ?    BHZ  e P      c 20230928 0837   38.5812 GAU  4.99e-04 -1.00e+00 -1.00e+00 -1.00e+00    1.0000 >    0.8440   -0.0028    1.7960  736.5970 9819.4060   -1.4960    3.0690 311.03 311.0  87.4  9     0.0000    0.0169
ML02         ?    BHN  e S      ? 20230928 0837   39.2074 GAU  8.98e-04 -1.00e+00 -1.00e+00 -1.00e+00    1.0000 >    1.4559    0.0113    1.4825  736.5970 9819.4060   -1.4960    3.0690 311.03 311.0  87.4  9     0.0000    0.0291
ML11         ?    BHZ  e P      c 20230928 0837   38.6055 GAU  1.94e-03 -1.00e+00 -1.00e+00 -1.00e+00    1.0000 >    0.8645    0.0009    1.7847  738.4670 9820.4900   -1.3120    3.1305 351.82 351.8  84.1 10     0.0000    0.0173
ML11         ?    BHE  e S      ? 20230928 0837   39.2278 GAU  5.20e-04 -1.00e+00 -1.00e+00 -1.00e+00    1.0000 >    1.4914   -0.0037    1.5712  738.4670 9820.4900   -1.3120    3.1305 351.82 351.8  84.1 10     0.0000    0.0298
ML09         ?    BHZ  i P      c 20230928 0837   38.7723 GAU  3.56e-04 -1.00e+00  4.17e+01 -1.00e+00    1.0000 >    1.0319    0.0003    1.7377  737.8820 9820.9850   -1.2700    3.7384 344.00 344.0  84.4 10     0.0000    0.0206
ML09         ?    BHE  e S      ? 20230928 0837   39.5187 GAU  1.90e-04 -1.00e+00  3.98e+02 -1.00e+00    1.0000 >    1.7802   -0.0016    1.4613  737.8820 9820.9850   -1.2700    3.7384 344.00 344.0  84.4 10     0.0000    0.0356
ML13         ?    BHZ  e P      c 20230928 0837   38.8773 GAU  1.37e-03 -1.00e+00 -1.00e+00 -1.00e+00    1.0000 >    1.2408   -0.1036    0.2511  737.1780 9821.5410   -1.2220    4.4974 337.32 337.3  84.8 10     0.0000    0.0248
ML13         ?    BHN  e S      ? 20230928 0837   39.6784 GAU  1.88e-04 -1.00e+00  3.78e+01 -1.00e+00    1.0000 >    2.1405   -0.2022    0.0313  737.1780 9821.5410   -1.2220    4.4974 337.32 337.3  84.8 10     0.0000    0.0428
ML07         ?    BHZ  e P      c 20230928 0837   39.3073 GAU  9.71e-04 -1.00e+00 -1.00e+00 -1.00e+00    1.0000 >    1.5474    0.0198    1.3262  737.4430 9822.8030   -1.1120    5.6075 344.81 344.8  84.7 10     0.0000    0.0309
ML07         ?    BHN  e S      ? 20230928 0837   40.4361 GAU  3.97e-04 -1.00e+00 -1.00e+00 -1.00e+00    1.0000 >    2.6694    0.0266    1.0274  737.4430 9822.8030   -1.1120    5.6075 344.81 344.8  84.7 10     0.0000    0.0534
END_PHASE
END_NLLOC

