NLLOC "./loc/SEML.20230918.053642.grid0" "LOCATED" "Location completed."
PUBLIC_ID None
SIGNATURE "Arham Zakki Edelo - edelo.17034@mhs.its.ac.id   obs:./obs/2023_09.obs   NLLoc:v7.00.10(30Aug2020)   run:22Jan2024 21h55m11"
COMMENT "SEML"
GRID  2001 2001 1001  727 9811 -2  0.01 0.01 0.01 PROB_DENSITY
SEARCH OCTREE nInitial 4851 nEvaluated 20011 smallestNodeSide 0.014881/0.014881/0.014205 oct_tree_integral 1.004387e-02 scatter_volume 1.001211e-02
HYPOCENTER  x 738.183 y 9818.73 z 0.478693  OT 41.986  ix -1 iy -1 iz -1 MAXIMUM_LIKELIHOOD
GEOGRAPHIC  OT 2023 09 18  05 36 41.986033  Lat 9818.730655 Long 738.183036 Depth 0.478693
QUALITY  Pmax 7.74885e+65 MFmin 79.6079 MFmax 104.013 RMS 0.0373426 Nphs 20 Gap 274.873 Dist 0.406673 Mamp -9.90 0 Mdur -9.90 0
VPVSRATIO  VpVsRatio 1.7796  Npair 10  Diff 0.425579
STATISTICS  ExpectX 738.216815 Y 9818.710458 Z 0.557356  CovXX 0.0147973 XY -0.00618568 XZ 0.00236265 YY 0.00916534 YZ -0.00400626 ZZ 0.0168942 EllAz1  209.496 Dip1  -10.8612 Len1  0.129939 Az2  286.918 Dip2  48.6194 Len2  0.221317 Len3  2.799273e-01
STAT_GEOG  ExpectLat 9818.710458 Long 738.216815 Depth 0.557356
TRANSFORM  NONE
QML_OriginQuality  assocPhCt 20  usedPhCt 20  assocStaCt -1  usedStaCt 10  depthPhCt -1  stdErr 0.0373426  azGap 274.873  secAzGap 274.873  gtLevel -  minDist 0.406673 maxDist 4.13904 medDist 2.02824
QML_OriginUncertainty  horUnc -1  minHorUnc 0.109202  maxHorUnc 0.20782  azMaxHorUnc 122.762
QML_ConfidenceEllipsoid  semiMajorAxisLength 0.279927  semiMinorAxisLength 0.129939  semiIntermediateAxisLength 0.221317  majorAxisPlunge 39.3188  majorAxisAzimuth 128.537  majorAxisRotation 308.115
FOCALMECH  Hyp  9818.730655 738.183036 0.478693 Mech  0 0 0 mf  0 nObs -1
PHASE ID Ins Cmp On Pha  FM Date     HrMn   Sec     Err  ErrMag    Coda      Amp       Per       PriorWt  >   TTpred    Res       Weight    StaLoc(X  Y         Z)        SDist    SAzim  RAz  RDip RQual    Tcorr       TTerr
ML06         ?    BHZ  i P      c 20230918 0536   42.6301 GAU  1.93e-03 -1.00e+00 -1.00e+00 -1.00e+00    1.0000 >    0.5102    0.1339    0.2618  738.3100 9819.1170   -1.3960    0.4067  18.19  18.2 167.3 10     0.0000    0.0102
ML06         ?    BHE  e S      ? 20230918 0536   43.1528 GAU  6.86e-04 -1.00e+00  5.04e+01 -1.00e+00    1.0000 >    0.8896    0.2772    0.0274  738.3100 9819.1170   -1.3960    0.4067  18.19  18.2 167.1 10     0.0000    0.0178
ML04         ?    BHZ  e P      d 20230918 0536   42.6048 GAU  2.41e-03 -1.00e+00  1.55e+03 -1.00e+00    1.0000 >    0.6288   -0.0100    1.6532  737.1400 9819.2520   -1.5710    1.1661 296.56 296.6 149.5 10     0.0000    0.0126
ML04         ?    BHE  e S      ? 20230918 0536   43.0631 GAU  1.08e-03 -1.00e+00  4.16e+02 -1.00e+00    1.0000 >    1.0954   -0.0183    1.3618  737.1400 9819.2520   -1.5710    1.1661 296.56 296.6 149.0 10     0.0000    0.0219
ML14         ?    BHZ  i P      c 20230918 0536   42.6819 GAU  1.01e-03 -1.00e+00 -1.00e+00 -1.00e+00    1.0000 >    0.6267    0.0692    0.3905  737.5530 9820.0110   -1.3980    1.4270 333.80 333.8 141.7 10     0.0000    0.0125
ML14         ?    BHN  e S      ? 20230918 0536   43.1705 GAU  4.05e-04 -1.00e+00  2.41e+02 -1.00e+00    1.0000 >    1.0928    0.0916    0.3567  737.5530 9820.0110   -1.3980    1.4270 333.80 333.8 141.0 10     0.0000    0.0219
ML02         ?    BHZ  i P      c 20230918 0536   42.6926 GAU  8.62e-04 -1.00e+00 -1.00e+00 -1.00e+00    1.0000 >    0.6978    0.0088    1.6072  736.5970 9819.4060   -1.4960    1.7238 293.06 293.1 137.5 10     0.0000    0.0140
ML02         ?    BHE  e S      ? 20230918 0536   43.2525 GAU  1.51e-03 -1.00e+00 -1.00e+00 -1.00e+00    1.0000 >    1.2161    0.0503    0.7052  736.5970 9819.4060   -1.4960    1.7238 293.06 293.1 136.8 10     0.0000    0.0243
ML11         ?    BHZ  i P      c 20230918 0536   42.6649 GAU  1.03e-03 -1.00e+00 -1.00e+00 -1.00e+00    1.0000 >    0.6702    0.0086    1.6174  738.4670 9820.4900   -1.3120    1.7821   9.17   9.2 133.7 10     0.0000    0.0134
ML11         ?    BHN  e S      ? 20230918 0536   43.1650 GAU  2.46e-03 -1.00e+00 -1.00e+00 -1.00e+00    1.0000 >    1.1693    0.0097    1.4426  738.4670 9820.4900   -1.3120    1.7821   9.17   9.2 132.9 10     0.0000    0.0234
ML09         ?    BHZ  i P      c 20230918 0536   42.7453 GAU  2.01e-03 -1.00e+00  7.77e+01 -1.00e+00    1.0000 >    0.7604   -0.0012    1.7046  737.8820 9820.9850   -1.2700    2.2744 352.39 352.4 125.6 10     0.0000    0.0152
ML09         ?    BHE  e S      ? 20230918 0536   43.3084 GAU  3.64e-04 -1.00e+00  4.31e+02 -1.00e+00    1.0000 >    1.3271   -0.0048    1.4362  737.8820 9820.9850   -1.2700    2.2744 352.39 352.4 124.4 10     0.0000    0.0265
ML13         ?    BHZ  e P      c 20230918 0536   42.8647 GAU  1.02e-03 -1.00e+00 -1.00e+00 -1.00e+00    1.0000 >    0.9095   -0.0308    1.0308  737.1780 9821.5410   -1.2220    2.9847 340.32 340.3 117.3 10     0.0000    0.0182
ML13         ?    BHE  e S      ? 20230918 0536   43.5323 GAU  6.27e-04 -1.00e+00 -1.00e+00 -1.00e+00    1.0000 >    1.5877   -0.0414    0.8195  737.1780 9821.5410   -1.2220    2.9847 340.32 340.3 115.7 10     0.0000    0.0318
ML10         ?    BHZ  i P      d 20230918 0536   43.0519 GAU  7.76e-04 -1.00e+00  6.82e+02 -1.00e+00    1.0000 >    0.9357    0.1302    0.2995  736.5490 9821.3650   -1.2200    3.1000 328.19 328.2 116.4 10     0.0000    0.0187
ML10         ?    BHE  e S      ? 20230918 0536   43.8328 GAU  8.11e-04 -1.00e+00  3.95e+01 -1.00e+00    1.0000 >    1.6336    0.2132    0.0481  736.5490 9821.3650   -1.2200    3.1000 328.19 328.2 114.6 10     0.0000    0.0327
ML05         ?    BHZ  i P      d 20230918 0536   43.0966 GAU  8.63e-04 -1.00e+00  3.29e+02 -1.00e+00    1.0000 >    1.1072    0.0034    1.5298  736.2660 9822.0830   -1.1500    3.8618 330.24 330.2 110.3 10     0.0000    0.0221
ML05         ?    BHN  e S      ? 20230918 0536   43.9505 GAU  1.25e-03 -1.00e+00  3.15e+02 -1.00e+00    1.0000 >    1.9335    0.0310    1.0500  736.2660 9822.0830   -1.1500    3.8618 330.24 330.2 102.8  8     0.0000    0.0387
ML07         ?    BHZ  i P      d 20230918 0536   43.1470 GAU  3.61e-04 -1.00e+00 -1.00e+00 -1.00e+00    1.0000 >    1.1700   -0.0090    1.4780  737.4430 9822.8030   -1.1120    4.1390 349.70 349.7 108.4 10     0.0000    0.0234
ML07         ?    BHE  e S      ? 20230918 0536   44.0309 GAU  2.51e-03 -1.00e+00 -1.00e+00 -1.00e+00    1.0000 >    2.0407    0.0042    1.1799  737.4430 9822.8030   -1.1120    4.1390 349.70 349.7  69.8  9     0.0000    0.0408
END_PHASE
END_NLLOC

