NLLOC "./loc/SEML.20230914.162805.grid0" "LOCATED" "Location completed."
PUBLIC_ID None
SIGNATURE "Arham Zakki Edelo - edelo.17034@mhs.its.ac.id   obs:./obs/2023_09.obs   NLLoc:v7.00.10(30Aug2020)   run:22Jan2024 21h54m28"
COMMENT "SEML"
GRID  2001 2001 1001  727 9811 -2  0.01 0.01 0.01 PROB_DENSITY
SEARCH OCTREE nInitial 4851 nEvaluated 20003 smallestNodeSide 0.007440/0.007440/0.007102 oct_tree_integral 9.079903e-03 scatter_volume 9.047896e-03
HYPOCENTER  x 738.812 y 9818.79 z 0.205256  OT 5.15615  ix -1 iy -1 iz -1 MAXIMUM_LIKELIHOOD
GEOGRAPHIC  OT 2023 09 14  16 28 5.156149  Lat 9818.786458 Long 738.811756 Depth 0.205256
QUALITY  Pmax 4.90016e+83 MFmin 91.2354 MFmax 106.132 RMS 0.0431232 Nphs 24 Gap 297.002 Dist 0.600847 Mamp -9.90 0 Mdur -9.90 0
VPVSRATIO  VpVsRatio 1.7085  Npair 12  Diff 0.563081
STATISTICS  ExpectX 738.811245 Y 9818.799262 Z 0.212523  CovXX 0.0141988 XY 0.000434497 XZ -0.00268772 YY 0.00826509 YZ -0.000346885 ZZ 0.00944927 EllAz1  18.0723 Dip1  40.6406 Len1  0.169029 Az2  333.364 Dip2  -39.6247 Len2  0.171874 Len3  2.335419e-01
STAT_GEOG  ExpectLat 9818.799262 Long 738.811245 Depth 0.212523
TRANSFORM  NONE
QML_OriginQuality  assocPhCt 24  usedPhCt 24  assocStaCt -1  usedStaCt 12  depthPhCt -1  stdErr 0.0431232  azGap 297.002  secAzGap 297.002  gtLevel -  minDist 0.600847 maxDist 4.99412 medDist 2.79483
QML_OriginUncertainty  horUnc -1  minHorUnc 0.137611  maxHorUnc 0.180914  azMaxHorUnc 85.8341
QML_ConfidenceEllipsoid  semiMajorAxisLength 0.233542  semiMinorAxisLength 0.169029  semiIntermediateAxisLength 0.171874  majorAxisPlunge -24.2782  majorAxisAzimuth 85.2944  majorAxisRotation 122.948
FOCALMECH  Hyp  9818.786458 738.811756 0.205256 Mech  0 0 0 mf  0 nObs -1
PHASE ID Ins Cmp On Pha  FM Date     HrMn   Sec     Err  ErrMag    Coda      Amp       Per       PriorWt  >   TTpred    Res       Weight    StaLoc(X  Y         Z)        SDist    SAzim  RAz  RDip RQual    Tcorr       TTerr
ML06         ?    BHZ  i P      c 20230914 1628    5.7099 GAU  6.71e-04 -1.00e+00  9.63e+00 -1.00e+00    1.0000 >    0.4571    0.0967    0.4531  738.3100 9819.1170   -1.3960    0.6008 303.38 303.4 158.7 10     0.0000    0.0091
ML06         ?    BHE  e S      ? 20230914 1628    6.1557 GAU  6.47e-04 -1.00e+00 -1.00e+00 -1.00e+00    1.0000 >    0.7988    0.2007    0.1715  738.3100 9819.1170   -1.3960    0.6008 303.38 303.4 158.4 10     0.0000    0.0160
ML04         ?    BHZ  i P      c 20230914 1628    5.8239 GAU  2.70e-03 -1.00e+00 -1.00e+00 -1.00e+00    1.0000 >    0.6648    0.0029    1.6340  737.1400 9819.2520   -1.5710    1.7354 285.56 285.6 133.7 10     0.0000    0.0133
ML04         ?    BHN  e S      ? 20230914 1628    6.3116 GAU  8.78e-04 -1.00e+00  7.21e+02 -1.00e+00    1.0000 >    1.1605   -0.0051    1.4276  737.1400 9819.2520   -1.5710    1.7354 285.56 285.6 132.8 10     0.0000    0.0232
ML11         ?    BHZ  i P      c 20230914 1628    5.7663 GAU  4.64e-03 -1.00e+00 -1.00e+00 -1.00e+00    1.0000 >    0.6149   -0.0048    1.5973  738.4670 9820.4900   -1.3120    1.7381 348.56 348.6 129.0 10     0.0000    0.0123
ML11         ?    BHE  e S      ? 20230914 1628    6.2237 GAU  1.30e-03 -1.00e+00 -1.00e+00 -1.00e+00    1.0000 >    1.0757   -0.0082    1.4269  738.4670 9820.4900   -1.3120    1.7381 348.56 348.6 127.7 10     0.0000    0.0215
ML14         ?    BHZ  i P      c 20230914 1628    5.8116 GAU  1.35e-03 -1.00e+00 -1.00e+00 -1.00e+00    1.0000 >    0.6348    0.0207    1.3439  737.5530 9820.0110   -1.3980    1.7561 314.21 314.2 130.3 10     0.0000    0.0127
ML14         ?    BHN  e S      ? 20230914 1628    6.2791 GAU  1.06e-03 -1.00e+00  2.90e+02 -1.00e+00    1.0000 >    1.1096    0.0133    1.4153  737.5530 9820.0110   -1.3980    1.7561 314.21 314.2 129.1 10     0.0000    0.0222
ML02         ?    BHZ  i P      d 20230914 1628    6.0185 GAU  5.99e-04 -1.00e+00  2.61e+02 -1.00e+00    1.0000 >    0.7649    0.0975    0.4514  736.5970 9819.4060   -1.4960    2.2998 285.63 285.6 123.8 10     0.0000    0.0153
ML02         ?    BHN  e S      ? 20230914 1628    6.7134 GAU  1.29e-03 -1.00e+00 -1.00e+00 -1.00e+00    1.0000 >    1.3361    0.2211    0.1438  736.5970 9819.4060   -1.4960    2.2998 285.63 285.6 122.4 10     0.0000    0.0267
ML09         ?    BHZ  i P      c 20230914 1628    5.8948 GAU  1.79e-03 -1.00e+00  1.27e+02 -1.00e+00    1.0000 >    0.7472   -0.0086    1.5191  737.8820 9820.9850   -1.2700    2.3871 337.08 337.1 118.9 10     0.0000    0.0149
ML09         ?    BHE  e S      ? 20230914 1628    6.5006 GAU  1.26e-03 -1.00e+00  3.24e+02 -1.00e+00    1.0000 >    1.3079    0.0366    1.0034  737.8820 9820.9850   -1.2700    2.3871 337.08 337.1 117.0 10     0.0000    0.0262
ML13         ?    BHZ  i P      c 20230914 1628    6.0576 GAU  2.71e-04 -1.00e+00 -1.00e+00 -1.00e+00    1.0000 >    0.9321   -0.0306    0.9421  737.1780 9821.5410   -1.2220    3.2026 329.33 329.3 110.7 10     0.0000    0.0186
ML13         ?    BHN  e S      ? 20230914 1628    6.7501 GAU  2.93e-04 -1.00e+00 -1.00e+00 -1.00e+00    1.0000 >    1.6325   -0.0385    0.8088  737.1780 9821.5410   -1.2220    3.2026 329.33 329.3 107.6 10     0.0000    0.0326
ML10         ?    BHZ  e P      c 20230914 1628    6.2498 GAU  3.24e-03 -1.00e+00  2.39e+02 -1.00e+00    1.0000 >    0.9872    0.1064    0.3822  736.5490 9821.3650   -1.2200    3.4306 318.73 318.7 109.1 10     0.0000    0.0197
ML10         ?    BHE  e S      ? 20230914 1628    7.0660 GAU  1.48e-03 -1.00e+00 -1.00e+00 -1.00e+00    1.0000 >    1.7292    0.1807    0.1689  736.5490 9821.3650   -1.2200    3.4306 318.73 318.7 105.8 10     0.0000    0.0346
ML05         ?    BHZ  i P      d 20230914 1628    6.2969 GAU  1.61e-03 -1.00e+00  2.51e+02 -1.00e+00    1.0000 >    1.1609   -0.0202    1.1995  736.2660 9822.0830   -1.1500    4.1651 322.32 322.3 104.4 10     0.0000    0.0232
ML05         ?    BHN  e S      ? 20230914 1628    7.1747 GAU  3.31e-04 -1.00e+00  2.79e+02 -1.00e+00    1.0000 >    2.0344   -0.0159    1.0548  736.2660 9822.0830   -1.1500    4.1651 322.32 322.3 100.0 10     0.0000    0.0407
ML07         ?    BHZ  i P      d 20230914 1628    6.3507 GAU  3.89e-03 -1.00e+00 -1.00e+00 -1.00e+00    1.0000 >    1.1764    0.0182    1.3296  737.4430 9822.8030   -1.1120    4.2434 341.18 341.2 103.7 10     0.0000    0.0235
ML07         ?    BHN  e S      ? 20230914 1628    7.2666 GAU  5.25e-04 -1.00e+00 -1.00e+00 -1.00e+00    1.0000 >    2.0620    0.0484    0.8839  737.4430 9822.8030   -1.1120    4.2434 341.18 341.2  99.1 10     0.0000    0.0412
ML01         ?    BHZ  e P      d 20230914 1628    6.3899 GAU  5.62e-04 -1.00e+00  9.68e+02 -1.00e+00    1.0000 >    1.2254    0.0084    1.4169  736.4090 9822.5140   -1.1200    4.4348 327.19 327.2 103.0 10     0.0000    0.0245
ML01         ?    BHN  e S      ? 20230914 1628    7.3210 GAU  7.49e-04 -1.00e+00  1.64e+03 -1.00e+00    1.0000 >    2.1476    0.0173    1.0974  736.4090 9822.5140   -1.1200    4.4348 327.19 327.2  98.3 10     0.0000    0.0430
ML12         ?    BHZ  e P      c 20230914 1628    6.5411 GAU  9.31e-04 -1.00e+00 -1.00e+00 -1.00e+00    1.0000 >    1.3534    0.0315    1.0935  736.8520 9823.3800   -0.9890    4.9941 336.90 336.9 100.2 10     0.0000    0.0271
ML12         ?    BHE  e S      ? 20230914 1628    7.5500 GAU  1.04e-03 -1.00e+00  4.27e+01 -1.00e+00    1.0000 >    2.3724    0.0214    1.0351  736.8520 9823.3800   -0.9890    4.9941 336.90 336.9  95.6 10     0.0000    0.0474
END_PHASE
END_NLLOC

