NLLOC "./loc/SEML.20230915.175048.grid0" "LOCATED" "Location completed."
PUBLIC_ID None
SIGNATURE "Arham Zakki Edelo - edelo.17034@mhs.its.ac.id   obs:./obs/2023_09.obs   NLLoc:v7.00.10(30Aug2020)   run:22Jan2024 21h55m09"
COMMENT "SEML"
GRID  2001 2001 1001  727 9811 -2  0.01 0.01 0.01 PROB_DENSITY
SEARCH OCTREE nInitial 4851 nEvaluated 20019 smallestNodeSide 0.014881/0.014881/0.014205 oct_tree_integral 5.569465e-02 scatter_volume 5.547070e-02
HYPOCENTER  x 738.466 y 9818.63 z 0.620739  OT 48.409  ix -1 iy -1 iz -1 MAXIMUM_LIKELIHOOD
GEOGRAPHIC  OT 2023 09 15  17 50 48.409039  Lat 9818.626488 Long 738.465774 Depth 0.620739
QUALITY  Pmax 9.5229e+56 MFmin 64.9494 MFmax 78.3406 RMS 0.036803 Nphs 18 Gap 324.973 Dist 0.514653 Mamp -9.90 0 Mdur -9.90 0
VPVSRATIO  VpVsRatio 1.7901  Npair 9  Diff 0.530262
STATISTICS  ExpectX 738.525812 Y 9818.611511 Z 0.737368  CovXX 0.0406448 XY 0.0102006 XZ 0.00795744 YY 0.0329094 YZ -0.019523 ZZ 0.0463903 EllAz1  150.071 Dip1  -32.0003 Len1  0.213892 Az2  67.9864 Dip2  12.4286 Len2  0.405847 Len3  4.614573e-01
STAT_GEOG  ExpectLat 9818.611511 Long 738.525812 Depth 0.737368
TRANSFORM  NONE
QML_OriginQuality  assocPhCt 18  usedPhCt 18  assocStaCt -1  usedStaCt 9  depthPhCt -1  stdErr 0.036803  azGap 324.973  secAzGap 324.973  gtLevel -  minDist 0.514653 maxDist 5.01997 medDist 3.18634
QML_OriginUncertainty  horUnc -1  minHorUnc 0.243918  maxHorUnc 0.331178  azMaxHorUnc 55.3824
QML_ConfidenceEllipsoid  semiMajorAxisLength 0.461457  semiMinorAxisLength 0.213892  semiIntermediateAxisLength 0.405847  majorAxisPlunge 55.1129  majorAxisAzimuth 176.412  majorAxisRotation 97.9927
FOCALMECH  Hyp  9818.626488 738.465774 0.620739 Mech  0 0 0 mf  0 nObs -1
PHASE ID Ins Cmp On Pha  FM Date     HrMn   Sec     Err  ErrMag    Coda      Amp       Per       PriorWt  >   TTpred    Res       Weight    StaLoc(X  Y         Z)        SDist    SAzim  RAz  RDip RQual    Tcorr       TTerr
ML06         ?    BHZ  i P      d 20230915 1750   48.9635 GAU  7.49e-04 -1.00e+00 -1.00e+00 -1.00e+00    1.0000 >    0.5522    0.0023    1.6376  738.3100 9819.1170   -1.3960    0.5147 342.38 342.4 165.1 10     0.0000    0.0110
ML06         ?    BHE  e S      ? 20230915 1750   49.4860 GAU  1.68e-03 -1.00e+00 -1.00e+00 -1.00e+00    1.0000 >    0.9582    0.1188    0.0804  738.3100 9819.1170   -1.3960    0.5147 342.38 342.4 163.9 10     0.0000    0.0192
ML14         ?    BHZ  i P      d 20230915 1750   49.1065 GAU  1.08e-03 -1.00e+00  9.78e+02 -1.00e+00    1.0000 >    0.6926    0.0048    1.5819  737.5530 9820.0110   -1.3980    1.6583 326.60 326.6 139.0 10     0.0000    0.0139
ML14         ?    BHE  i S      ? 20230915 1750   49.5889 GAU  1.22e-03 -1.00e+00  4.36e+02 -1.00e+00    1.0000 >    1.2016   -0.0217    1.4271  737.5530 9820.0110   -1.3980    1.6583 326.60 326.6 134.8 10     0.0000    0.0240
ML11         ?    BHZ  i P      d 20230915 1750   49.1034 GAU  2.58e-04 -1.00e+00 -1.00e+00 -1.00e+00    1.0000 >    0.7104   -0.0160    1.5086  738.4670 9820.4900   -1.3120    1.8635   0.04   0.0 134.2 10     0.0000    0.0142
ML11         ?    BHE  i S      ? 20230915 1750   49.6512 GAU  1.83e-03 -1.00e+00 -1.00e+00 -1.00e+00    1.0000 >    1.2327    0.0094    1.3704  738.4670 9820.4900   -1.3120    1.8635   0.04   0.0 129.3 10     0.0000    0.0247
ML09         ?    BHZ  e P      d 20230915 1750   49.1566 GAU  6.68e-03 -1.00e+00  1.72e+02 -1.00e+00    1.0000 >    0.8139   -0.0663    0.7424  737.8820 9820.9850   -1.2700    2.4297 346.10 346.1 125.3 10     0.0000    0.0163
ML09         ?    BHN  e S      ? 20230915 1750   49.7267 GAU  3.25e-04 -1.00e+00  4.57e+02 -1.00e+00    1.0000 >    1.4119   -0.0942    0.5144  737.8820 9820.9850   -1.2700    2.4297 346.10 346.1 118.4 10     0.0000    0.0282
ML13         ?    BHZ  e P      c 20230915 1750   49.2454 GAU  1.40e-03 -1.00e+00 -1.00e+00 -1.00e+00    1.0000 >    0.9720   -0.1356    0.2181  737.1780 9821.5410   -1.2220    3.1863 336.16 336.2 116.9 10     0.0000    0.0194
ML13         ?    BHN  e S      ? 20230915 1750   49.9298 GAU  5.63e-04 -1.00e+00 -1.00e+00 -1.00e+00    1.0000 >    1.6847   -0.1639    0.1666  737.1780 9821.5410   -1.2220    3.1863 336.16 336.2 106.9 10     0.0000    0.0337
ML10         ?    BHZ  e P      d 20230915 1750   49.3645 GAU  2.30e-03 -1.00e+00  1.47e+03 -1.00e+00    1.0000 >    1.0075   -0.0521    0.9682  736.5490 9821.3650   -1.2200    3.3427 325.01 325.0 115.6 10     0.0000    0.0202
ML10         ?    BHN  e S      ? 20230915 1750   50.1424 GAU  8.32e-04 -1.00e+00 -1.00e+00 -1.00e+00    1.0000 >    1.7458   -0.0125    1.3534  736.5490 9821.3650   -1.2200    3.3427 325.01 325.0 104.9 10     0.0000    0.0349
ML05         ?    BHZ  e P      d 20230915 1750   49.5907 GAU  2.71e-02 -1.00e+00  4.02e+02 -1.00e+00    1.0000 >    1.1761    0.0055    1.2720  736.2660 9822.0830   -1.1500    4.0971 327.53 327.5 109.6 10     0.0000    0.0235
ML05         ?    BHN  e S      ? 20230915 1750   50.4922 GAU  5.74e-04 -1.00e+00  2.54e+02 -1.00e+00    1.0000 >    2.0324    0.0507    0.7036  736.2660 9822.0830   -1.1500    4.0971 327.53 327.5  97.1  9     0.0000    0.0406
ML07         ?    BHZ  i P      d 20230915 1750   49.6333 GAU  4.25e-03 -1.00e+00 -1.00e+00 -1.00e+00    1.0000 >    1.2203    0.0039    1.4403  737.4430 9822.8030   -1.1120    4.2999 346.24 346.2 108.1 10     0.0000    0.0244
ML07         ?    BHN  e S      ? 20230915 1750   50.5604 GAU  5.63e-04 -1.00e+00 -1.00e+00 -1.00e+00    1.0000 >    2.1059    0.0454    0.7768  737.4430 9822.8030   -1.1120    4.2999 346.24 346.2  95.9  9     0.0000    0.0421
ML12         ?    BHZ  e P      c 20230915 1750   49.7418 GAU  1.73e-03 -1.00e+00 -1.00e+00 -1.00e+00    1.0000 >    1.3829   -0.0500    1.0575  736.8520 9823.3800   -0.9890    5.0200 341.25 341.2 103.7 10     0.0000    0.0277
ML12         ?    BHN  e S      ? 20230915 1750   50.7546 GAU  9.76e-04 -1.00e+00 -1.00e+00 -1.00e+00    1.0000 >    2.3711   -0.0255    1.1807  736.8520 9823.3800   -0.9890    5.0200 341.25 341.2  93.6  9     0.0000    0.0474
END_PHASE
END_NLLOC

