NLLOC "./loc/SEML.20230919.223754.grid0" "LOCATED" "Location completed."
PUBLIC_ID None
SIGNATURE "Arham Zakki Edelo - edelo.17034@mhs.its.ac.id   obs:./obs/2023_09.obs   NLLoc:v7.00.10(30Aug2020)   run:22Jan2024 21h55m15"
COMMENT "SEML"
GRID  2001 2001 1001  727 9811 -2  0.01 0.01 0.01 PROB_DENSITY
SEARCH OCTREE nInitial 4851 nEvaluated 20011 smallestNodeSide 0.029762/0.029762/0.028409 oct_tree_integral 8.143975e-02 scatter_volume 8.143975e-02
HYPOCENTER  x 739.068 y 9819.32 z 1.56534  OT 53.8867  ix -1 iy -1 iz -1 MAXIMUM_LIKELIHOOD
GEOGRAPHIC  OT 2023 09 19  22 37 53.886677  Lat 9819.318452 Long 739.068452 Depth 1.565341
QUALITY  Pmax 2.22434e+57 MFmin 64.3851 MFmax 80.8585 RMS 0.0230502 Nphs 18 Gap 280.133 Dist 0.78475 Mamp -9.90 0 Mdur -9.90 0
VPVSRATIO  VpVsRatio 1.73428  Npair 9  Diff 0.426617
STATISTICS  ExpectX 738.508996 Y 9818.931017 Z 1.327423  CovXX 0.688145 XY 0.430179 XZ 0.172765 YY 0.300862 YZ 0.123052 ZZ 0.087423 EllAz1  152.776 Dip1  23.7977 Len1  0.255713 Az2  300.887 Dip2  62.5529 Len2  0.390619 Len3  1.892571e+00
STAT_GEOG  ExpectLat 9818.931017 Long 738.508996 Depth 1.327423
TRANSFORM  NONE
QML_OriginQuality  assocPhCt 18  usedPhCt 18  assocStaCt -1  usedStaCt 9  depthPhCt -1  stdErr 0.0230502  azGap 280.133  secAzGap 280.133  gtLevel -  minDist 0.78475 maxDist 3.93655 medDist 2.04574
QML_OriginUncertainty  horUnc -1  minHorUnc 0.228752  maxHorUnc 1.49077  azMaxHorUnc 57.1172
QML_ConfidenceEllipsoid  semiMajorAxisLength 1.89257  semiMinorAxisLength 0.255713  semiIntermediateAxisLength 0.390619  majorAxisPlunge 12.8731  majorAxisAzimuth 56.9913  majorAxisRotation 26.7848
FOCALMECH  Hyp  9819.318452 739.068452 1.565341 Mech  0 0 0 mf  0 nObs -1
PHASE ID Ins Cmp On Pha  FM Date     HrMn   Sec     Err  ErrMag    Coda      Amp       Per       PriorWt  >   TTpred    Res       Weight    StaLoc(X  Y         Z)        SDist    SAzim  RAz  RDip RQual    Tcorr       TTerr
ML06         ?    BHZ  i P      d 20230919 2237   54.6787 GAU  1.24e-03 -1.00e+00  7.51e+01 -1.00e+00    1.0000 >    0.7911    0.0009    1.7263  738.3100 9819.1170   -1.3960    0.7848 255.13 255.1 163.3 10     0.0000    0.0158
ML06         ?    BHN  e S      ? 20230919 2237   55.2665 GAU  4.99e-04 -1.00e+00 -1.00e+00 -1.00e+00    1.0000 >    1.3464    0.0335    1.1844  738.3100 9819.1170   -1.3960    0.7848 255.13 255.1 162.7 10     0.0000    0.0269
ML11         ?    BHZ  i P      d 20230919 2237   54.7014 GAU  9.32e-04 -1.00e+00  1.32e+02 -1.00e+00    1.0000 >    0.8155   -0.0008    1.7176  738.4670 9820.4900   -1.3120    1.3169 332.82 332.8 152.3 10     0.0000    0.0163
ML11         ?    BHN  e S      ? 20230919 2237   55.3007 GAU  3.74e-04 -1.00e+00 -1.00e+00 -1.00e+00    1.0000 >    1.3870    0.0270    1.3014  738.4670 9820.4900   -1.3120    1.3169 332.82 332.8 151.4 10     0.0000    0.0277
ML14         ?    BHZ  i P      c 20230919 2237   54.7585 GAU  7.32e-04 -1.00e+00 -1.00e+00 -1.00e+00    1.0000 >    0.8775   -0.0058    1.6675  737.5530 9820.0110   -1.3980    1.6662 294.56 294.6 146.8 10     0.0000    0.0176
ML14         ?    BHN  e S      ? 20230919 2237   55.3152 GAU  5.39e-04 -1.00e+00  3.83e+02 -1.00e+00    1.0000 >    1.4929   -0.0643    0.4925  737.5530 9820.0110   -1.3980    1.6662 294.56 294.6 145.7 10     0.0000    0.0299
ML04         ?    BHZ  e P      c 20230919 2237   54.6497 GAU  7.19e-04 -1.00e+00 -1.00e+00 -1.00e+00    1.0000 >    0.9537   -0.1906    0.0006  737.1400 9819.2520   -1.5710    1.9296 268.03 268.0 144.1 10     0.0000    0.0191
ML04         ?    BHN  e S      ? 20230919 2237   55.1859 GAU  4.28e-04 -1.00e+00  8.16e+02 -1.00e+00    1.0000 >    1.6235   -0.3243    0.0003  737.1400 9819.2520   -1.5710    1.9296 268.03 268.0 142.8 10     0.0000    0.0325
ML09         ?    BHZ  i P      d 20230919 2237   54.7575 GAU  1.26e-03 -1.00e+00  2.07e+02 -1.00e+00    1.0000 >    0.8995   -0.0287    1.1506  737.8820 9820.9850   -1.2700    2.0457 324.55 324.6 139.5 10     0.0000    0.0180
ML09         ?    BHE  e S      ? 20230919 2237   55.3754 GAU  2.93e-04 -1.00e+00  3.39e+02 -1.00e+00    1.0000 >    1.5287   -0.0400    0.9512  737.8820 9820.9850   -1.2700    2.0457 324.55 324.6 138.0 10     0.0000    0.0306
ML13         ?    BHZ  e P      c 20230919 2237   54.9620 GAU  2.56e-04 -1.00e+00 -1.00e+00 -1.00e+00    1.0000 >    1.0358    0.0395    1.0270  737.1780 9821.5410   -1.2220    2.9178 319.62 319.6 126.6 10     0.0000    0.0207
ML13         ?    BHN  e S      ? 20230919 2237   55.6702 GAU  6.35e-04 -1.00e+00 -1.00e+00 -1.00e+00    1.0000 >    1.7580    0.0255    1.2527  737.1780 9821.5410   -1.2220    2.9178 319.62 319.6 124.7 10     0.0000    0.0352
ML10         ?    BHZ  e P      c 20230919 2237   54.9809 GAU  1.81e-03 -1.00e+00 -1.00e+00 -1.00e+00    1.0000 >    1.0975   -0.0032    1.6221  736.5490 9821.3650   -1.2200    3.2459 309.09 309.1 122.6 10     0.0000    0.0219
ML10         ?    BHE  e S      ? 20230919 2237   55.7316 GAU  6.07e-04 -1.00e+00 -1.00e+00 -1.00e+00    1.0000 >    1.8616   -0.0166    1.2699  736.5490 9821.3650   -1.2200    3.2459 309.09 309.1 120.5 10     0.0000    0.0372
ML07         ?    BHZ  i P      d 20230919 2237   55.2533 GAU  2.77e-04 -1.00e+00 -1.00e+00 -1.00e+00    1.0000 >    1.1980    0.1686    0.0055  737.4430 9822.8030   -1.1120    3.8450 334.99 335.0 115.2 10     0.0000    0.0240
ML07         ?    BHN  e S      ? 20230919 2237   56.2161 GAU  3.63e-04 -1.00e+00 -1.00e+00 -1.00e+00    1.0000 >    2.0279    0.3015    0.0022  737.4430 9822.8030   -1.1120    3.8450 334.99 335.0 112.7 10     0.0000    0.0406
ML05         ?    BHZ  e P      c 20230919 2237   55.1208 GAU  7.55e-04 -1.00e+00  2.22e+01 -1.00e+00    1.0000 >    1.2239    0.0103    1.5619  736.2660 9822.0830   -1.1500    3.9366 314.61 314.6 114.7 10     0.0000    0.0245
ML05         ?    BHE  e S      ? 20230919 2237   55.9946 GAU  4.14e-04 -1.00e+00 -1.00e+00 -1.00e+00    1.0000 >    2.0720    0.0360    1.0661  736.2660 9822.0830   -1.1500    3.9366 314.61 314.6 112.2 10     0.0000    0.0414
END_PHASE
END_NLLOC

