NLLOC "./loc/SEML.20230921.035711.grid0" "LOCATED" "Location completed."
PUBLIC_ID None
SIGNATURE "Arham Zakki Edelo - edelo.17034@mhs.its.ac.id   obs:./obs/2023_09.obs   NLLoc:v7.00.10(30Aug2020)   run:22Jan2024 21h55m30"
COMMENT "SEML"
GRID  2001 2001 1001  727 9811 -2  0.01 0.01 0.01 PROB_DENSITY
SEARCH OCTREE nInitial 4851 nEvaluated 20003 smallestNodeSide 0.014881/0.014881/0.014205 oct_tree_integral 3.476788e-02 scatter_volume 3.428145e-02
HYPOCENTER  x 738.741 y 9818.66 z 0.883523  OT 10.921  ix -1 iy -1 iz -1 MAXIMUM_LIKELIHOOD
GEOGRAPHIC  OT 2023 09 21  03 57 10.921028  Lat 9818.663690 Long 738.741071 Depth 0.883523
QUALITY  Pmax 2.06676e+38 MFmin 52.9285 MFmax 62.0465 RMS 0.0359433 Nphs 14 Gap 298.71 Dist 0.625549 Mamp -9.90 0 Mdur -9.90 0
VPVSRATIO  VpVsRatio 1.86329  Npair 7  Diff 0.634165
STATISTICS  ExpectX 739.667128 Y 9819.237298 Z 0.679210  CovXX 0.711929 XY 0.38769 XZ -0.395085 YY 0.257441 YZ -0.184177 ZZ 0.597522 EllAz1  327.362 Dip1  -5.84984 Len1  0.333715 Az2  228.971 Dip2  -54.9265 Len2  1.03485 Len3  2.085392e+00
STAT_GEOG  ExpectLat 9819.237298 Long 739.667128 Depth 0.679210
TRANSFORM  NONE
QML_OriginQuality  assocPhCt 14  usedPhCt 14  assocStaCt -1  usedStaCt 7  depthPhCt -1  stdErr 0.0359433  azGap 298.71  secAzGap 298.71  gtLevel -  minDist 0.625549 maxDist 4.2211 medDist 1.84676
QML_OriginUncertainty  horUnc -1  minHorUnc 0.284955  maxHorUnc 1.46573  azMaxHorUnc 60.1883
QML_ConfidenceEllipsoid  semiMajorAxisLength 2.08539  semiMinorAxisLength 0.333715  semiIntermediateAxisLength 1.03485  majorAxisPlunge -34.4381  majorAxisAzimuth 61.3904  majorAxisRotation 199.063
FOCALMECH  Hyp  9818.663690 738.741071 0.883523 Mech  0 0 0 mf  0 nObs -1
PHASE ID Ins Cmp On Pha  FM Date     HrMn   Sec     Err  ErrMag    Coda      Amp       Per       PriorWt  >   TTpred    Res       Weight    StaLoc(X  Y         Z)        SDist    SAzim  RAz  RDip RQual    Tcorr       TTerr
ML06         ?    BHZ  i P      d 20230921 0357   11.6635 GAU  3.12e-04 -1.00e+00 -1.00e+00 -1.00e+00    1.0000 >    0.6245    0.1180    0.1874  738.3100 9819.1170   -1.3960    0.6255 316.44 316.4 164.1 10     0.0000    0.0125
ML06         ?    BHE  e S      ? 20230921 0357   12.2263 GAU  8.09e-04 -1.00e+00 -1.00e+00 -1.00e+00    1.0000 >    1.0744    0.2308    0.0609  738.3100 9819.1170   -1.3960    0.6255 316.44 316.4 162.9 10     0.0000    0.0215
ML04         ?    BHZ  e P      c 20230921 0357   11.7242 GAU  5.56e-03 -1.00e+00  1.60e+02 -1.00e+00    1.0000 >    0.7915    0.0117    1.9986  737.1400 9819.2520   -1.5710    1.7057 290.18 290.2 143.9 10     0.0000    0.0158
ML04         ?    BHE  e S      ? 20230921 0357   12.2755 GAU  2.17e-04 -1.00e+00  3.05e+02 -1.00e+00    1.0000 >    1.3615   -0.0071    1.7813  737.1400 9819.2520   -1.5710    1.7057 290.18 290.2 140.9 10     0.0000    0.0272
ML14         ?    BHZ  e P      c 20230921 0357   11.4871 GAU  2.01e-03 -1.00e+00 -1.00e+00 -1.00e+00    1.0000 >    0.7667   -0.2006    0.0000  737.5530 9820.0110   -1.3980    1.7963 318.59 318.6 140.5 10     0.0000    0.0153
ML14         ?    BHN  e S      ? 20230921 0357   11.8924 GAU  1.24e-03 -1.00e+00  3.55e+02 -1.00e+00    1.0000 >    1.3184   -0.3470    0.0000  737.5530 9820.0110   -1.3980    1.7963 318.59 318.6 137.1 10     0.0000    0.0264
ML11         ?    BHZ  i P      d 20230921 0357   11.6718 GAU  1.49e-03 -1.00e+00  1.77e+02 -1.00e+00    1.0000 >    0.7563   -0.0055    2.0062  738.4670 9820.4900   -1.3120    1.8468 351.47 351.5 138.7 10     0.0000    0.0151
ML11         ?    BHE  i S      ? 20230921 0357   12.2322 GAU  7.49e-04 -1.00e+00 -1.00e+00 -1.00e+00    1.0000 >    1.3001    0.0111    1.8732  738.4670 9820.4900   -1.3120    1.8468 351.47 351.5 135.0 10     0.0000    0.0260
ML09         ?    BHZ  i P      c 20230921 0357   11.7661 GAU  1.12e-03 -1.00e+00  4.79e+01 -1.00e+00    1.0000 >    0.8639   -0.0188    1.5769  737.8820 9820.9850   -1.2700    2.4752 339.69 339.7 129.0 10     0.0000    0.0173
ML09         ?    BHN  e S      ? 20230921 0357   12.4378 GAU  2.26e-04 -1.00e+00  4.85e+02 -1.00e+00    1.0000 >    1.4840    0.0328    1.4335  737.8820 9820.9850   -1.2700    2.4752 339.69 339.7 124.1 10     0.0000    0.0297
ML13         ?    BHZ  e P      c 20230921 0357   11.9827 GAU  5.05e-04 -1.00e+00 -1.00e+00 -1.00e+00    1.0000 >    1.0240    0.0377    1.2379  737.1780 9821.5410   -1.2220    3.2745 331.49 331.5 120.3 10     0.0000    0.0205
ML13         ?    BHN  e S      ? 20230921 0357   12.6701 GAU  1.46e-04 -1.00e+00 -1.00e+00 -1.00e+00    1.0000 >    1.7564   -0.0073    1.6051  737.1780 9821.5410   -1.2220    3.2745 331.49 331.5 113.7 10     0.0000    0.0351
ML05         ?    BHZ  i P      d 20230921 0357   12.3048 GAU  3.64e-04 -1.00e+00  4.29e+02 -1.00e+00    1.0000 >    1.2301    0.1537    0.1982  736.2660 9822.0830   -1.1500    4.2211 324.10 324.1 112.8 10     0.0000    0.0246
ML05         ?    BHE  e S      ? 20230921 0357   13.3442 GAU  8.75e-05 -1.00e+00 -1.00e+00 -1.00e+00    1.0000 >    2.1035    0.3196    0.0408  736.2660 9822.0830   -1.1500    4.2211 324.10 324.1 104.9 10     0.0000    0.0421
END_PHASE
END_NLLOC

