NLLOC "./loc/SEML.20230914.162359.grid0" "LOCATED" "Location completed."
PUBLIC_ID None
SIGNATURE "Arham Zakki Edelo - edelo.17034@mhs.its.ac.id   obs:./obs/2023_09.obs   NLLoc:v7.00.10(30Aug2020)   run:22Jan2024 21h54m07"
COMMENT "SEML"
GRID  2001 2001 1001  727 9811 -2  0.01 0.01 0.01 PROB_DENSITY
SEARCH OCTREE nInitial 4851 nEvaluated 20019 smallestNodeSide 0.014881/0.014881/0.014205 oct_tree_integral 1.745403e-02 scatter_volume 1.730366e-02
HYPOCENTER  x 737.29 y 9818.22 z 1.1321  OT 59.0782  ix -1 iy -1 iz -1 MAXIMUM_LIKELIHOOD
GEOGRAPHIC  OT 2023 09 14  16 23 59.078159  Lat 9818.224702 Long 737.290179 Depth 1.132102
QUALITY  Pmax 1.2331e+58 MFmin 64.8407 MFmax 72.6547 RMS 0.0281676 Nphs 18 Gap 280.78 Dist 1.03822 Mamp -9.90 0 Mdur -9.90 0
VPVSRATIO  VpVsRatio 1.75772  Npair 9  Diff 0.753868
STATISTICS  ExpectX 737.282869 Y 9818.260036 Z 1.092937  CovXX 0.0105973 XY -0.000612447 XZ 0.000677751 YY 0.0171699 YZ -0.00701854 ZZ 0.0161178 EllAz1  172.801 Dip1  -47.2333 Len1  0.184075 Az2  263.773 Dip2  -0.899149 Len2  0.1929 Len3  2.895168e-01
STAT_GEOG  ExpectLat 9818.260036 Long 737.282869 Depth 1.092937
TRANSFORM  NONE
QML_OriginQuality  assocPhCt 18  usedPhCt 18  assocStaCt -1  usedStaCt 9  depthPhCt -1  stdErr 0.0281676  azGap 280.78  secAzGap 280.78  gtLevel -  minDist 1.03822 maxDist 5.17389 medDist 2.55274
QML_OriginUncertainty  horUnc -1  minHorUnc 0.155704  maxHorUnc 0.19905  azMaxHorUnc 174.722
QML_ConfidenceEllipsoid  semiMajorAxisLength 0.289517  semiMinorAxisLength 0.184075  semiIntermediateAxisLength 0.1929  majorAxisPlunge 42.7526  majorAxisAzimuth 174.604  majorAxisRotation 269.904
FOCALMECH  Hyp  9818.224702 737.290179 1.132102 Mech  0 0 0 mf  0 nObs -1
PHASE ID Ins Cmp On Pha  FM Date     HrMn   Sec     Err  ErrMag    Coda      Amp       Per       PriorWt  >   TTpred    Res       Weight    StaLoc(X  Y         Z)        SDist    SAzim  RAz  RDip RQual    Tcorr       TTerr
ML04         ?    BHZ  e P      c 20230914 1623   59.8440 GAU  1.55e-03 -1.00e+00 -1.00e+00 -1.00e+00    1.0000 >    0.7618    0.0041    1.6886  737.1400 9819.2520   -1.5710    1.0382 351.68 351.7 156.5 10     0.0000    0.0152
ML04         ?    BHE  e S      ? 20230914 1624    0.4152 GAU  7.49e-04 -1.00e+00  2.47e+02 -1.00e+00    1.0000 >    1.3042    0.0329    1.1304  737.1400 9819.2520   -1.5710    1.0382 351.68 351.7 155.5 10     0.0000    0.0261
ML06         ?    BHZ  i P      d 20230914 1623   59.8213 GAU  2.70e-03 -1.00e+00 -1.00e+00 -1.00e+00    1.0000 >    0.7522   -0.0091    1.5670  738.3100 9819.1170   -1.3960    1.3551  48.82  48.8 148.4 10     0.0000    0.0150
ML06         ?    BHN  e S      ? 20230914 1624    0.3690 GAU  1.24e-03 -1.00e+00 -1.00e+00 -1.00e+00    1.0000 >    1.2869    0.0040    1.5071  738.3100 9819.1170   -1.3960    1.3551  48.82  48.8 147.0 10     0.0000    0.0257
ML02         ?    BHZ  e P      c 20230914 1623   59.8376 GAU  3.01e-04 -1.00e+00 -1.00e+00 -1.00e+00    1.0000 >    0.7786   -0.0191    1.3023  736.5970 9819.4060   -1.4960    1.3697 329.60 329.6 149.1 10     0.0000    0.0156
ML02         ?    BHE  e S      ? 20230914 1624    0.4156 GAU  1.32e-03 -1.00e+00 -1.00e+00 -1.00e+00    1.0000 >    1.3324    0.0050    1.4876  736.5970 9819.4060   -1.4960    1.3697 329.60 329.6 147.7 10     0.0000    0.0266
ML14         ?    BHZ  i P      c 20230914 1623   59.9236 GAU  2.46e-03 -1.00e+00  1.22e+02 -1.00e+00    1.0000 >    0.8148    0.0306    1.1948  737.5530 9820.0110   -1.3980    1.8055   8.37   8.4 139.9 10     0.0000    0.0163
ML14         ?    BHE  e S      ? 20230914 1624    0.3994 GAU  1.09e-03 -1.00e+00  3.70e+02 -1.00e+00    1.0000 >    1.3936   -0.0724    0.2951  737.5530 9820.0110   -1.3980    1.8055   8.37   8.4 138.1 10     0.0000    0.0279
ML11         ?    BHZ  e P      c 20230914 1624    0.0316 GAU  6.74e-04 -1.00e+00 -1.00e+00 -1.00e+00    1.0000 >    0.9242    0.0292    1.2407  738.4670 9820.4900   -1.3120    2.5527  27.45  27.5 126.8 10     0.0000    0.0185
ML11         ?    BHN  i S      ? 20230914 1624    0.6614 GAU  6.74e-04 -1.00e+00 -1.00e+00 -1.00e+00    1.0000 >    1.5790    0.0042    1.3877  738.4670 9820.4900   -1.3120    2.5527  27.45  27.5 124.2 10     0.0000    0.0316
ML09         ?    BHZ  i P      c 20230914 1624    0.0406 GAU  2.90e-03 -1.00e+00  1.31e+02 -1.00e+00    1.0000 >    0.9684   -0.0059    1.5661  737.8820 9820.9850   -1.2700    2.8230  12.10  12.1 122.5 10     0.0000    0.0194
ML09         ?    BHN  e S      ? 20230914 1624    0.6755 GAU  5.20e-04 -1.00e+00  5.12e+02 -1.00e+00    1.0000 >    1.6533   -0.0559    0.5858  737.8820 9820.9850   -1.2700    2.8230  12.10  12.1 119.5 10     0.0000    0.0331
ML13         ?    BHZ  e P      c 20230914 1624    0.1439 GAU  9.10e-04 -1.00e+00 -1.00e+00 -1.00e+00    1.0000 >    1.0615    0.0042    1.5978  737.1780 9821.5410   -1.2220    3.3182 358.06 358.1 115.8 10     0.0000    0.0212
ML13         ?    BHN  e S      ? 20230914 1624    0.9025 GAU  1.28e-03 -1.00e+00 -1.00e+00 -1.00e+00    1.0000 >    1.8100    0.0143    1.2633  737.1780 9821.5410   -1.2220    3.3182 358.06 358.1 112.2 10     0.0000    0.0362
ML07         ?    BHZ  e P      c 20230914 1624    0.5397 GAU  5.63e-04 -1.00e+00 -1.00e+00 -1.00e+00    1.0000 >    1.3254    0.1362    0.0128  737.4430 9822.8030   -1.1120    4.5808   1.91   1.9 101.7 10     0.0000    0.0265
ML07         ?    BHE  e S      ? 20230914 1624    1.6037 GAU  7.80e-04 -1.00e+00 -1.00e+00 -1.00e+00    1.0000 >    2.2490    0.2765    0.0869  737.4430 9822.8030   -1.1120    4.5808   1.91   1.9  98.3  9     0.0000    0.0450
ML12         ?    BHZ  e P      c 20230914 1624    0.7741 GAU  2.17e-03 -1.00e+00 -1.00e+00 -1.00e+00    1.0000 >    1.4455    0.2504    0.0856  736.8520 9823.3800   -0.9890    5.1739 355.14 355.1  96.6  9     0.0000    0.0289
ML12         ?    BHN  e S      ? 20230914 1624    2.0037 GAU  1.44e-03 -1.00e+00 -1.00e+00 -1.00e+00    1.0000 >    2.4427    0.4828    0.0006  736.8520 9823.3800   -0.9890    5.1739 355.14 355.1  95.1  9     0.0000    0.0489
END_PHASE
END_NLLOC

