NLLOC "./loc/SEML.20230914.160125.grid0" "LOCATED" "Location completed."
PUBLIC_ID None
SIGNATURE "Arham Zakki Edelo - edelo.17034@mhs.its.ac.id   obs:./obs/2023_09.obs   NLLoc:v7.00.10(30Aug2020)   run:22Jan2024 21h53m58"
COMMENT "SEML"
GRID  2001 2001 1001  727 9811 -2  0.01 0.01 0.01 PROB_DENSITY
SEARCH OCTREE nInitial 4851 nEvaluated 20011 smallestNodeSide 0.014881/0.014881/0.014205 oct_tree_integral 4.520279e-02 scatter_volume 4.503107e-02
HYPOCENTER  x 736.888 y 9817.81 z 0.393466  OT 24.8313  ix -1 iy -1 iz -1 MAXIMUM_LIKELIHOOD
GEOGRAPHIC  OT 2023 09 14  16 01 24.831252  Lat 9817.808036 Long 736.888393 Depth 0.393466
QUALITY  Pmax 1.60737e+48 MFmin 54.5615 MFmax 68.1069 RMS 0.0292617 Nphs 16 Gap 304.354 Dist 1.93245 Mamp -9.90 0 Mdur -9.90 0
VPVSRATIO  VpVsRatio 1.72363  Npair 8  Diff 0.582766
STATISTICS  ExpectX 737.177670 Y 9817.884268 Z 0.294065  CovXX 0.978801 XY 0.161104 XZ 0.288375 YY 0.0514818 YZ 0.00581231 ZZ 0.27135 EllAz1  166.45 Dip1  -13.532 Len1  0.223056 Az2  223.012 Dip2  66.4063 Len2  0.805 Len3  1.974078e+00
STAT_GEOG  ExpectLat 9817.884268 Long 737.177670 Depth 0.294065
TRANSFORM  NONE
QML_OriginQuality  assocPhCt 16  usedPhCt 16  assocStaCt -1  usedStaCt 8  depthPhCt -1  stdErr 0.0292617  azGap 304.354  secAzGap 304.354  gtLevel -  minDist 1.93245 maxDist 5.57208 medDist 3.53645
QML_OriginUncertainty  horUnc -1  minHorUnc 0.236364  maxHorUnc 1.52111  azMaxHorUnc 80.4198
QML_ConfidenceEllipsoid  semiMajorAxisLength 1.97408  semiMinorAxisLength 0.223056  semiIntermediateAxisLength 0.805  majorAxisPlunge 18.949  majorAxisAzimuth 81.1898  majorAxisRotation 342.07
FOCALMECH  Hyp  9817.808036 736.888393 0.393466 Mech  0 0 0 mf  0 nObs -1
PHASE ID Ins Cmp On Pha  FM Date     HrMn   Sec     Err  ErrMag    Coda      Amp       Per       PriorWt  >   TTpred    Res       Weight    StaLoc(X  Y         Z)        SDist    SAzim  RAz  RDip RQual    Tcorr       TTerr
ML06         ?    BHZ  i P      d 20230914 1601   25.5350 GAU  2.61e-03 -1.00e+00 -1.00e+00 -1.00e+00    1.0000 >    0.7007    0.0031    1.8155  738.3100 9819.1170   -1.3960    1.9324  47.36  47.4 130.9 10     0.0000    0.0140
ML06         ?    BHN  e S      ? 20230914 1601   26.0517 GAU  6.21e-04 -1.00e+00 -1.00e+00 -1.00e+00    1.0000 >    1.2227   -0.0022    1.6432  738.3100 9819.1170   -1.3960    1.9324  47.36  47.4 129.9 10     0.0000    0.0245
ML14         ?    BHZ  e P      c 20230914 1601   25.6005 GAU  1.86e-03 -1.00e+00 -1.00e+00 -1.00e+00    1.0000 >    0.7758   -0.0066    1.7564  737.5530 9820.0110   -1.3980    2.3010  16.79  16.8 125.7 10     0.0000    0.0155
ML14         ?    BHN  e S      ? 20230914 1601   26.2000 GAU  2.47e-04 -1.00e+00  2.66e+02 -1.00e+00    1.0000 >    1.3539    0.0149    1.4651  737.5530 9820.0110   -1.3980    2.3010  16.79  16.8 124.5 10     0.0000    0.0271
ML11         ?    BHZ  e P      c 20230914 1601   25.7104 GAU  1.21e-03 -1.00e+00 -1.00e+00 -1.00e+00    1.0000 >    0.9423   -0.0632    0.6927  738.4670 9820.4900   -1.3120    3.1121  30.48  30.5 116.0 10     0.0000    0.0188
ML11         ?    BHE  i S      ? 20230914 1601   26.2679 GAU  8.94e-04 -1.00e+00 -1.00e+00 -1.00e+00    1.0000 >    1.6454   -0.2088    0.0346  738.4670 9820.4900   -1.3120    3.1121  30.48  30.5 114.1 10     0.0000    0.0329
ML09         ?    BHZ  i P      d 20230914 1601   25.8222 GAU  4.68e-04 -1.00e+00  2.29e+02 -1.00e+00    1.0000 >    0.9871    0.0038    1.7214  737.8820 9820.9850   -1.2700    3.3287  17.37  17.4 113.8 10     0.0000    0.0197
ML09         ?    BHE  e S      ? 20230914 1601   26.5338 GAU  5.61e-04 -1.00e+00  3.65e+02 -1.00e+00    1.0000 >    1.7241   -0.0216    1.3846  737.8820 9820.9850   -1.2700    3.3287  17.37  17.4 111.7 10     0.0000    0.0345
ML13         ?    BHZ  i P      c 20230914 1601   25.8380 GAU  9.70e-04 -1.00e+00 -1.00e+00 -1.00e+00    1.0000 >    1.0802   -0.0735    0.6094  737.1780 9821.5410   -1.2220    3.7442   4.44   4.4 110.4 10     0.0000    0.0216
ML13         ?    BHN  e S      ? 20230914 1601   26.5964 GAU  3.25e-04 -1.00e+00 -1.00e+00 -1.00e+00    1.0000 >    1.8873   -0.1222    0.2689  737.1780 9821.5410   -1.2220    3.7442   4.44   4.4 107.9 10     0.0000    0.0377
ML05         ?    BHZ  e P      d 20230914 1601   26.2594 GAU  1.40e-03 -1.00e+00  3.06e+02 -1.00e+00    1.0000 >    1.2125    0.2156    0.0026  736.2660 9822.0830   -1.1500    4.3200 351.72 351.7 106.7 10     0.0000    0.0243
ML05         ?    BHE  e S      ? 20230914 1601   27.3076 GAU  8.63e-04 -1.00e+00 -1.00e+00 -1.00e+00    1.0000 >    2.1192    0.3572    0.0023  736.2660 9822.0830   -1.1500    4.3200 351.72 351.7 103.7 10     0.0000    0.0424
ML07         ?    BHZ  i P      c 20230914 1601   26.2630 GAU  3.12e-04 -1.00e+00 -1.00e+00 -1.00e+00    1.0000 >    1.3843    0.0474    0.7628  737.4430 9822.8030   -1.1120    5.0257   6.34   6.3 103.6 10     0.0000    0.0277
ML07         ?    BHE  e S      ? 20230914 1601   27.2748 GAU  4.21e-04 -1.00e+00 -1.00e+00 -1.00e+00    1.0000 >    2.4183    0.0252    1.1040  737.4430 9822.8030   -1.1120    5.0257   6.34   6.3  82.3  9     0.0000    0.0484
ML12         ?    BHZ  e P      c 20230914 1601   26.3308 GAU  4.77e-04 -1.00e+00 -1.00e+00 -1.00e+00    1.0000 >    1.5092   -0.0097    1.5216  736.8520 9823.3800   -0.9890    5.5721 359.63 359.6 101.3 10     0.0000    0.0302
ML12         ?    BHE  e S      ? 20230914 1601   27.4303 GAU  4.56e-04 -1.00e+00  7.00e+01 -1.00e+00    1.0000 >    2.6139   -0.0148    1.2148  736.8520 9823.3800   -0.9890    5.5721 359.63 359.6  67.2 10     0.0000    0.0523
END_PHASE
END_NLLOC

