NLLOC "./loc/SEML.20230914.163237.grid0" "LOCATED" "Location completed."
PUBLIC_ID None
SIGNATURE "Arham Zakki Edelo - edelo.17034@mhs.its.ac.id   obs:./obs/2023_09.obs   NLLoc:v7.00.10(30Aug2020)   run:22Jan2024 21h54m43"
COMMENT "SEML"
GRID  2001 2001 1001  727 9811 -2  0.01 0.01 0.01 PROB_DENSITY
SEARCH OCTREE nInitial 4851 nEvaluated 20011 smallestNodeSide 0.014881/0.014881/0.014205 oct_tree_integral 1.252879e-02 scatter_volume 1.228098e-02
HYPOCENTER  x 738.042 y 9818.71 z 0.471591  OT 37.1138  ix -1 iy -1 iz -1 MAXIMUM_LIKELIHOOD
GEOGRAPHIC  OT 2023 09 14  16 32 37.113818  Lat 9818.708333 Long 738.041667 Depth 0.471591
QUALITY  Pmax 1.34635e+95 MFmin 100.225 MFmax 125.902 RMS 0.0280549 Nphs 26 Gap 262.488 Dist 0.488888 Mamp -9.90 0 Mdur -9.90 0
VPVSRATIO  VpVsRatio 1.7891  Npair 13  Diff 0.605709
STATISTICS  ExpectX 738.081704 Y 9818.680263 Z 0.489236  CovXX 0.0173584 XY -0.00649622 XZ -0.00229705 YY 0.0110088 YZ -0.00170044 ZZ 0.00973143 EllAz1  34.2627 Dip1  31.4775 Len1  0.137089 Az2  202.476 Dip2  57.9761 Len2  0.199399 Len3  2.755632e-01
STAT_GEOG  ExpectLat 9818.680263 Long 738.081704 Depth 0.489236
TRANSFORM  NONE
QML_OriginQuality  assocPhCt 26  usedPhCt 26  assocStaCt -1  usedStaCt 13  depthPhCt -1  stdErr 0.0280549  azGap 262.488  secAzGap 262.488  gtLevel -  minDist 0.488888 maxDist 4.82077 medDist 2.43995
QML_OriginUncertainty  horUnc -1  minHorUnc 0.12646  maxHorUnc 0.221929  azMaxHorUnc 121.977
QML_ConfidenceEllipsoid  semiMajorAxisLength 0.275563  semiMinorAxisLength 0.137089  semiIntermediateAxisLength 0.199399  majorAxisPlunge -5.30039  majorAxisAzimuth 121.006  majorAxisRotation 147.93
FOCALMECH  Hyp  9818.708333 738.041667 0.471591 Mech  0 0 0 mf  0 nObs -1
PHASE ID Ins Cmp On Pha  FM Date     HrMn   Sec     Err  ErrMag    Coda      Amp       Per       PriorWt  >   TTpred    Res       Weight    StaLoc(X  Y         Z)        SDist    SAzim  RAz  RDip RQual    Tcorr       TTerr
ML06         ?    BHZ  i P      c 20230914 1632   37.6354 GAU  1.40e-03 -1.00e+00  2.09e+02 -1.00e+00    1.0000 >    0.5135    0.0081    1.3813  738.3100 9819.1170   -1.3960    0.4889  33.29  33.3 164.8 10     0.0000    0.0103
ML06         ?    BHN  i S      ? 20230914 1632   38.0978 GAU  1.86e-03 -1.00e+00  1.59e+02 -1.00e+00    1.0000 >    0.8955    0.0885    0.2185  738.3100 9819.1170   -1.3960    0.4889  33.29  33.3 164.6 10     0.0000    0.0179
ML04         ?    BHZ  i P      d 20230914 1632   37.7225 GAU  2.24e-03 -1.00e+00  7.80e+02 -1.00e+00    1.0000 >    0.6128   -0.0042    1.4869  737.1400 9819.2520   -1.5710    1.0529 301.09 301.1 151.9 10     0.0000    0.0123
ML04         ?    BHE  i S      ? 20230914 1632   38.1564 GAU  9.32e-04 -1.00e+00  5.77e+02 -1.00e+00    1.0000 >    1.0677   -0.0251    1.2634  737.1400 9819.2520   -1.5710    1.0529 301.09 301.1 151.5 10     0.0000    0.0214
ML14         ?    BHZ  i P      c 20230914 1632   37.7362 GAU  2.41e-03 -1.00e+00  4.07e+02 -1.00e+00    1.0000 >    0.6196    0.0028    1.4514  737.5530 9820.0110   -1.3980    1.3913 339.44 339.4 142.3 10     0.0000    0.0124
ML14         ?    BHN  e S      ? 20230914 1632   38.1901 GAU  1.71e-03 -1.00e+00 -1.00e+00 -1.00e+00    1.0000 >    1.0805   -0.0042    1.3731  737.5530 9820.0110   -1.3980    1.3913 339.44 339.4 141.7 10     0.0000    0.0216
ML02         ?    BHZ  i P      c 20230914 1632   37.7765 GAU  4.83e-03 -1.00e+00 -1.00e+00 -1.00e+00    1.0000 >    0.6759   -0.0132    1.4274  736.5970 9819.4060   -1.4960    1.6043 295.78 295.8 139.5 10     0.0000    0.0135
ML02         ?    BHN  e S      ? 20230914 1632   38.3155 GAU  5.63e-04 -1.00e+00 -1.00e+00 -1.00e+00    1.0000 >    1.1781    0.0236    0.9910  736.5970 9819.4060   -1.4960    1.6043 295.78 295.8 138.9 10     0.0000    0.0236
ML11         ?    BHZ  i P      c 20230914 1632   37.7484 GAU  1.93e-03 -1.00e+00  9.21e+01 -1.00e+00    1.0000 >    0.6783   -0.0437    0.9412  738.4670 9820.4900   -1.3120    1.8317  13.43  13.4 132.7 10     0.0000    0.0136
ML11         ?    BHN  e S      ? 20230914 1632   38.3063 GAU  4.99e-04 -1.00e+00  1.00e+02 -1.00e+00    1.0000 >    1.1835    0.0090    1.2333  738.4670 9820.4900   -1.3120    1.8317  13.43  13.4 131.8 10     0.0000    0.0237
ML09         ?    BHZ  i P      c 20230914 1632   37.8458 GAU  1.12e-03 -1.00e+00  3.02e+02 -1.00e+00    1.0000 >    0.7610   -0.0291    1.2168  737.8820 9820.9850   -1.2700    2.2823 355.99 356.0 125.4 10     0.0000    0.0152
ML09         ?    BHE  e S      ? 20230914 1632   38.4344 GAU  5.78e-04 -1.00e+00  5.71e+01 -1.00e+00    1.0000 >    1.3282   -0.0077    1.3038  737.8820 9820.9850   -1.2700    2.2823 355.99 356.0 124.2 10     0.0000    0.0266
ML03         ?    BHZ  i P      d 20230914 1632   37.8775 GAU  4.81e-04 -1.00e+00  1.88e+03 -1.00e+00    1.0000 >    0.8058   -0.0421    0.9840  736.8800 9820.8540   -1.3350    2.4399 331.57 331.6 124.4 10     0.0000    0.0161
ML03         ?    BHE  e S      ? 20230914 1632   38.4532 GAU  1.58e-03 -1.00e+00  7.55e+01 -1.00e+00    1.0000 >    1.4058   -0.0665    0.5851  736.8800 9820.8540   -1.3350    2.4399 331.57 331.6 123.2 10     0.0000    0.0281
ML13         ?    BHZ  i P      c 20230914 1632   37.9623 GAU  5.10e-03 -1.00e+00  8.59e+01 -1.00e+00    1.0000 >    0.9033   -0.0548    0.7355  737.1780 9821.5410   -1.2220    2.9614 343.04 343.0 117.4 10     0.0000    0.0181
ML13         ?    BHN  e S      ? 20230914 1632   38.5952 GAU  7.45e-04 -1.00e+00 -1.00e+00 -1.00e+00    1.0000 >    1.5770   -0.0956    0.2457  737.1780 9821.5410   -1.2220    2.9614 343.04 343.0 115.7 10     0.0000    0.0315
ML10         ?    BHZ  i P      c 20230914 1632   38.0605 GAU  3.25e-03 -1.00e+00 -1.00e+00 -1.00e+00    1.0000 >    0.9227    0.0240    0.9766  736.5490 9821.3650   -1.2200    3.0473 330.67 330.7 116.7 10     0.0000    0.0185
ML10         ?    BHN  e S      ? 20230914 1632   38.8303 GAU  6.50e-03 -1.00e+00 -1.00e+00 -1.00e+00    1.0000 >    1.6110    0.1055    0.1974  736.5490 9821.3650   -1.2200    3.0473 330.67 330.7 115.0 10     0.0000    0.0322
ML05         ?    BHZ  i P      d 20230914 1632   38.2174 GAU  5.10e-03 -1.00e+00  3.17e+02 -1.00e+00    1.0000 >    1.0948    0.0088    1.2503  736.2660 9822.0830   -1.1500    3.8133 332.25 332.2 110.4 10     0.0000    0.0219
ML05         ?    BHN  e S      ? 20230914 1632   39.0953 GAU  2.46e-03 -1.00e+00  2.77e+02 -1.00e+00    1.0000 >    1.9120    0.0695    0.4545  736.2660 9822.0830   -1.1500    3.8133 332.25 332.2 107.8  9     0.0000    0.0382
ML07         ?    BHZ  i P      d 20230914 1632   38.2759 GAU  1.79e-03 -1.00e+00 -1.00e+00 -1.00e+00    1.0000 >    1.1693   -0.0071    1.3515  737.4430 9822.8030   -1.1120    4.1382 351.68 351.7 108.3 10     0.0000    0.0234
ML07         ?    BHN  e S      ? 20230914 1632   39.1748 GAU  5.02e-03 -1.00e+00 -1.00e+00 -1.00e+00    1.0000 >    2.0416    0.0194    0.9640  737.4430 9822.8030   -1.1120    4.1382 351.68 351.7  81.8  9     0.0000    0.0408
ML01         ?    BHZ  i P      c 20230914 1632   38.2476 GAU  2.68e-03 -1.00e+00 -1.00e+00 -1.00e+00    1.0000 >    1.1709   -0.0372    1.0756  736.4090 9822.5140   -1.1200    4.1411 336.78 336.8 108.4 10     0.0000    0.0234
ML01         ?    BHE  e S      ? 20230914 1632   39.1433 GAU  1.40e-03 -1.00e+00  6.13e+02 -1.00e+00    1.0000 >    2.0446   -0.0151    1.0866  736.4090 9822.5140   -1.1200    4.1411 336.78 336.8  83.2  9     0.0000    0.0409
ML12         ?    BHZ  i P      d 20230914 1632   38.4345 GAU  2.32e-03 -1.00e+00 -1.00e+00 -1.00e+00    1.0000 >    1.3244   -0.0036    1.2953  736.8520 9823.3800   -0.9890    4.8208 345.71 345.7 104.4 10     0.0000    0.0265
ML12         ?    BHE  e S      ? 20230914 1632   39.4742 GAU  4.35e-04 -1.00e+00 -1.00e+00 -1.00e+00    1.0000 >    2.2926    0.0678    0.5097  736.8520 9823.3800   -0.9890    4.8208 345.71 345.7  67.2 10     0.0000    0.0459
END_PHASE
END_NLLOC

