NLLOC "./loc/SEML.20230928.090421.grid0" "LOCATED" "Location completed."
PUBLIC_ID None
SIGNATURE "Arham Zakki Edelo - edelo.17034@mhs.its.ac.id   obs:./obs/2023_09.obs   NLLoc:v7.00.10(30Aug2020)   run:22Jan2024 21h56m44"
COMMENT "SEML"
GRID  2001 2001 1001  727 9811 -2  0.01 0.01 0.01 PROB_DENSITY
SEARCH OCTREE nInitial 4851 nEvaluated 20011 smallestNodeSide 0.014881/0.014881/0.014205 oct_tree_integral 2.958706e-02 scatter_volume 2.930326e-02
HYPOCENTER  x 738.027 y 9818.49 z 0.599432  OT 21.2726  ix -1 iy -1 iz -1 MAXIMUM_LIKELIHOOD
GEOGRAPHIC  OT 2023 09 28  09 04 21.272602  Lat 9818.485119 Long 738.026786 Depth 0.599432
QUALITY  Pmax 3.52186e+45 MFmin 54.8479 MFmax 64.8279 RMS 0.0211727 Nphs 14 Gap 286.711 Dist 0.692448 Mamp -9.90 0 Mdur -9.90 0
VPVSRATIO  VpVsRatio 1.71523  Npair 7  Diff 0.476103
STATISTICS  ExpectX 738.075851 Y 9818.470264 Z 0.591407  CovXX 0.0310652 XY 0.00691689 XZ -0.00512419 YY 0.0130899 YZ -0.00318518 ZZ 0.0160453 EllAz1  345.873 Dip1  17.7368 Len1  0.190666 Az2  299.066 Dip2  -64.9531 Len2  0.227605 Len3  3.526327e-01
STAT_GEOG  ExpectLat 9818.470264 Long 738.075851 Depth 0.591407
TRANSFORM  NONE
QML_OriginQuality  assocPhCt 14  usedPhCt 14  assocStaCt -1  usedStaCt 7  depthPhCt -1  stdErr 0.0211727  azGap 286.711  secAzGap 286.711  gtLevel -  minDist 0.692448 maxDist 4.35717 medDist 2.05264
QML_OriginUncertainty  horUnc -1  minHorUnc 0.157142  maxHorUnc 0.277242  azMaxHorUnc 71.2091
QML_ConfidenceEllipsoid  semiMajorAxisLength 0.352633  semiMinorAxisLength 0.190666  semiIntermediateAxisLength 0.227605  majorAxisPlunge -17.0964  majorAxisAzimuth 70.2269  majorAxisRotation 157.876
FOCALMECH  Hyp  9818.485119 738.026786 0.599432 Mech  0 0 0 mf  0 nObs -1
PHASE ID Ins Cmp On Pha  FM Date     HrMn   Sec     Err  ErrMag    Coda      Amp       Per       PriorWt  >   TTpred    Res       Weight    StaLoc(X  Y         Z)        SDist    SAzim  RAz  RDip RQual    Tcorr       TTerr
ML06         ?    BHZ  i P      c 20230928 0904   21.8362 GAU  3.74e-04 -1.00e+00 -1.00e+00 -1.00e+00    1.0000 >    0.5606    0.0030    1.2363  738.3100 9819.1170   -1.3960    0.6924  24.14  24.1 160.1 10     0.0000    0.0112
ML06         ?    BHN  e S      ? 20230928 0904   22.2753 GAU  3.76e-04 -1.00e+00 -1.00e+00 -1.00e+00    1.0000 >    0.9735    0.0292    0.7201  738.3100 9819.1170   -1.3960    0.6924  24.14  24.1 158.4 10     0.0000    0.0195
ML04         ?    BHZ  e P      d 20230928 0904   21.9019 GAU  2.24e-03 -1.00e+00  2.05e+03 -1.00e+00    1.0000 >    0.6563   -0.0271    1.0738  737.1400 9819.2520   -1.5710    1.1724 310.85 310.9 150.4 10     0.0000    0.0131
ML04         ?    BHN  e S      ? 20230928 0904   22.3915 GAU  1.71e-03 -1.00e+00  7.92e+02 -1.00e+00    1.0000 >    1.1392   -0.0203    1.1242  737.1400 9819.2520   -1.5710    1.1724 310.85 310.9 147.7 10     0.0000    0.0228
ML14         ?    BHZ  i P      c 20230928 0904   21.9565 GAU  1.59e-03 -1.00e+00 -1.00e+00 -1.00e+00    1.0000 >    0.6784    0.0055    1.2037  737.5530 9820.0110   -1.3980    1.5977 342.75 342.8 139.8 10     0.0000    0.0136
ML14         ?    BHE  e S      ? 20230928 0904   22.4599 GAU  3.34e-04 -1.00e+00  4.65e+02 -1.00e+00    1.0000 >    1.1779    0.0094    1.0784  737.5530 9820.0110   -1.3980    1.5977 342.75 342.8 135.7 10     0.0000    0.0236
ML11         ?    BHZ  i P      c 20230928 0904   21.9841 GAU  8.98e-04 -1.00e+00 -1.00e+00 -1.00e+00    1.0000 >    0.7424   -0.0309    0.9929  738.4670 9820.4900   -1.3120    2.0526  12.38  12.4 130.8 10     0.0000    0.0148
ML11         ?    BHN  i S      ? 20230928 0904   22.5218 GAU  5.22e-04 -1.00e+00  2.88e+00 -1.00e+00    1.0000 >    1.2892   -0.0400    0.7932  738.4670 9820.4900   -1.3120    2.0526  12.38  12.4 125.0 10     0.0000    0.0258
ML09         ?    BHZ  i P      c 20230928 0904   22.0788 GAU  8.84e-04 -1.00e+00  5.17e+01 -1.00e+00    1.0000 >    0.8265   -0.0202    1.1853  737.8820 9820.9850   -1.2700    2.5041 356.69 356.7 124.1 10     0.0000    0.0165
ML09         ?    BHE  e S      ? 20230928 0904   22.6704 GAU  2.71e-04 -1.00e+00  3.67e+02 -1.00e+00    1.0000 >    1.4350   -0.0372    0.8333  737.8820 9820.9850   -1.2700    2.5041 356.69 356.7 116.6 10     0.0000    0.0287
ML13         ?    BHZ  e P      c 20230928 0904   22.2364 GAU  1.21e-03 -1.00e+00 -1.00e+00 -1.00e+00    1.0000 >    0.9661   -0.0024    1.2349  737.1780 9821.5410   -1.2220    3.1716 344.48 344.5 116.7 10     0.0000    0.0193
ML13         ?    BHE  e S      ? 20230928 0904   22.9684 GAU  1.90e-03 -1.00e+00 -1.00e+00 -1.00e+00    1.0000 >    1.6764    0.0194    0.8683  737.1780 9821.5410   -1.2220    3.1716 344.48 344.5 106.1 10     0.0000    0.0335
ML07         ?    BHZ  e P      c 20230928 0904   22.5201 GAU  2.80e-04 -1.00e+00 -1.00e+00 -1.00e+00    1.0000 >    1.2326    0.0149    0.9929  737.4430 9822.8030   -1.1120    4.3572 352.30 352.3 107.5 10     0.0000    0.0247
ML07         ?    BHN  e S      ? 20230928 0904   23.4353 GAU  2.03e-04 -1.00e+00 -1.00e+00 -1.00e+00    1.0000 >    2.1285    0.0343    0.6628  737.4430 9822.8030   -1.1120    4.3572 352.30 352.3  94.9  9     0.0000    0.0426
END_PHASE
END_NLLOC

