NLLOC "./loc/SEML.20230928.082647.grid0" "LOCATED" "Location completed."
PUBLIC_ID None
SIGNATURE "Arham Zakki Edelo - edelo.17034@mhs.its.ac.id   obs:./obs/2023_09.obs   NLLoc:v7.00.10(30Aug2020)   run:22Jan2024 21h56m07"
COMMENT "SEML"
GRID  2001 2001 1001  727 9811 -2  0.01 0.01 0.01 PROB_DENSITY
SEARCH OCTREE nInitial 4851 nEvaluated 20019 smallestNodeSide 0.014881/0.014881/0.014205 oct_tree_integral 5.178495e-02 scatter_volume 5.093610e-02
HYPOCENTER  x 738.89 y 9818.43 z -0.0255682  OT 46.8396  ix -1 iy -1 iz -1 MAXIMUM_LIKELIHOOD
GEOGRAPHIC  OT 2023 09 28  08 26 46.839589  Lat 9818.425595 Long 738.889881 Depth -0.025568
QUALITY  Pmax 9.05311e+89 MFmin 96.3571 MFmax 114.827 RMS 0.0442055 Nphs 26 Gap 304.727 Dist 0.902387 Mamp -9.90 0 Mdur -9.90 0
VPVSRATIO  VpVsRatio 1.77255  Npair 13  Diff 0.638123
STATISTICS  ExpectX 738.796326 Y 9818.367648 Z 0.136612  CovXX 0.0447174 XY 0.0027465 XZ -0.0395879 YY 0.0238914 YZ -0.00985579 ZZ 0.0555593 EllAz1  66.7336 Dip1  40.7278 Len1  0.176217 Az2  341.626 Dip2  -5.65712 Len2  0.291115 Len3  5.679023e-01
STAT_GEOG  ExpectLat 9818.367648 Long 738.796326 Depth 0.136612
TRANSFORM  NONE
QML_OriginQuality  assocPhCt 26  usedPhCt 26  assocStaCt -1  usedStaCt 13  depthPhCt -1  stdErr 0.0442055  azGap 304.727  secAzGap 304.727  gtLevel -  minDist 0.902387 maxDist 5.35715 medDist 3.15226
QML_OriginUncertainty  horUnc -1  minHorUnc 0.232661  maxHorUnc 0.321977  azMaxHorUnc 82.6122
QML_ConfidenceEllipsoid  semiMajorAxisLength 0.567902  semiMinorAxisLength 0.176217  semiIntermediateAxisLength 0.291115  majorAxisPlunge -48.71  majorAxisAzimuth 78.1026  majorAxisRotation 268.882
FOCALMECH  Hyp  9818.425595 738.889881 -0.025568 Mech  0 0 0 mf  0 nObs -1
PHASE ID Ins Cmp On Pha  FM Date     HrMn   Sec     Err  ErrMag    Coda      Amp       Per       PriorWt  >   TTpred    Res       Weight    StaLoc(X  Y         Z)        SDist    SAzim  RAz  RDip RQual    Tcorr       TTerr
ML06         ?    BHZ  i P      c 20230928 0826   47.3754 GAU  1.56e-03 -1.00e+00 -1.00e+00 -1.00e+00    1.0000 >    0.4407    0.0951    0.2931  738.3100 9819.1170   -1.3960    0.9024 320.01 320.0 145.4 10     0.0000    0.0088
ML06         ?    BHN  i S      ? 20230928 0826   47.8749 GAU  1.04e-03 -1.00e+00 -1.00e+00 -1.00e+00    1.0000 >    0.7717    0.2636    0.0000  738.3100 9819.1170   -1.3960    0.9024 320.01 320.0 146.4 10     0.0000    0.0154
ML04         ?    BHZ  e P      d 20230928 0826   47.4656 GAU  7.30e-03 -1.00e+00  2.51e+02 -1.00e+00    1.0000 >    0.6665   -0.0404    1.1735  737.1400 9819.2520   -1.5710    1.9352 295.28 295.3 125.8 10     0.0000    0.0133
ML04         ?    BHN  e S      ? 20230928 0826   47.9963 GAU  1.13e-03 -1.00e+00  5.47e+02 -1.00e+00    1.0000 >    1.1654   -0.0087    1.5269  737.1400 9819.2520   -1.5710    1.9352 295.28 295.3 127.7 10     0.0000    0.0233
ML14         ?    BHZ  i P      c 20230928 0826   47.5066 GAU  1.21e-03 -1.00e+00 -1.00e+00 -1.00e+00    1.0000 >    0.6675   -0.0005    1.6278  737.5530 9820.0110   -1.3980    2.0738 319.86 319.9 120.4 10     0.0000    0.0133
ML14         ?    BHE  e S      ? 20230928 0826   48.0033 GAU  2.15e-03 -1.00e+00  1.00e+03 -1.00e+00    1.0000 >    1.1694   -0.0057    1.5217  737.5530 9820.0110   -1.3980    2.0738 319.86 319.9 122.5 10     0.0000    0.0234
ML11         ?    BHZ  i P      c 20230928 0826   47.5154 GAU  1.40e-03 -1.00e+00 -1.00e+00 -1.00e+00    1.0000 >    0.6616    0.0142    1.3728  738.4670 9820.4900   -1.3120    2.1073 348.42 348.4 118.2 10     0.0000    0.0132
ML11         ?    BHE  e S      ? 20230928 0826   48.1127 GAU  1.04e-03 -1.00e+00  2.37e+02 -1.00e+00    1.0000 >    1.1605    0.1126    0.2476  738.4670 9820.4900   -1.3120    2.1073 348.42 348.4 120.3 10     0.0000    0.0232
ML02         ?    BHZ  i P      d 20230928 0826   47.6174 GAU  8.63e-04 -1.00e+00  1.97e+03 -1.00e+00    1.0000 >    0.7781   -0.0003    1.6069  736.5970 9819.4060   -1.4960    2.4937 293.15 293.2 117.0 10     0.0000    0.0156
ML02         ?    BHN  e S      ? 20230928 0826   48.2150 GAU  1.66e-03 -1.00e+00 -1.00e+00 -1.00e+00    1.0000 >    1.3620    0.0134    1.2872  736.5970 9819.4060   -1.4960    2.4937 293.15 293.2 119.4 10     0.0000    0.0272
ML09         ?    BHZ  i P      c 20230928 0826   47.5778 GAU  1.93e-03 -1.00e+00 -1.00e+00 -1.00e+00    1.0000 >    0.8079   -0.0697    0.7751  737.8820 9820.9850   -1.2700    2.7507 338.51 338.5 110.5 10     0.0000    0.0162
ML09         ?    BHN  e S      ? 20230928 0826   48.2095 GAU  1.17e-03 -1.00e+00  7.34e+02 -1.00e+00    1.0000 >    1.4188   -0.0489    1.1448  737.8820 9820.9850   -1.2700    2.7507 338.51 338.5 113.1 10     0.0000    0.0284
ML03         ?    BHZ  e P      c 20230928 0826   47.6371 GAU  8.62e-04 -1.00e+00 -1.00e+00 -1.00e+00    1.0000 >    0.9142   -0.1167    0.4269  736.8800 9820.8540   -1.3350    3.1523 320.39 320.4 108.3 10     0.0000    0.0183
ML03         ?    BHE  e S      ? 20230928 0826   48.3149 GAU  2.34e-03 -1.00e+00 -1.00e+00 -1.00e+00    1.0000 >    1.6047   -0.1294    0.3777  736.8800 9820.8540   -1.3350    3.1523 320.39 320.4 111.2 10     0.0000    0.0321
ML13         ?    BHZ  i P      c 20230928 0826   47.7463 GAU  1.29e-03 -1.00e+00 -1.00e+00 -1.00e+00    1.0000 >    1.0013   -0.0946    0.6001  737.1780 9821.5410   -1.2220    3.5548 331.21 331.2 104.2 10     0.0000    0.0200
ML13         ?    BHE  e S      ? 20230928 0826   48.4840 GAU  4.56e-03 -1.00e+00 -1.00e+00 -1.00e+00    1.0000 >    1.7618   -0.1174    0.4879  737.1780 9821.5410   -1.2220    3.5548 331.21 331.2 107.1 10     0.0000    0.0352
ML10         ?    BHZ  e P      c 20230928 0826   47.8605 GAU  1.82e-03 -1.00e+00  8.10e+02 -1.00e+00    1.0000 >    1.0522   -0.0312    1.3591  736.5490 9821.3650   -1.2200    3.7576 321.47 321.5 103.2 10     0.0000    0.0210
ML10         ?    BHE  e S      ? 20230928 0826   48.6780 GAU  1.39e-03 -1.00e+00  6.66e+01 -1.00e+00    1.0000 >    1.8520   -0.0136    1.3427  736.5490 9821.3650   -1.2200    3.7576 321.47 321.5 106.1 10     0.0000    0.0370
ML05         ?    BHZ  i P      c 20230928 0826   48.0894 GAU  1.93e-03 -1.00e+00 -1.00e+00 -1.00e+00    1.0000 >    1.2339    0.0159    1.2668  736.2660 9822.0830   -1.1500    4.5013 324.34 324.3  99.7 10     0.0000    0.0247
ML05         ?    BHE  e S      ? 20230928 0826   49.0897 GAU  1.70e-03 -1.00e+00 -1.00e+00 -1.00e+00    1.0000 >    2.1770    0.0731    0.5574  736.2660 9822.0830   -1.1500    4.5013 324.34 324.3  89.4  8     0.0000    0.0435
ML07         ?    BHZ  e P      c 20230928 0826   48.0890 GAU  1.55e-03 -1.00e+00 -1.00e+00 -1.00e+00    1.0000 >    1.2580   -0.0086    1.5010  737.4430 9822.8030   -1.1120    4.6103 341.71 341.7  99.1 10     0.0000    0.0252
ML07         ?    BHN  e S      ? 20230928 0826   49.1007 GAU  2.96e-03 -1.00e+00 -1.00e+00 -1.00e+00    1.0000 >    2.2201    0.0410    0.8783  737.4430 9822.8030   -1.1120    4.6103 341.71 341.7  77.0  8     0.0000    0.0444
ML01         ?    BHZ  i P      c 20230928 0826   48.0930 GAU  1.08e-03 -1.00e+00 -1.00e+00 -1.00e+00    1.0000 >    1.3028   -0.0494    1.1305  736.4090 9822.5140   -1.1200    4.7822 328.75 328.8  98.7 10     0.0000    0.0261
ML01         ?    BHN  e S      ? 20230928 0826   49.0780 GAU  2.64e-03 -1.00e+00  1.60e+03 -1.00e+00    1.0000 >    2.2978   -0.0594    1.0337  736.4090 9822.5140   -1.1200    4.7822 328.75 328.8  73.0 10     0.0000    0.0460
ML12         ?    BHZ  i P      c 20230928 0826   48.2620 GAU  8.63e-04 -1.00e+00 -1.00e+00 -1.00e+00    1.0000 >    1.4379   -0.0156    1.4454  736.8520 9823.3800   -0.9890    5.3572 337.64 337.6  96.9 10     0.0000    0.0288
ML12         ?    BHN  e S      ? 20230928 0826   49.3968 GAU  1.14e-03 -1.00e+00 -1.00e+00 -1.00e+00    1.0000 >    2.5323    0.0248    1.0152  736.8520 9823.3800   -0.9890    5.3572 337.64 337.6  72.9 10     0.0000    0.0506
END_PHASE
END_NLLOC

