NLLOC "./loc/SEML.20230914.172448.grid0" "LOCATED" "Location completed."
PUBLIC_ID None
SIGNATURE "Arham Zakki Edelo - edelo.17034@mhs.its.ac.id   obs:./obs/2023_09.obs   NLLoc:v7.00.10(30Aug2020)   run:22Jan2024 21h55m06"
COMMENT "SEML"
GRID  2001 2001 1001  727 9811 -2  0.01 0.01 0.01 PROB_DENSITY
SEARCH OCTREE nInitial 4851 nEvaluated 20027 smallestNodeSide 0.014881/0.014881/0.014205 oct_tree_integral 3.511134e-02 scatter_volume 3.451372e-02
HYPOCENTER  x 737.454 y 9818.19 z 0.507102  OT 47.4723  ix -1 iy -1 iz -1 MAXIMUM_LIKELIHOOD
GEOGRAPHIC  OT 2023 09 14  17 24 47.472342  Lat 9818.194940 Long 737.453869 Depth 0.507102
QUALITY  Pmax 7.47995e+50 MFmin 59.4052 MFmax 71.1277 RMS 0.0301313 Nphs 16 Gap 300.586 Dist 1.10267 Mamp -9.90 0 Mdur -9.90 0
VPVSRATIO  VpVsRatio 1.72462  Npair 8  Diff 0.624947
STATISTICS  ExpectX 737.524258 Y 9818.202693 Z 0.447800  CovXX 0.0331698 XY 0.00155644 XZ 0.00232363 YY 0.0169375 YZ -0.00420817 ZZ 0.0288559 EllAz1  172.554 Dip1  -18.3025 Len1  0.232629 Az2  229.406 Dip2  58.8294 Len2  0.322398 Len3  3.473953e-01
STAT_GEOG  ExpectLat 9818.202693 Long 737.524258 Depth 0.447800
TRANSFORM  NONE
QML_OriginQuality  assocPhCt 16  usedPhCt 16  assocStaCt -1  usedStaCt 8  depthPhCt -1  stdErr 0.0301313  azGap 300.586  secAzGap 300.586  gtLevel -  minDist 1.10267 maxDist 5.21987 medDist 2.66572
QML_OriginUncertainty  horUnc -1  minHorUnc 0.19651  maxHorUnc 0.276823  azMaxHorUnc 84.5721
QML_ConfidenceEllipsoid  semiMajorAxisLength 0.347395  semiMinorAxisLength 0.232629  semiIntermediateAxisLength 0.322398  majorAxisPlunge 24.2951  majorAxisAzimuth 91.1409  majorAxisRotation 330.975
FOCALMECH  Hyp  9818.194940 737.453869 0.507102 Mech  0 0 0 mf  0 nObs -1
PHASE ID Ins Cmp On Pha  FM Date     HrMn   Sec     Err  ErrMag    Coda      Amp       Per       PriorWt  >   TTpred    Res       Weight    StaLoc(X  Y         Z)        SDist    SAzim  RAz  RDip RQual    Tcorr       TTerr
ML04         ?    BHZ  e P      c 20230914 1724   48.0901 GAU  4.49e-04 -1.00e+00 -1.00e+00 -1.00e+00    1.0000 >    0.6270   -0.0092    1.4008  737.1400 9819.2520   -1.5710    1.1027 343.46 343.5 150.9 10     0.0000    0.0125
ML04         ?    BHN  e S      ? 20230914 1724   48.5661 GAU  3.31e-04 -1.00e+00  7.58e+02 -1.00e+00    1.0000 >    1.0919    0.0019    1.3770  737.1400 9819.2520   -1.5710    1.1027 343.46 343.5 148.5  9     0.0000    0.0218
ML06         ?    BHZ  i P      d 20230914 1724   48.0803 GAU  4.69e-04 -1.00e+00 -1.00e+00 -1.00e+00    1.0000 >    0.6063    0.0016    1.4772  738.3100 9819.1170   -1.3960    1.2582  42.88  42.9 145.3 10     0.0000    0.0121
ML06         ?    BHE  e S      ? 20230914 1724   48.5437 GAU  1.42e-03 -1.00e+00 -1.00e+00 -1.00e+00    1.0000 >    1.0567    0.0146    1.2570  738.3100 9819.1170   -1.3960    1.2582  42.88  42.9 142.2  9     0.0000    0.0211
ML14         ?    BHZ  i P      c 20230914 1724   48.1093 GAU  2.79e-03 -1.00e+00 -1.00e+00 -1.00e+00    1.0000 >    0.6995   -0.0626    0.6611  737.5530 9820.0110   -1.3980    1.8188   3.12   3.1 134.5 10     0.0000    0.0140
ML14         ?    BHE  e S      ? 20230914 1724   48.6176 GAU  3.63e-04 -1.00e+00  3.83e+02 -1.00e+00    1.0000 >    1.2193   -0.0740    0.5592  737.5530 9820.0110   -1.3980    1.8188   3.12   3.1 129.7  9     0.0000    0.0244
ML11         ?    BHZ  e P      c 20230914 1724   48.2617 GAU  3.47e-04 -1.00e+00 -1.00e+00 -1.00e+00    1.0000 >    0.8217   -0.0323    1.0378  738.4670 9820.4900   -1.3120    2.5087  23.82  23.8 123.2 10     0.0000    0.0164
ML11         ?    BHE  i S      ? 20230914 1724   48.8518 GAU  4.99e-04 -1.00e+00 -1.00e+00 -1.00e+00    1.0000 >    1.4328   -0.0534    0.8626  738.4670 9820.4900   -1.3120    2.5087  23.82  23.8 115.5  9     0.0000    0.0287
ML09         ?    BHZ  i P      c 20230914 1724   48.3668 GAU  3.90e-04 -1.00e+00  1.39e+02 -1.00e+00    1.0000 >    0.8836    0.0108    1.3465  737.8820 9820.9850   -1.2700    2.8227   8.72   8.7 119.1 10     0.0000    0.0177
ML09         ?    BHE  e S      ? 20230914 1724   49.0397 GAU  1.69e-04 -1.00e+00  3.34e+02 -1.00e+00    1.0000 >    1.5412    0.0261    1.0144  737.8820 9820.9850   -1.2700    2.8227   8.72   8.7 109.6  9     0.0000    0.0308
ML13         ?    BHZ  e P      c 20230914 1724   48.4913 GAU  3.64e-04 -1.00e+00 -1.00e+00 -1.00e+00    1.0000 >    0.9992    0.0197    1.1716  737.1780 9821.5410   -1.2220    3.3574 355.29 355.3 113.7  9     0.0000    0.0200
ML13         ?    BHN  e S      ? 20230914 1724   49.2111 GAU  1.54e-04 -1.00e+00 -1.00e+00 -1.00e+00    1.0000 >    1.7430   -0.0043    1.2209  737.1780 9821.5410   -1.2220    3.3574 355.29 355.3  98.9  8     0.0000    0.0349
ML07         ?    BHZ  i P      d 20230914 1724   48.7242 GAU  4.16e-04 -1.00e+00 -1.00e+00 -1.00e+00    1.0000 >    1.2878   -0.0359    1.0801  737.4430 9822.8030   -1.1120    4.6081 359.86 359.9 105.0  9     0.0000    0.0258
ML07         ?    BHN  e S      ? 20230914 1724   49.6584 GAU  2.22e-04 -1.00e+00 -1.00e+00 -1.00e+00    1.0000 >    2.2293   -0.0432    0.9469  737.4430 9822.8030   -1.1120    4.6081 359.86 359.9  87.3  8     0.0000    0.0446
ML12         ?    BHZ  i P      c 20230914 1724   48.9588 GAU  3.45e-04 -1.00e+00 -1.00e+00 -1.00e+00    1.0000 >    1.4266    0.0599    0.4562  736.8520 9823.3800   -0.9890    5.2199 353.38 353.4 101.3  9     0.0000    0.0285
ML12         ?    BHE  e S      ? 20230914 1724   50.0472 GAU  2.30e-04 -1.00e+00  5.05e+01 -1.00e+00    1.0000 >    2.4513    0.1236    0.1307  736.8520 9823.3800   -0.9890    5.2199 353.38 353.4  87.0  8     0.0000    0.0490
END_PHASE
END_NLLOC

