NLLOC "./loc/SEML.20230928.081949.grid0" "LOCATED" "Location completed."
PUBLIC_ID None
SIGNATURE "Arham Zakki Edelo - edelo.17034@mhs.its.ac.id   obs:./obs/2023_09.obs   NLLoc:v7.00.10(30Aug2020)   run:22Jan2024 21h56m03"
COMMENT "SEML"
GRID  2001 2001 1001  727 9811 -2  0.01 0.01 0.01 PROB_DENSITY
SEARCH OCTREE nInitial 4851 nEvaluated 20019 smallestNodeSide 0.007440/0.007440/0.007102 oct_tree_integral 9.512066e-03 scatter_volume 9.484163e-03
HYPOCENTER  x 738.034 y 9818.72 z 0.961648  OT 49.2996  ix -1 iy -1 iz -1 MAXIMUM_LIKELIHOOD
GEOGRAPHIC  OT 2023 09 28  08 19 49.299552  Lat 9818.715774 Long 738.034226 Depth 0.961648
QUALITY  Pmax 1.52566e+60 MFmin 68.9084 MFmax 86.465 RMS 0.0197192 Nphs 18 Gap 261.151 Dist 0.486861 Mamp -9.90 0 Mdur -9.90 0
VPVSRATIO  VpVsRatio 1.79014  Npair 9  Diff 0.541508
STATISTICS  ExpectX 738.036766 Y 9818.712935 Z 0.941590  CovXX 0.00769666 XY -0.00176903 XZ 0.000383885 YY 0.00526646 YZ -0.00231875 ZZ 0.0133889 EllAz1  204.152 Dip1  -11.7187 Len1  0.118024 Az2  291.349 Dip2  13.2636 Len2  0.171076 Len3  2.232167e-01
STAT_GEOG  ExpectLat 9818.712935 Long 738.036766 Depth 0.941590
TRANSFORM  NONE
QML_OriginQuality  assocPhCt 18  usedPhCt 18  assocStaCt -1  usedStaCt 9  depthPhCt -1  stdErr 0.0197192  azGap 261.151  secAzGap 261.151  gtLevel -  minDist 0.486861 maxDist 4.12977 medDist 1.82625
QML_OriginUncertainty  horUnc -1  minHorUnc 0.0998572  maxHorUnc 0.140868  azMaxHorUnc 117.758
QML_ConfidenceEllipsoid  semiMajorAxisLength 0.223217  semiMinorAxisLength 0.118024  semiIntermediateAxisLength 0.171076  majorAxisPlunge 72.1566  majorAxisAzimuth 154.272  majorAxisRotation 47.4639
FOCALMECH  Hyp  9818.715774 738.034226 0.961648 Mech  0 0 0 mf  0 nObs -1
PHASE ID Ins Cmp On Pha  FM Date     HrMn   Sec     Err  ErrMag    Coda      Amp       Per       PriorWt  >   TTpred    Res       Weight    StaLoc(X  Y         Z)        SDist    SAzim  RAz  RDip RQual    Tcorr       TTerr
ML06         ?    BHZ  i P      c 20230928 0819   49.9321 GAU  8.08e-04 -1.00e+00 -1.00e+00 -1.00e+00    1.0000 >    0.6353   -0.0027    1.6485  738.3100 9819.1170   -1.3960    0.4869  34.50  34.5 167.9 10     0.0000    0.0127
ML06         ?    BHN  i S      ? 20230928 0819   50.4232 GAU  1.19e-03 -1.00e+00 -1.00e+00 -1.00e+00    1.0000 >    1.0906    0.0330    0.9335  738.3100 9819.1170   -1.3960    0.4869  34.50  34.5 167.0 10     0.0000    0.0218
ML04         ?    BHZ  i P      c 20230928 0819   50.0189 GAU  7.49e-04 -1.00e+00 -1.00e+00 -1.00e+00    1.0000 >    0.7248   -0.0055    1.5729  737.1400 9819.2520   -1.5710    1.0427 300.95 300.9 156.9 10     0.0000    0.0145
ML04         ?    BHN  e S      ? 20230928 0819   50.5336 GAU  6.74e-04 -1.00e+00  7.02e+02 -1.00e+00    1.0000 >    1.2445   -0.0104    1.2776  737.1400 9819.2520   -1.5710    1.0427 300.95 300.9 155.2 10     0.0000    0.0249
ML14         ?    BHZ  i P      c 20230928 0819   50.0253 GAU  8.51e-04 -1.00e+00 -1.00e+00 -1.00e+00    1.0000 >    0.7215    0.0042    1.6325  737.5530 9820.0110   -1.3980    1.3817 339.62 339.6 148.7 10     0.0000    0.0144
ML14         ?    BHN  e S      ? 20230928 0819   50.4956 GAU  7.28e-04 -1.00e+00  2.64e+02 -1.00e+00    1.0000 >    1.2382   -0.0422    0.5702  737.5530 9820.0110   -1.3980    1.3817 339.62 339.6 146.3 10     0.0000    0.0248
ML02         ?    BHZ  e P      d 20230928 0819   50.0788 GAU  8.11e-04 -1.00e+00  6.30e+02 -1.00e+00    1.0000 >    0.7741    0.0051    1.6043  736.5970 9819.4060   -1.4960    1.5944 295.65 295.7 145.9 10     0.0000    0.0155
ML02         ?    BHN  e S      ? 20230928 0819   50.6627 GAU  1.26e-03 -1.00e+00  9.52e+02 -1.00e+00    1.0000 >    1.3287    0.0344    0.9074  736.5970 9819.4060   -1.4960    1.5944 295.65 295.7 143.2 10     0.0000    0.0266
ML11         ?    BHZ  i P      c 20230928 0819   50.0536 GAU  6.71e-04 -1.00e+00 -1.00e+00 -1.00e+00    1.0000 >    0.7680   -0.0139    1.3453  738.4670 9820.4900   -1.3120    1.8262  13.71  13.7 140.1 10     0.0000    0.0154
ML11         ?    BHN  i S      ? 20230928 0819   50.6210 GAU  9.36e-04 -1.00e+00 -1.00e+00 -1.00e+00    1.0000 >    1.3173    0.0041    1.3399  738.4670 9820.4900   -1.3120    1.8262  13.71  13.7 136.8 10     0.0000    0.0263
ML09         ?    BHZ  i P      c 20230928 0819   50.1611 GAU  1.68e-03 -1.00e+00  7.05e+01 -1.00e+00    1.0000 >    0.8381    0.0234    1.1962  737.8820 9820.9850   -1.2700    2.2743 356.16 356.2 132.9 10     0.0000    0.0168
ML09         ?    BHE  e S      ? 20230928 0819   50.7514 GAU  5.96e-04 -1.00e+00  3.58e+02 -1.00e+00    1.0000 >    1.4368    0.0151    1.2186  737.8820 9820.9850   -1.2700    2.2743 356.16 356.2 128.8 10     0.0000    0.0287
ML13         ?    BHZ  i P      c 20230928 0819   50.2679 GAU  1.16e-03 -1.00e+00 -1.00e+00 -1.00e+00    1.0000 >    0.9649    0.0034    1.5179  737.1780 9821.5410   -1.2220    2.9521 343.14 343.1 124.4 10     0.0000    0.0193
ML13         ?    BHE  e S      ? 20230928 0819   50.9442 GAU  2.17e-04 -1.00e+00 -1.00e+00 -1.00e+00    1.0000 >    1.6522   -0.0075    1.1513  737.1780 9821.5410   -1.2220    2.9521 343.14 343.1 118.9 10     0.0000    0.0330
ML05         ?    BHZ  i P      c 20230928 0819   50.6471 GAU  3.09e-03 -1.00e+00 -1.00e+00 -1.00e+00    1.0000 >    1.1412    0.2063    0.0296  736.2660 9822.0830   -1.1500    3.8033 332.29 332.3 116.5 10     0.0000    0.0228
ML05         ?    BHE  e S      ? 20230928 0819   51.6552 GAU  9.70e-04 -1.00e+00 -1.00e+00 -1.00e+00    1.0000 >    1.9495    0.4061    0.0105  736.2660 9822.0830   -1.1500    3.8033 332.29 332.3 109.7 10     0.0000    0.0390
ML07         ?    BHZ  i P      c 20230928 0819   50.6498 GAU  1.58e-04 -1.00e+00 -1.00e+00 -1.00e+00    1.0000 >    1.2112    0.1390    0.0190  737.4430 9822.8030   -1.1120    4.1298 351.77 351.8 114.0 10     0.0000    0.0242
ML07         ?    BHN  e S      ? 20230928 0819   51.6616 GAU  1.55e-03 -1.00e+00 -1.00e+00 -1.00e+00    1.0000 >    2.0664    0.2956    0.0249  737.4430 9822.8030   -1.1120    4.1298 351.77 351.8 106.9 10     0.0000    0.0413
END_PHASE
END_NLLOC

