NLLOC "./loc/SEML.20230928.082056.grid0" "LOCATED" "Location completed."
PUBLIC_ID None
SIGNATURE "Arham Zakki Edelo - edelo.17034@mhs.its.ac.id   obs:./obs/2023_09.obs   NLLoc:v7.00.10(30Aug2020)   run:22Jan2024 21h56m04"
COMMENT "SEML"
GRID  2001 2001 1001  727 9811 -2  0.01 0.01 0.01 PROB_DENSITY
SEARCH OCTREE nInitial 4851 nEvaluated 20011 smallestNodeSide 0.014881/0.014881/0.014205 oct_tree_integral 2.170763e-02 scatter_volume 2.170763e-02
HYPOCENTER  x 737.647 y 9818.63 z 0.691761  OT 55.5265  ix -1 iy -1 iz -1 MAXIMUM_LIKELIHOOD
GEOGRAPHIC  OT 2023 09 28  08 20 55.526452  Lat 9818.626488 Long 737.647321 Depth 0.691761
QUALITY  Pmax 6.38866e+49 MFmin 61.994 MFmax 79.2046 RMS 0.0269335 Nphs 16 Gap 267.465 Dist 0.805382 Mamp -9.90 0 Mdur -9.90 0
VPVSRATIO  VpVsRatio 1.71283  Npair 8  Diff 0.509327
STATISTICS  ExpectX 738.128158 Y 9818.459123 Z 0.236440  CovXX 0.285186 XY -0.0958398 XZ -0.290885 YY 0.0482982 YZ 0.0949957 ZZ 0.319269 EllAz1  57.2788 Dip1  31.8901 Len1  0.173007 Az2  166.618 Dip2  28.023 Len2  0.259859 Len3  1.485518e+00
STAT_GEOG  ExpectLat 9818.459123 Long 738.128158 Depth 0.236440
TRANSFORM  NONE
QML_OriginQuality  assocPhCt 16  usedPhCt 16  assocStaCt -1  usedStaCt 8  depthPhCt -1  stdErr 0.0269335  azGap 267.465  secAzGap 267.465  gtLevel -  minDist 0.805382 maxDist 4.18151 medDist 2.20299
QML_OriginUncertainty  horUnc -1  minHorUnc 0.181863  maxHorUnc 0.856703  azMaxHorUnc 109.489
QML_ConfidenceEllipsoid  semiMajorAxisLength 1.48552  semiMinorAxisLength 0.173007  semiIntermediateAxisLength 0.259859  majorAxisPlunge -45.0099  majorAxisAzimuth 108.786  majorAxisRotation 269.982
FOCALMECH  Hyp  9818.626488 737.647321 0.691761 Mech  0 0 0 mf  0 nObs -1
PHASE ID Ins Cmp On Pha  FM Date     HrMn   Sec     Err  ErrMag    Coda      Amp       Per       PriorWt  >   TTpred    Res       Weight    StaLoc(X  Y         Z)        SDist    SAzim  RAz  RDip RQual    Tcorr       TTerr
ML04         ?    BHZ  e P      d 20230928 0820   56.1614 GAU  1.48e-03 -1.00e+00  1.34e+03 -1.00e+00    1.0000 >    0.6381   -0.0032    1.8706  737.1400 9819.2520   -1.5710    0.8054 320.96 321.0 159.6 10     0.0000    0.0128
ML04         ?    BHE  e S      ? 20230928 0820   56.6149 GAU  4.38e-04 -1.00e+00  3.17e+02 -1.00e+00    1.0000 >    1.1042   -0.0158    1.4666  737.1400 9819.2520   -1.5710    0.8054 320.96 321.0 158.0 10     0.0000    0.0221
ML06         ?    BHZ  i P      c 20230928 0820   56.1195 GAU  8.98e-04 -1.00e+00 -1.00e+00 -1.00e+00    1.0000 >    0.5948   -0.0017    1.8974  738.3100 9819.1170   -1.3960    0.8245  53.49  53.5 157.7 10     0.0000    0.0119
ML06         ?    BHN  e S      ? 20230928 0820   56.5639 GAU  1.53e-03 -1.00e+00 -1.00e+00 -1.00e+00    1.0000 >    1.0294    0.0080    1.5420  738.3100 9819.1170   -1.3960    0.8245  53.49  53.5 155.8 10     0.0000    0.0206
ML14         ?    BHZ  i P      c 20230928 0820   56.2000 GAU  2.46e-03 -1.00e+00 -1.00e+00 -1.00e+00    1.0000 >    0.6644    0.0091    1.6717  737.5530 9820.0110   -1.3980    1.3877 356.10 356.1 145.3 10     0.0000    0.0133
ML14         ?    BHN  e S      ? 20230928 0820   56.6809 GAU  1.75e-03 -1.00e+00  2.84e+02 -1.00e+00    1.0000 >    1.1499    0.0046    1.5302  737.5530 9820.0110   -1.3980    1.3877 356.10 356.1 142.1 10     0.0000    0.0230
ML11         ?    BHZ  i P      c 20230928 0820   56.2561 GAU  2.68e-03 -1.00e+00  1.48e+01 -1.00e+00    1.0000 >    0.7549   -0.0253    1.1868  738.4670 9820.4900   -1.3120    2.0358  23.74  23.7 132.7 10     0.0000    0.0151
ML11         ?    BHN  e S      ? 20230928 0820   56.7996 GAU  2.34e-03 -1.00e+00 -1.00e+00 -1.00e+00    1.0000 >    1.3061   -0.0330    1.0684  738.4670 9820.4900   -1.3120    2.0358  23.74  23.7 127.7 10     0.0000    0.0261
ML09         ?    BHZ  i P      c 20230928 0820   56.3431 GAU  7.19e-04 -1.00e+00  1.32e+02 -1.00e+00    1.0000 >    0.8124    0.0042    1.7331  737.8820 9820.9850   -1.2700    2.3702   5.68   5.7 127.3 10     0.0000    0.0162
ML09         ?    BHN  e S      ? 20230928 0820   56.9498 GAU  2.17e-04 -1.00e+00  5.27e+02 -1.00e+00    1.0000 >    1.4052    0.0181    1.1911  737.8820 9820.9850   -1.2700    2.3702   5.68   5.7 121.2 10     0.0000    0.0281
ML13         ?    BHZ  i P      c 20230928 0820   56.3785 GAU  1.12e-03 -1.00e+00 -1.00e+00 -1.00e+00    1.0000 >    0.9280   -0.0760    0.2729  737.1780 9821.5410   -1.2220    2.9521 350.85 350.9 120.2 10     0.0000    0.0186
ML13         ?    BHE  e S      ? 20230928 0820   57.0368 GAU  4.05e-04 -1.00e+00 -1.00e+00 -1.00e+00    1.0000 >    1.6040   -0.0936    0.2614  737.1780 9821.5410   -1.2220    2.9521 350.85 350.9 112.2 10     0.0000    0.0321
ML05         ?    BHZ  i P      c 20230928 0820   56.8188 GAU  4.33e-04 -1.00e+00 -1.00e+00 -1.00e+00    1.0000 >    1.0934    0.1989    0.1244  736.2660 9822.0830   -1.1500    3.7223 338.22 338.2 113.1 10     0.0000    0.0219
ML05         ?    BHN  e S      ? 20230928 0820   57.7723 GAU  1.27e-04 -1.00e+00  2.89e+02 -1.00e+00    1.0000 >    1.8861    0.3598    0.0014  736.2660 9822.0830   -1.1500    3.7223 338.22 338.2 102.8 10     0.0000    0.0377
ML07         ?    BHZ  e P      c 20230928 0820   56.8284 GAU  1.88e-04 -1.00e+00 -1.00e+00 -1.00e+00    1.0000 >    1.1976    0.1043    0.0381  737.4430 9822.8030   -1.1120    4.1815 357.20 357.2 109.9 10     0.0000    0.0240
ML07         ?    BHE  e S      ? 20230928 0820   57.7821 GAU  3.19e-04 -1.00e+00 -1.00e+00 -1.00e+00    1.0000 >    2.0616    0.1941    0.1438  737.4430 9822.8030   -1.1120    4.1815 357.20 357.2  99.1 10     0.0000    0.0412
END_PHASE
END_NLLOC

