NLLOC "./loc/SEML.20230921.180254.grid0" "LOCATED" "Location completed."
PUBLIC_ID None
SIGNATURE "Arham Zakki Edelo - edelo.17034@mhs.its.ac.id   obs:./obs/2023_09.obs   NLLoc:v7.00.10(30Aug2020)   run:22Jan2024 21h55m35"
COMMENT "SEML"
GRID  2001 2001 1001  727 9811 -2  0.01 0.01 0.01 PROB_DENSITY
SEARCH OCTREE nInitial 4851 nEvaluated 20019 smallestNodeSide 0.029762/0.029762/0.028409 oct_tree_integral 1.026978e-01 scatter_volume 1.026978e-01
HYPOCENTER  x 739.485 y 9818.01 z 0.372159  OT 53.3068  ix -1 iy -1 iz -1 MAXIMUM_LIKELIHOOD
GEOGRAPHIC  OT 2023 09 21  18 02 53.306780  Lat 9818.008929 Long 739.485119 Depth 0.372159
QUALITY  Pmax 6.90604e+47 MFmin 53.4367 MFmax 63.8911 RMS 0.0293179 Nphs 16 Gap 335.629 Dist 1.61516 Mamp -9.90 0 Mdur -9.90 0
VPVSRATIO  VpVsRatio 1.77435  Npair 8  Diff 0.643116
STATISTICS  ExpectX 739.114268 Y 9817.980893 Z 0.717073  CovXX 0.273925 XY 0.102949 XZ -0.0186497 YY 0.0967882 YZ 0.0411468 ZZ 0.171488 EllAz1  155.367 Dip1  18.2687 Len1  0.349679 Az2  335.084 Dip2  71.7311 Len2  0.811168 Len3  1.064753e+00
STAT_GEOG  ExpectLat 9817.980893 Long 739.114268 Depth 0.717073
TRANSFORM  NONE
QML_OriginQuality  assocPhCt 16  usedPhCt 16  assocStaCt -1  usedStaCt 8  depthPhCt -1  stdErr 0.0293179  azGap 335.629  secAzGap 335.629  gtLevel -  minDist 1.61516 maxDist 5.98178 medDist 3.79959
QML_OriginUncertainty  horUnc -1  minHorUnc 0.337593  maxHorUnc 0.859459  azMaxHorUnc 65.3529
QML_ConfidenceEllipsoid  semiMajorAxisLength 1.06475  semiMinorAxisLength 0.349679  semiIntermediateAxisLength 0.811168  majorAxisPlunge 0.0841691  majorAxisAzimuth 65.3389  majorAxisRotation 18.2688
FOCALMECH  Hyp  9818.008929 739.485119 0.372159 Mech  0 0 0 mf  0 nObs -1
PHASE ID Ins Cmp On Pha  FM Date     HrMn   Sec     Err  ErrMag    Coda      Amp       Per       PriorWt  >   TTpred    Res       Weight    StaLoc(X  Y         Z)        SDist    SAzim  RAz  RDip RQual    Tcorr       TTerr
ML06         ?    BHZ  i P      c 20230921 1802   54.0630 GAU  1.16e-03 -1.00e+00 -1.00e+00 -1.00e+00    1.0000 >    0.6374    0.1188    0.0606  738.3100 9819.1170   -1.3960    1.6152 313.32 313.3 136.2 10     0.0000    0.0127
ML06         ?    BHN  e S      ? 20230921 1802   54.6266 GAU  5.39e-04 -1.00e+00 -1.00e+00 -1.00e+00    1.0000 >    1.1125    0.2073    0.0022  738.3100 9819.1170   -1.3960    1.6152 313.32 313.3 135.4 10     0.0000    0.0222
ML11         ?    BHZ  e P      c 20230921 1802   54.1502 GAU  2.23e-03 -1.00e+00 -1.00e+00 -1.00e+00    1.0000 >    0.8414    0.0020    1.8786  738.4670 9820.4900   -1.3120    2.6818 337.69 337.7 119.6 10     0.0000    0.0168
ML11         ?    BHN  e S      ? 20230921 1802   54.7765 GAU  6.18e-04 -1.00e+00 -1.00e+00 -1.00e+00    1.0000 >    1.4694    0.0003    1.6167  738.4670 9820.4900   -1.3120    2.6818 337.69 337.7 118.0 10     0.0000    0.0294
ML14         ?    BHZ  e P      d 20230921 1802   54.1893 GAU  2.48e-03 -1.00e+00  5.14e+02 -1.00e+00    1.0000 >    0.8775    0.0050    1.8379  737.5530 9820.0110   -1.3980    2.7823 316.02 316.0 119.9 10     0.0000    0.0176
ML14         ?    BHE  e S      ? 20230921 1802   54.8433 GAU  2.23e-03 -1.00e+00  3.76e+02 -1.00e+00    1.0000 >    1.5316    0.0049    1.5681  737.5530 9820.0110   -1.3980    2.7823 316.02 316.0 118.3 10     0.0000    0.0306
ML09         ?    BHZ  i P      c 20230921 1802   54.2889 GAU  8.63e-04 -1.00e+00  1.74e+02 -1.00e+00    1.0000 >    0.9972   -0.0150    1.6775  737.8820 9820.9850   -1.2700    3.3804 331.69 331.7 113.0 10     0.0000    0.0199
ML09         ?    BHN  e S      ? 20230921 1802   55.0398 GAU  2.53e-04 -1.00e+00  4.73e+02 -1.00e+00    1.0000 >    1.7421   -0.0091    1.4873  737.8820 9820.9850   -1.2700    3.3804 331.69 331.7 110.8 10     0.0000    0.0348
ML13         ?    BHZ  e P      c 20230921 1802   54.2978 GAU  3.74e-04 -1.00e+00 -1.00e+00 -1.00e+00    1.0000 >    1.1945   -0.2035    0.1123  737.1780 9821.5410   -1.2220    4.2188 326.85 326.8 107.5 10     0.0000    0.0239
ML13         ?    BHN  e S      ? 20230921 1802   55.0370 GAU  3.31e-04 -1.00e+00 -1.00e+00 -1.00e+00    1.0000 >    2.0872   -0.3570    0.0025  737.1780 9821.5410   -1.2220    4.2188 326.85 326.8 104.6 10     0.0000    0.0417
ML05         ?    BHZ  e P      c 20230921 1802   54.6515 GAU  2.89e-04 -1.00e+00  1.91e+01 -1.00e+00    1.0000 >    1.4291   -0.0844    0.3155  736.2660 9822.0830   -1.1500    5.1924 321.69 321.7 103.1 10     0.0000    0.0286
ML05         ?    BHN  e S      ? 20230921 1802   55.6395 GAU  1.56e-04 -1.00e+00  2.58e+02 -1.00e+00    1.0000 >    2.4971   -0.1643    0.1949  736.2660 9822.0830   -1.1500    5.1924 321.69 321.7  97.1  9     0.0000    0.0499
ML07         ?    BHZ  e P      c 20230921 1802   54.7437 GAU  2.31e-04 -1.00e+00 -1.00e+00 -1.00e+00    1.0000 >    1.4297    0.0072    1.5944  737.4430 9822.8030   -1.1120    5.2109 336.93 336.9 102.7 10     0.0000    0.0286
ML07         ?    BHN  e S      ? 20230921 1802   55.8338 GAU  6.32e-05 -1.00e+00 -1.00e+00 -1.00e+00    1.0000 >    2.4980    0.0291    1.0889  737.4430 9822.8030   -1.1120    5.2109 336.93 336.9  82.3  9     0.0000    0.0500
ML12         ?    BHZ  e P      c 20230921 1802   54.8985 GAU  2.67e-03 -1.00e+00 -1.00e+00 -1.00e+00    1.0000 >    1.6123   -0.0206    1.4256  736.8520 9823.3800   -0.9890    5.9818 333.88 333.9 100.1 10     0.0000    0.0322
ML12         ?    BHN  e S      ? 20230921 1802   56.1051 GAU  2.94e-03 -1.00e+00 -1.00e+00 -1.00e+00    1.0000 >    2.7855    0.0128    1.1371  736.8520 9823.3800   -0.9890    5.9818 333.88 333.9  67.2 10     0.0000    0.0557
END_PHASE
END_NLLOC

