NLLOC "./loc/SEML.20230928.082931.grid0" "LOCATED" "Location completed."
PUBLIC_ID None
SIGNATURE "Arham Zakki Edelo - edelo.17034@mhs.its.ac.id   obs:./obs/2023_09.obs   NLLoc:v7.00.10(30Aug2020)   run:22Jan2024 21h56m09"
COMMENT "SEML"
GRID  2001 2001 1001  727 9811 -2  0.01 0.01 0.01 PROB_DENSITY
SEARCH OCTREE nInitial 4851 nEvaluated 20019 smallestNodeSide 0.014881/0.014881/0.014205 oct_tree_integral 5.397423e-02 scatter_volume 5.397423e-02
HYPOCENTER  x 739.344 y 9818.28 z -1.01278  OT 31.0218  ix -1 iy -1 iz -1 MAXIMUM_LIKELIHOOD
GEOGRAPHIC  OT 2023 09 28  08 29 31.021827  Lat 9818.284226 Long 739.343750 Depth -1.012784
QUALITY  Pmax 2.17408e+55 MFmin 69.4323 MFmax 86.4702 RMS 0.0300013 Nphs 18 Gap 313.892 Dist 1.32746 Mamp -9.90 0 Mdur -9.90 0
VPVSRATIO  VpVsRatio 1.71825  Npair 9  Diff 0.492359
STATISTICS  ExpectX 739.134792 Y 9818.285779 Z -0.868117  CovXX 0.239736 XY -0.0164639 XZ -0.322994 YY 0.0172127 YZ -0.000478634 ZZ 0.565812 EllAz1  22.0006 Dip1  12.3348 Len1  0.192044 Az2  298.852 Dip2  -28.613 Len2  0.410075 Len3  1.642955e+00
STAT_GEOG  ExpectLat 9818.285779 Long 739.134792 Depth -0.868117
TRANSFORM  NONE
QML_OriginQuality  assocPhCt 18  usedPhCt 18  assocStaCt -1  usedStaCt 9  depthPhCt -1  stdErr 0.0300013  azGap 313.892  secAzGap 313.892  gtLevel -  minDist 1.32746 maxDist 4.90226 medDist 2.96699
QML_OriginUncertainty  horUnc -1  minHorUnc 0.191841  maxHorUnc 0.744432  azMaxHorUnc 94.2086
QML_ConfidenceEllipsoid  semiMajorAxisLength 1.64296  semiMinorAxisLength 0.192044  semiIntermediateAxisLength 0.410075  majorAxisPlunge -58.3736  majorAxisAzimuth 91.2023  majorAxisRotation 224.746
FOCALMECH  Hyp  9818.284226 739.343750 -1.012784 Mech  0 0 0 mf  0 nObs -1
PHASE ID Ins Cmp On Pha  FM Date     HrMn   Sec     Err  ErrMag    Coda      Amp       Per       PriorWt  >   TTpred    Res       Weight    StaLoc(X  Y         Z)        SDist    SAzim  RAz  RDip RQual    Tcorr       TTerr
ML06         ?    BHZ  i P      c 20230928 0829   31.6631 GAU  1.29e-03 -1.00e+00 -1.00e+00 -1.00e+00    1.0000 >    0.3799    0.2614    0.0133  738.3100 9819.1170   -1.3960    1.3275 308.85 308.9 106.1 10     0.0000    0.0076
ML06         ?    BHN  i S      ? 20230928 0829   32.1489 GAU  1.04e-03 -1.00e+00 -1.00e+00 -1.00e+00    1.0000 >    0.6553    0.4717    0.0000  738.3100 9819.1170   -1.3960    1.3275 308.85 308.9 106.1 10     0.0000    0.0131
ML11         ?    BHZ  i P      c 20230928 0829   31.8028 GAU  5.24e-04 -1.00e+00  5.05e+01 -1.00e+00    1.0000 >    0.6576    0.1235    0.0740  738.4670 9820.4900   -1.3120    2.3736 338.32 338.3  97.3 10     0.0000    0.0132
ML11         ?    BHN  e S      ? 20230928 0829   32.3579 GAU  1.09e-03 -1.00e+00 -1.00e+00 -1.00e+00    1.0000 >    1.1344    0.2017    0.0169  738.4670 9820.4900   -1.3120    2.3736 338.32 338.3  97.3 10     0.0000    0.0227
ML04         ?    BHZ  i P      c 20230928 0829   31.7009 GAU  1.02e-03 -1.00e+00 -1.00e+00 -1.00e+00    1.0000 >    0.6791    0.0000    1.8320  737.1400 9819.2520   -1.5710    2.4069 293.71 293.7 103.1 10     0.0000    0.0136
ML04         ?    BHN  i S      ? 20230928 0829   32.1995 GAU  1.71e-03 -1.00e+00  7.40e+02 -1.00e+00    1.0000 >    1.1715    0.0062    1.7730  737.1400 9819.2520   -1.5710    2.4069 293.71 293.7 103.1 10     0.0000    0.0234
ML14         ?    BHZ  i P      c 20230928 0829   31.7008 GAU  8.98e-04 -1.00e+00 -1.00e+00 -1.00e+00    1.0000 >    0.6919   -0.0129    1.5245  737.5530 9820.0110   -1.3980    2.4877 313.96 314.0  98.9 10     0.0000    0.0138
ML14         ?    BHN  e S      ? 20230928 0829   32.2080 GAU  1.08e-03 -1.00e+00  2.91e+02 -1.00e+00    1.0000 >    1.1936   -0.0074    1.6000  737.5530 9820.0110   -1.3980    2.4877 313.96 314.0  98.9 10     0.0000    0.0239
ML02         ?    BHZ  i P      d 20230928 0829   31.8793 GAU  5.20e-04 -1.00e+00 -1.00e+00 -1.00e+00    1.0000 >    0.8262    0.0313    1.5649  736.5970 9819.4060   -1.4960    2.9670 292.22 292.2  99.3 10     0.0000    0.0165
ML02         ?    BHE  e S      ? 20230928 0829   32.4981 GAU  9.88e-04 -1.00e+00  8.24e+01 -1.00e+00    1.0000 >    1.4252    0.0510    1.1280  736.5970 9819.4060   -1.4960    2.9670 292.22 292.2  99.3 10     0.0000    0.0285
ML09         ?    BHZ  i P      c 20230928 0829   31.9035 GAU  1.55e-03 -1.00e+00  1.79e+02 -1.00e+00    1.0000 >    0.8468    0.0349    1.4809  737.8820 9820.9850   -1.2700    3.0710 331.58 331.6  89.9  9     0.0000    0.0169
ML09         ?    BHN  e S      ? 20230928 0829   32.5488 GAU  3.66e-04 -1.00e+00  5.18e+02 -1.00e+00    1.0000 >    1.4610    0.0660    0.8172  737.8820 9820.9850   -1.2700    3.0710 331.58 331.6  94.8  9     0.0000    0.0292
ML13         ?    BHZ  i P      c 20230928 0829   32.0033 GAU  5.78e-04 -1.00e+00 -1.00e+00 -1.00e+00    1.0000 >    1.0742   -0.0928    0.0975  737.1780 9821.5410   -1.2220    3.9111 326.38 326.4  82.7 10     0.0000    0.0215
ML13         ?    BHE  e S      ? 20230928 0829   32.7009 GAU  7.35e-04 -1.00e+00 -1.00e+00 -1.00e+00    1.0000 >    1.8561   -0.1771    0.0272  737.1780 9821.5410   -1.2220    3.9111 326.38 326.4  86.1  9     0.0000    0.0371
ML05         ?    BHZ  i P      c 20230928 0829   32.3661 GAU  3.47e-04 -1.00e+00 -1.00e+00 -1.00e+00    1.0000 >    1.3382    0.0061    1.7104  736.2660 9822.0830   -1.1500    4.8891 320.99 321.0  82.7 10     0.0000    0.0268
ML05         ?    BHE  e S      ? 20230928 0829   33.3286 GAU  3.18e-04 -1.00e+00 -1.00e+00 -1.00e+00    1.0000 >    2.3141   -0.0074    1.2863  736.2660 9822.0830   -1.1500    4.8891 320.99 321.0  84.4 10     0.0000    0.0463
ML07         ?    BHZ  i P      c 20230928 0829   32.3673 GAU  3.61e-04 -1.00e+00 -1.00e+00 -1.00e+00    1.0000 >    1.3404    0.0050    1.7041  737.4430 9822.8030   -1.1120    4.9023 337.19 337.2  82.7 10     0.0000    0.0268
ML07         ?    BHE  e S      ? 20230928 0829   33.3455 GAU  3.97e-04 -1.00e+00 -1.00e+00 -1.00e+00    1.0000 >    2.3186    0.0051    1.3498  737.4430 9822.8030   -1.1120    4.9023 337.19 337.2  84.4 10     0.0000    0.0464
END_PHASE
END_NLLOC

