NLLOC "./loc/SEML.20230914.162649.grid0" "LOCATED" "Location completed."
PUBLIC_ID None
SIGNATURE "Arham Zakki Edelo - edelo.17034@mhs.its.ac.id   obs:./obs/2023_09.obs   NLLoc:v7.00.10(30Aug2020)   run:22Jan2024 21h54m23"
COMMENT "SEML"
GRID  2001 2001 1001  727 9811 -2  0.01 0.01 0.01 PROB_DENSITY
SEARCH OCTREE nInitial 4851 nEvaluated 20003 smallestNodeSide 0.014881/0.014881/0.014205 oct_tree_integral 4.560050e-02 scatter_volume 4.544336e-02
HYPOCENTER  x 738.257 y 9818.03 z 0.322443  OT 48.5012  ix -1 iy -1 iz -1 MAXIMUM_LIKELIHOOD
GEOGRAPHIC  OT 2023 09 14  16 26 48.501240  Lat 9818.031250 Long 738.257440 Depth 0.322443
QUALITY  Pmax 1.29521e+51 MFmin 56.4939 MFmax 68.033 RMS 0.0167202 Nphs 16 Gap 328.954 Dist 1.08702 Mamp -9.90 0 Mdur -9.90 0
VPVSRATIO  VpVsRatio 1.7375  Npair 8  Diff 0.613003
STATISTICS  ExpectX 738.629299 Y 9818.263655 Z 0.666792  CovXX 0.245078 XY 0.158167 XZ 0.201709 YY 0.122217 YZ 0.141043 ZZ 0.209031 EllAz1  151.589 Dip1  8.17816 Len1  0.219207 Az2  252.176 Dip2  51.9674 Len2  0.29741 Len3  1.377652e+00
STAT_GEOG  ExpectLat 9818.263655 Long 738.629299 Depth 0.666792
TRANSFORM  NONE
QML_OriginQuality  assocPhCt 16  usedPhCt 16  assocStaCt -1  usedStaCt 8  depthPhCt -1  stdErr 0.0167202  azGap 328.954  secAzGap 328.954  gtLevel -  minDist 1.08702 maxDist 5.53032 medDist 3.32475
QML_OriginUncertainty  horUnc -1  minHorUnc 0.179249  maxHorUnc 0.90147  azMaxHorUnc 55.6128
QML_ConfidenceEllipsoid  semiMajorAxisLength 1.37765  semiMinorAxisLength 0.219207  semiIntermediateAxisLength 0.29741  majorAxisPlunge 36.8314  majorAxisAzimuth 55.4102  majorAxisRotation 32.7022
FOCALMECH  Hyp  9818.031250 738.257440 0.322443 Mech  0 0 0 mf  0 nObs -1
PHASE ID Ins Cmp On Pha  FM Date     HrMn   Sec     Err  ErrMag    Coda      Amp       Per       PriorWt  >   TTpred    Res       Weight    StaLoc(X  Y         Z)        SDist    SAzim  RAz  RDip RQual    Tcorr       TTerr
ML06         ?    BHZ  i P      c 20230914 1626   49.2055 GAU  6.86e-04 -1.00e+00 -1.00e+00 -1.00e+00    1.0000 >    0.5420    0.1623    0.0016  738.3100 9819.1170   -1.3960    1.0870   2.77   2.8 146.7 10     0.0000    0.0108
ML06         ?    BHE  e S      ? 20230914 1626   49.7179 GAU  2.95e-03 -1.00e+00 -1.00e+00 -1.00e+00    1.0000 >    0.9463    0.2704    0.0000  738.3100 9819.1170   -1.3960    1.0870   2.77   2.8 146.1 10     0.0000    0.0189
ML14         ?    BHZ  e P      d 20230914 1626   49.2397 GAU  3.57e-03 -1.00e+00  4.99e+02 -1.00e+00    1.0000 >    0.7234    0.0151    1.3553  737.5530 9820.0110   -1.3980    2.1013 340.41 340.4 127.1 10     0.0000    0.0145
ML14         ?    BHE  e S      ? 20230914 1626   49.7451 GAU  6.76e-04 -1.00e+00  3.63e+02 -1.00e+00    1.0000 >    1.2631   -0.0193    1.2993  737.5530 9820.0110   -1.3980    2.1013 340.41 340.4 125.9 10     0.0000    0.0253
ML11         ?    BHZ  i P      c 20230914 1626   49.2692 GAU  1.55e-03 -1.00e+00 -1.00e+00 -1.00e+00    1.0000 >    0.7871   -0.0191    1.3738  738.4670 9820.4900   -1.3120    2.4677   4.87   4.9 121.1 10     0.0000    0.0157
ML11         ?    BHN  e S      ? 20230914 1626   49.8806 GAU  6.49e-04 -1.00e+00 -1.00e+00 -1.00e+00    1.0000 >    1.3753    0.0041    1.3537  738.4670 9820.4900   -1.3120    2.4677   4.87   4.9 119.5 10     0.0000    0.0275
ML09         ?    BHZ  i P      c 20230914 1626   49.4050 GAU  3.03e-04 -1.00e+00  2.66e+01 -1.00e+00    1.0000 >    0.8969    0.0068    1.4890  737.8820 9820.9850   -1.2700    2.9775 352.76 352.8 115.4 10     0.0000    0.0179
ML09         ?    BHN  e S      ? 20230914 1626   50.0758 GAU  4.91e-04 -1.00e+00  4.64e+02 -1.00e+00    1.0000 >    1.5678    0.0068    1.2656  737.8820 9820.9850   -1.2700    2.9775 352.76 352.8 113.3 10     0.0000    0.0314
ML13         ?    BHZ  e P      c 20230914 1626   49.5536 GAU  2.09e-04 -1.00e+00 -1.00e+00 -1.00e+00    1.0000 >    1.0564   -0.0041    1.4959  737.1780 9821.5410   -1.2220    3.6720 342.90 342.9 109.7 10     0.0000    0.0211
ML13         ?    BHN  e S      ? 20230914 1626   50.3569 GAU  4.33e-04 -1.00e+00 -1.00e+00 -1.00e+00    1.0000 >    1.8472    0.0084    1.1618  737.1780 9821.5410   -1.2220    3.6720 342.90 342.9 106.9 10     0.0000    0.0369
ML05         ?    BHZ  i P      c 20230914 1626   49.7414 GAU  4.16e-04 -1.00e+00  2.93e+01 -1.00e+00    1.0000 >    1.2560   -0.0159    1.3449  736.2660 9822.0830   -1.1500    4.5147 333.83 333.8 104.8 10     0.0000    0.0251
ML05         ?    BHN  e S      ? 20230914 1626   50.6937 GAU  4.89e-04 -1.00e+00  2.69e+02 -1.00e+00    1.0000 >    2.1968   -0.0044    1.0898  736.2660 9822.0830   -1.1500    4.5147 333.83 333.8 101.3 10     0.0000    0.0439
ML07         ?    BHZ  i P      d 20230914 1626   49.7729 GAU  1.72e-03 -1.00e+00 -1.00e+00 -1.00e+00    1.0000 >    1.3336   -0.0620    0.4824  737.4430 9822.8030   -1.1120    4.8408 350.31 350.3 103.2 10     0.0000    0.0267
ML07         ?    BHN  e S      ? 20230914 1626   50.6618 GAU  3.76e-04 -1.00e+00 -1.00e+00 -1.00e+00    1.0000 >    2.3326   -0.1720    0.0234  737.4430 9822.8030   -1.1120    4.8408 350.31 350.3  99.5 10     0.0000    0.0467
ML12         ?    BHZ  i P      d 20230914 1626   50.0003 GAU  3.25e-04 -1.00e+00 -1.00e+00 -1.00e+00    1.0000 >    1.4952    0.0039    1.3102  736.8520 9823.3800   -0.9890    5.5303 345.28 345.3 100.4 10     0.0000    0.0299
ML12         ?    BHE  e S      ? 20230914 1626   51.1187 GAU  3.51e-04 -1.00e+00  5.20e+01 -1.00e+00    1.0000 >    2.6090    0.0085    0.9533  736.8520 9823.3800   -0.9890    5.5303 345.28 345.3  67.3 10     0.0000    0.0522
END_PHASE
END_NLLOC

