NLLOC "./loc/SEML.20230928.083537.grid0" "LOCATED" "Location completed."
PUBLIC_ID None
SIGNATURE "Arham Zakki Edelo - edelo.17034@mhs.its.ac.id   obs:./obs/2023_09.obs   NLLoc:v7.00.10(30Aug2020)   run:22Jan2024 21h56m15"
COMMENT "SEML"
GRID  2001 2001 1001  727 9811 -2  0.01 0.01 0.01 PROB_DENSITY
SEARCH OCTREE nInitial 4851 nEvaluated 20011 smallestNodeSide 0.007440/0.007440/0.007102 oct_tree_integral 3.978754e-03 scatter_volume 3.978754e-03
HYPOCENTER  x 738.693 y 9818.74 z -0.022017  OT 37.0404  ix -1 iy -1 iz -1 MAXIMUM_LIKELIHOOD
GEOGRAPHIC  OT 2023 09 28  08 35 37.040384  Lat 9818.741815 Long 738.692708 Depth -0.022017
QUALITY  Pmax 1.38077e+61 MFmin 70.8445 MFmax 82.1528 RMS 0.0145977 Nphs 18 Gap 295.546 Dist 0.535938 Mamp -9.90 0 Mdur -9.90 0
VPVSRATIO  VpVsRatio 1.71269  Npair 9  Diff 0.61763
STATISTICS  ExpectX 738.686665 Y 9818.734744 Z -0.016652  CovXX 0.00821228 XY -0.00245267 XZ -0.00406345 YY 0.00439874 YZ 0.000718527 ZZ 0.00731903 EllAz1  41.9473 Dip1  25.0247 Len1  0.0966352 Az2  336.54 Dip2  -41.7154 Len2  0.129693 Len3  2.102250e-01
STAT_GEOG  ExpectLat 9818.734744 Long 738.686665 Depth -0.016652
TRANSFORM  NONE
QML_OriginQuality  assocPhCt 18  usedPhCt 18  assocStaCt -1  usedStaCt 9  depthPhCt -1  stdErr 0.0145977  azGap 295.546  secAzGap 295.546  gtLevel -  minDist 0.535938 maxDist 4.99009 medDist 2.38519
QML_OriginUncertainty  horUnc -1  minHorUnc 0.085775  maxHorUnc 0.147133  azMaxHorUnc 116.069
QML_ConfidenceEllipsoid  semiMajorAxisLength 0.210225  semiMinorAxisLength 0.0966352  semiIntermediateAxisLength 0.129693  majorAxisPlunge -37.9543  majorAxisAzimuth 110.593  majorAxisRotation 110.957
FOCALMECH  Hyp  9818.741815 738.692708 -0.022017 Mech  0 0 0 mf  0 nObs -1
PHASE ID Ins Cmp On Pha  FM Date     HrMn   Sec     Err  ErrMag    Coda      Amp       Per       PriorWt  >   TTpred    Res       Weight    StaLoc(X  Y         Z)        SDist    SAzim  RAz  RDip RQual    Tcorr       TTerr
ML06         ?    BHZ  i P      c 20230928 0835   37.5374 GAU  1.55e-03 -1.00e+00  2.20e+00 -1.00e+00    1.0000 >    0.3962    0.1008    0.0306  738.3100 9819.1170   -1.3960    0.5359 314.43 314.4 157.9 10     0.0000    0.0079
ML06         ?    BHN  e S      ? 20230928 0835   37.9341 GAU  2.43e-03 -1.00e+00 -1.00e+00 -1.00e+00    1.0000 >    0.6938    0.1999    0.0001  738.3100 9819.1170   -1.3960    0.5359 314.43 314.4 158.5 10     0.0000    0.0139
ML04         ?    BHZ  e P      c 20230928 0835   37.6508 GAU  1.70e-03 -1.00e+00 -1.00e+00 -1.00e+00    1.0000 >    0.6059    0.0045    1.6290  737.1400 9819.2520   -1.5710    1.6344 288.19 288.2 131.1 10     0.0000    0.0121
ML04         ?    BHN  e S      ? 20230928 0835   38.1030 GAU  1.70e-03 -1.00e+00  7.37e+02 -1.00e+00    1.0000 >    1.0595    0.0031    1.3853  737.1400 9819.2520   -1.5710    1.6344 288.19 288.2 132.7 10     0.0000    0.0212
ML14         ?    BHZ  i P      c 20230928 0835   37.6246 GAU  2.02e-03 -1.00e+00 -1.00e+00 -1.00e+00    1.0000 >    0.5882   -0.0040    1.6197  737.5530 9820.0110   -1.3980    1.7058 318.08 318.1 126.2 10     0.0000    0.0118
ML14         ?    BHE  e S      ? 20230928 0835   38.0754 GAU  1.68e-03 -1.00e+00  4.09e+02 -1.00e+00    1.0000 >    1.0304    0.0046    1.3956  737.5530 9820.0110   -1.3980    1.7058 318.08 318.1 128.0 10     0.0000    0.0206
ML11         ?    BHZ  i P      c 20230928 0835   37.6258 GAU  5.79e-03 -1.00e+00 -1.00e+00 -1.00e+00    1.0000 >    0.5854    0.0000    1.6289  738.4670 9820.4900   -1.3120    1.7627 352.64 352.6 123.5 10     0.0000    0.0117
ML11         ?    BHE  e S      ? 20230928 0835   38.0647 GAU  6.24e-04 -1.00e+00 -1.00e+00 -1.00e+00    1.0000 >    1.0266   -0.0023    1.3966  738.4670 9820.4900   -1.3120    1.7627 352.64 352.6 125.3 10     0.0000    0.0205
ML09         ?    BHZ  i P      c 20230928 0835   37.7541 GAU  1.22e-03 -1.00e+00  7.66e+01 -1.00e+00    1.0000 >    0.7206   -0.0069    1.5023  737.8820 9820.9850   -1.2700    2.3852 340.13 340.1 114.1 10     0.0000    0.0144
ML09         ?    BHE  e S      ? 20230928 0835   38.3216 GAU  5.07e-04 -1.00e+00  3.69e+02 -1.00e+00    1.0000 >    1.2651    0.0162    1.1609  737.8820 9820.9850   -1.2700    2.3852 340.13 340.1 116.5 10     0.0000    0.0253
ML13         ?    BHZ  e P      c 20230928 0835   37.8680 GAU  4.18e-04 -1.00e+00 -1.00e+00 -1.00e+00    1.0000 >    0.9086   -0.0810    0.1222  737.1780 9821.5410   -1.2220    3.1827 331.58 331.6 106.5 10     0.0000    0.0182
ML13         ?    BHE  e S      ? 20230928 0835   38.5121 GAU  3.91e-04 -1.00e+00 -1.00e+00 -1.00e+00    1.0000 >    1.5979   -0.1261    0.0658  737.1780 9821.5410   -1.2220    3.1827 331.58 331.6 109.3 10     0.0000    0.0320
ML05         ?    BHZ  e P      c 20230928 0835   38.1696 GAU  6.29e-04 -1.00e+00 -1.00e+00 -1.00e+00    1.0000 >    1.1393   -0.0101    1.2516  736.2660 9822.0830   -1.1500    4.1295 324.01 324.0 101.0 10     0.0000    0.0228
ML05         ?    BHE  e S      ? 20230928 0835   39.0229 GAU  4.12e-04 -1.00e+00 -1.00e+00 -1.00e+00    1.0000 >    2.0093   -0.0267    0.8315  736.2660 9822.0830   -1.1500    4.1295 324.01 324.0 102.6  9     0.0000    0.0402
ML07         ?    BHZ  e P      c 20230928 0835   38.2288 GAU  6.93e-04 -1.00e+00 -1.00e+00 -1.00e+00    1.0000 >    1.1659    0.0225    1.0678  737.4430 9822.8030   -1.1120    4.2491 342.90 342.9 100.3 10     0.0000    0.0233
ML07         ?    BHN  e S      ? 20230928 0835   39.1272 GAU  2.53e-04 -1.00e+00 -1.00e+00 -1.00e+00    1.0000 >    2.0583    0.0285    0.8327  737.4430 9822.8030   -1.1120    4.2491 342.90 342.9  92.4  9     0.0000    0.0412
ML12         ?    BHZ  e P      c 20230928 0835   38.3948 GAU  9.70e-04 -1.00e+00 -1.00e+00 -1.00e+00    1.0000 >    1.3437    0.0107    1.1968  736.8520 9823.3800   -0.9890    4.9901 338.35 338.4  97.6 10     0.0000    0.0269
ML12         ?    BHN  e S      ? 20230928 0835   39.4091 GAU  8.38e-04 -1.00e+00 -1.00e+00 -1.00e+00    1.0000 >    2.3687    0.0000    0.8829  736.8520 9823.3800   -0.9890    4.9901 338.35 338.4  72.9 10     0.0000    0.0474
END_PHASE
END_NLLOC

