NLLOC "./loc/SEML.20230928.085947.grid0" "LOCATED" "Location completed."
PUBLIC_ID None
SIGNATURE "Arham Zakki Edelo - edelo.17034@mhs.its.ac.id   obs:./obs/2023_09.obs   NLLoc:v7.00.10(30Aug2020)   run:22Jan2024 21h56m44"
COMMENT "SEML"
GRID  2001 2001 1001  727 9811 -2  0.01 0.01 0.01 PROB_DENSITY
SEARCH OCTREE nInitial 4851 nEvaluated 20003 smallestNodeSide 0.014881/0.014881/0.014205 oct_tree_integral 2.273343e-02 scatter_volume 2.273343e-02
HYPOCENTER  x 737.811 y 9818.52 z 0.833807  OT 46.5257  ix -1 iy -1 iz -1 MAXIMUM_LIKELIHOOD
GEOGRAPHIC  OT 2023 09 28  08 59 46.525692  Lat 9818.522321 Long 737.811012 Depth 0.833807
QUALITY  Pmax 7.42893e+50 MFmin 60.5009 MFmax 72.1493 RMS 0.0275522 Nphs 16 Gap 277.399 Dist 0.776294 Mamp -9.90 0 Mdur -9.90 0
VPVSRATIO  VpVsRatio 1.70125  Npair 8  Diff 0.527832
STATISTICS  ExpectX 737.979085 Y 9818.397916 Z 0.668231  CovXX 0.0534988 XY -0.0224743 XZ -0.038844 YY 0.0263728 YZ 0.0202237 ZZ 0.0512278 EllAz1  55.1973 Dip1  27.9157 Len1  0.212676 Az2  168.878 Dip2  37.1645 Len2  0.231384 Len3  6.033336e-01
STAT_GEOG  ExpectLat 9818.397916 Long 737.979085 Depth 0.668231
TRANSFORM  NONE
QML_OriginQuality  assocPhCt 16  usedPhCt 16  assocStaCt -1  usedStaCt 8  depthPhCt -1  stdErr 0.0275522  azGap 277.399  secAzGap 277.399  gtLevel -  minDist 0.776294 maxDist 4.29647 medDist 2.26892
QML_OriginUncertainty  horUnc -1  minHorUnc 0.177421  maxHorUnc 0.390162  azMaxHorUnc 119.445
QML_ConfidenceEllipsoid  semiMajorAxisLength 0.603334  semiMinorAxisLength 0.212676  semiIntermediateAxisLength 0.231384  majorAxisPlunge -40.1567  majorAxisAzimuth 118.643  majorAxisRotation 102.25
FOCALMECH  Hyp  9818.522321 737.811012 0.833807 Mech  0 0 0 mf  0 nObs -1
PHASE ID Ins Cmp On Pha  FM Date     HrMn   Sec     Err  ErrMag    Coda      Amp       Per       PriorWt  >   TTpred    Res       Weight    StaLoc(X  Y         Z)        SDist    SAzim  RAz  RDip RQual    Tcorr       TTerr
ML06         ?    BHZ  i P      c 20230928 0859   47.1497 GAU  1.29e-03 -1.00e+00 -1.00e+00 -1.00e+00    1.0000 >    0.6242   -0.0003    1.7002  738.3100 9819.1170   -1.3960    0.7763  40.00  40.0 160.1 10     0.0000    0.0125
ML06         ?    BHN  e S      ? 20230928 0859   47.6228 GAU  1.26e-03 -1.00e+00 -1.00e+00 -1.00e+00    1.0000 >    1.0755    0.0217    1.1526  738.3100 9819.1170   -1.3960    0.7763  40.00  40.0 158.6 10     0.0000    0.0215
ML04         ?    BHZ  e P      c 20230928 0859   47.2163 GAU  1.76e-03 -1.00e+00  1.58e+02 -1.00e+00    1.0000 >    0.6896    0.0011    1.6707  737.1400 9819.2520   -1.5710    0.9913 317.40 317.4 156.8 10     0.0000    0.0138
ML04         ?    BHN  e S      ? 20230928 0859   47.7053 GAU  9.25e-04 -1.00e+00  6.95e+02 -1.00e+00    1.0000 >    1.1881   -0.0085    1.3894  737.1400 9819.2520   -1.5710    0.9913 317.40 317.4 155.0 10     0.0000    0.0238
ML14         ?    BHZ  e P      c 20230928 0859   47.2377 GAU  1.35e-03 -1.00e+00 -1.00e+00 -1.00e+00    1.0000 >    0.7123   -0.0003    1.6661  737.5530 9820.0110   -1.3980    1.5109 350.17 350.2 144.8 10     0.0000    0.0142
ML14         ?    BHE  e S      ? 20230928 0859   47.7438 GAU  1.05e-03 -1.00e+00  4.59e+02 -1.00e+00    1.0000 >    1.2268   -0.0087    1.3696  737.5530 9820.0110   -1.3980    1.5109 350.17 350.2 141.8 10     0.0000    0.0245
ML11         ?    BHZ  e P      c 20230928 0859   47.2812 GAU  2.63e-03 -1.00e+00 -1.00e+00 -1.00e+00    1.0000 >    0.7870   -0.0315    0.8442  738.4670 9820.4900   -1.3120    2.0741  18.44  18.4 134.4 10     0.0000    0.0157
ML11         ?    BHN  i S      ? 20230928 0859   47.8694 GAU  1.68e-03 -1.00e+00  1.02e+01 -1.00e+00    1.0000 >    1.3550   -0.0112    1.2875  738.4670 9820.4900   -1.3120    2.0741  18.44  18.4 130.1 10     0.0000    0.0271
ML09         ?    BHZ  i P      c 20230928 0859   47.3968 GAU  5.37e-04 -1.00e+00  5.81e+01 -1.00e+00    1.0000 >    0.8536    0.0175    1.2792  737.8820 9820.9850   -1.2700    2.4637   1.65   1.7 128.4 10     0.0000    0.0171
ML09         ?    BHE  e S      ? 20230928 0859   48.0799 GAU  6.86e-04 -1.00e+00  3.58e+02 -1.00e+00    1.0000 >    1.4688    0.0854    0.3576  737.8820 9820.9850   -1.2700    2.4637   1.65   1.7 123.2 10     0.0000    0.0294
ML13         ?    BHZ  e P      c 20230928 0859   47.4898 GAU  3.18e-03 -1.00e+00 -1.00e+00 -1.00e+00    1.0000 >    0.9757   -0.0116    1.4339  737.1780 9821.5410   -1.2220    3.0843 348.16 348.2 121.2 10     0.0000    0.0195
ML13         ?    BHN  e S      ? 20230928 0859   48.2216 GAU  3.67e-04 -1.00e+00  1.93e+01 -1.00e+00    1.0000 >    1.6769    0.0190    1.1052  737.1780 9821.5410   -1.2220    3.0843 348.16 348.2 114.6 10     0.0000    0.0335
ML05         ?    BHZ  e P      c 20230928 0859   47.7604 GAU  1.62e-03 -1.00e+00  1.38e+02 -1.00e+00    1.0000 >    1.1453    0.0894    0.3046  736.2660 9822.0830   -1.1500    3.8814 336.54 336.5 114.2 10     0.0000    0.0229
ML05         ?    BHN  e S      ? 20230928 0859   48.6617 GAU  1.62e-04 -1.00e+00  2.92e+02 -1.00e+00    1.0000 >    1.9639    0.1721    0.1435  736.2660 9822.0830   -1.1500    3.8814 336.54 336.5 106.0 10     0.0000    0.0393
ML07         ?    BHZ  e P      c 20230928 0859   47.8850 GAU  2.89e-04 -1.00e+00 -1.00e+00 -1.00e+00    1.0000 >    1.2379    0.1213    0.2473  737.4430 9822.8030   -1.1120    4.2965 355.09 355.1 111.3 10     0.0000    0.0248
ML07         ?    BHE  e S      ? 20230928 0859   48.8859 GAU  4.73e-04 -1.00e+00 -1.00e+00 -1.00e+00    1.0000 >    2.1190    0.2413    0.0484  737.4430 9822.8030   -1.1120    4.2965 355.09 355.1 102.7 10     0.0000    0.0424
END_PHASE
END_NLLOC

