NLLOC "./loc/SEML.20230914.162326.grid0" "LOCATED" "Location completed."
PUBLIC_ID None
SIGNATURE "Arham Zakki Edelo - edelo.17034@mhs.its.ac.id   obs:./obs/2023_09.obs   NLLoc:v7.00.10(30Aug2020)   run:22Jan2024 21h54m04"
COMMENT "SEML"
GRID  2001 2001 1001  727 9811 -2  0.01 0.01 0.01 PROB_DENSITY
SEARCH OCTREE nInitial 4851 nEvaluated 20003 smallestNodeSide 0.007440/0.007440/0.007102 oct_tree_integral 5.912299e-03 scatter_volume 5.912299e-03
HYPOCENTER  x 737.978 y 9818.39 z 0.652699  OT 25.4319  ix -1 iy -1 iz -1 MAXIMUM_LIKELIHOOD
GEOGRAPHIC  OT 2023 09 14  16 23 25.431857  Lat 9818.392113 Long 737.978423 Depth 0.652699
QUALITY  Pmax 5.90858e+98 MFmin 95.921 MFmax 112.701 RMS 0.0180791 Nphs 26 Gap 281.696 Dist 0.797123 Mamp -9.90 0 Mdur -9.90 0
VPVSRATIO  VpVsRatio 1.79846  Npair 13  Diff 0.632093
STATISTICS  ExpectX 737.985857 Y 9818.383907 Z 0.654173  CovXX 0.00537146 XY 0.000383835 XZ 9.27594e-05 YY 0.00704153 YZ -0.00209119 ZZ 0.00588307 EllAz1  336.613 Dip1  49.4712 Len1  0.121916 Az2  264.272 Dip2  -14.5394 Len2  0.138501 Len3  1.747544e-01
STAT_GEOG  ExpectLat 9818.383907 Long 737.985857 Depth 0.654173
TRANSFORM  NONE
QML_OriginQuality  assocPhCt 26  usedPhCt 26  assocStaCt -1  usedStaCt 13  depthPhCt -1  stdErr 0.0180791  azGap 281.696  secAzGap 281.696  gtLevel -  minDist 0.797123 maxDist 5.1135 medDist 2.69582
QML_OriginUncertainty  horUnc -1  minHorUnc 0.110278  maxHorUnc 0.128018  azMaxHorUnc 12.3432
QML_ConfidenceEllipsoid  semiMajorAxisLength 0.174754  semiMinorAxisLength 0.121916  semiIntermediateAxisLength 0.138501  majorAxisPlunge -36.8255  majorAxisAzimuth 5.46964  majorAxisRotation 95.3117
FOCALMECH  Hyp  9818.392113 737.978423 0.652699 Mech  0 0 0 mf  0 nObs -1
PHASE ID Ins Cmp On Pha  FM Date     HrMn   Sec     Err  ErrMag    Coda      Amp       Per       PriorWt  >   TTpred    Res       Weight    StaLoc(X  Y         Z)        SDist    SAzim  RAz  RDip RQual    Tcorr       TTerr
ML06         ?    BHZ  i P      c 20230914 1623   26.0144 GAU  3.11e-03 -1.00e+00  5.29e+03 -1.00e+00    1.0000 >    0.5829   -0.0003    1.4545  738.3100 9819.1170   -1.3960    0.7971  24.58  24.6 158.0 10     0.0000    0.0117
ML06         ?    BHE  e S      ? 20230914 1623   26.4460 GAU  1.40e-03 -1.00e+00  2.72e+04 -1.00e+00    1.0000 >    1.0102    0.0039    1.2800  738.3100 9819.1170   -1.3960    0.7971  24.58  24.6 156.1 10     0.0000    0.0202
ML04         ?    BHZ  i P      c 20230914 1623   26.1130 GAU  1.24e-03 -1.00e+00  2.05e+04 -1.00e+00    1.0000 >    0.6718    0.0093    1.3512  737.1400 9819.2520   -1.5710    1.2010 315.72 315.7 150.5 10     0.0000    0.0134
ML04         ?    BHN  e S      ? 20230914 1623   26.6022 GAU  1.72e-03 -1.00e+00 -1.00e+00 -1.00e+00    1.0000 >    1.1639    0.0064    1.2065  737.1400 9819.2520   -1.5710    1.2010 315.72 315.7 147.9 10     0.0000    0.0233
ML14         ?    BHZ  i P      c 20230914 1623   26.1302 GAU  1.79e-03 -1.00e+00  2.92e+02 -1.00e+00    1.0000 >    0.7014   -0.0031    1.4047  737.5530 9820.0110   -1.3980    1.6739 345.28 345.3 139.3 10     0.0000    0.0140
ML14         ?    BHE  e S      ? 20230914 1623   26.6313 GAU  5.76e-04 -1.00e+00 -1.00e+00 -1.00e+00    1.0000 >    1.2154   -0.0159    1.0758  737.5530 9820.0110   -1.3980    1.6739 345.28 345.3 135.2 10     0.0000    0.0243
ML02         ?    BHZ  i P      d 20230914 1623   26.1528 GAU  5.56e-03 -1.00e+00 -1.00e+00 -1.00e+00    1.0000 >    0.7294   -0.0084    1.3195  736.5970 9819.4060   -1.4960    1.7136 306.28 306.3 139.9 10     0.0000    0.0146
ML02         ?    BHE  i S      ? 20230914 1623   26.6972 GAU  1.42e-03 -1.00e+00 -1.00e+00 -1.00e+00    1.0000 >    1.2637    0.0017    1.1815  736.5970 9819.4060   -1.4960    1.7136 306.28 306.3 135.9 10     0.0000    0.0253
ML11         ?    BHZ  i P      c 20230914 1623   26.1990 GAU  2.32e-03 -1.00e+00  2.44e+04 -1.00e+00    1.0000 >    0.7710   -0.0039    1.3703  738.4670 9820.4900   -1.3120    2.1540  13.11  13.1 130.2 10     0.0000    0.0154
ML11         ?    BHN  i S      ? 20230914 1623   26.7963 GAU  5.41e-03 -1.00e+00  5.16e+03 -1.00e+00    1.0000 >    1.3358    0.0286    0.8970  738.4670 9820.4900   -1.3120    2.1540  13.11  13.1 124.6 10     0.0000    0.0267
ML09         ?    BHZ  i P      c 20230914 1623   26.2812 GAU  3.71e-03 -1.00e+00  3.70e+03 -1.00e+00    1.0000 >    0.8533   -0.0040    1.3311  737.8820 9820.9850   -1.2700    2.5947 357.87 357.9 124.0 10     0.0000    0.0171
ML09         ?    BHE  e S      ? 20230914 1623   26.9017 GAU  7.19e-04 -1.00e+00 -1.00e+00 -1.00e+00    1.0000 >    1.4780   -0.0081    1.0716  737.8820 9820.9850   -1.2700    2.5947 357.87 357.9 116.8 10     0.0000    0.0296
ML03         ?    BHZ  i P      d 20230914 1623   26.3354 GAU  3.11e-03 -1.00e+00 -1.00e+00 -1.00e+00    1.0000 >    0.8861    0.0174    1.1507  736.8800 9820.8540   -1.3350    2.6958 335.95 336.0 123.7 10     0.0000    0.0177
ML03         ?    BHE  e S      ? 20230914 1623   26.9949 GAU  4.25e-03 -1.00e+00 -1.00e+00 -1.00e+00    1.0000 >    1.5345    0.0285    0.8786  736.8800 9820.8540   -1.3350    2.6958 335.95 336.0 116.5 10     0.0000    0.0307
ML13         ?    BHZ  i P      c 20230914 1623   26.3993 GAU  1.99e-03 -1.00e+00  2.05e+03 -1.00e+00    1.0000 >    0.9900   -0.0225    0.9969  737.1780 9821.5410   -1.2220    3.2490 345.74 345.7 116.9 10     0.0000    0.0198
ML13         ?    BHE  e S      ? 20230914 1623   27.1041 GAU  1.68e-03 -1.00e+00 -1.00e+00 -1.00e+00    1.0000 >    1.7131   -0.0409    0.6456  737.1780 9821.5410   -1.2220    3.2490 345.74 345.7 107.3 10     0.0000    0.0343
ML10         ?    BHZ  i P      c 20230914 1623   26.4347 GAU  3.89e-03 -1.00e+00  4.03e+03 -1.00e+00    1.0000 >    1.0010    0.0018    1.2826  736.5490 9821.3650   -1.2200    3.2987 334.32 334.3 116.5 10     0.0000    0.0200
ML10         ?    BHN  e S      ? 20230914 1623   27.1755 GAU  2.73e-03 -1.00e+00  7.56e+03 -1.00e+00    1.0000 >    1.7321    0.0116    0.9890  736.5490 9821.3650   -1.2200    3.2987 334.32 334.3 106.7 10     0.0000    0.0346
ML05         ?    BHZ  e P      c 20230914 1623   26.6432 GAU  6.73e-03 -1.00e+00 -1.00e+00 -1.00e+00    1.0000 >    1.1721    0.0393    0.7134  736.2660 9822.0830   -1.1500    4.0688 335.11 335.1 110.3 10     0.0000    0.0234
ML05         ?    BHN  e S      ? 20230914 1623   27.5608 GAU  1.20e-03 -1.00e+00 -1.00e+00 -1.00e+00    1.0000 >    2.0227    0.1062    0.1584  736.2660 9822.0830   -1.1500    4.0688 335.11 335.1  98.6  9     0.0000    0.0405
ML01         ?    BHZ  i P      c 20230914 1623   26.6490 GAU  2.23e-03 -1.00e+00  4.32e+03 -1.00e+00    1.0000 >    1.2508   -0.0337    0.7577  736.4090 9822.5140   -1.1200    4.4106 339.16 339.2 108.1 10     0.0000    0.0250
ML01         ?    BHE  e S      ? 20230914 1623   27.5707 GAU  3.48e-03 -1.00e+00  3.99e+03 -1.00e+00    1.0000 >    2.1544   -0.0155    0.8407  736.4090 9822.5140   -1.1200    4.4106 339.16 339.2  96.7  9     0.0000    0.0431
ML07         ?    BHZ  i P      d 20230914 1623   26.7217 GAU  2.41e-03 -1.00e+00 -1.00e+00 -1.00e+00    1.0000 >    1.2577    0.0321    0.8443  737.4430 9822.8030   -1.1120    4.4433 353.08 353.1 107.9 10     0.0000    0.0252
ML07         ?    BHE  e S      ? 20230914 1623   27.6997 GAU  2.27e-03 -1.00e+00 -1.00e+00 -1.00e+00    1.0000 >    2.1658    0.1021    0.1944  737.4430 9822.8030   -1.1120    4.4433 353.08 353.1  96.5  9     0.0000    0.0433
ML12         ?    BHZ  i P      d 20230914 1623   26.8157 GAU  3.71e-03 -1.00e+00 -1.00e+00 -1.00e+00    1.0000 >    1.4080   -0.0242    0.9107  736.8520 9823.3800   -0.9890    5.1135 347.27 347.3 103.8 10     0.0000    0.0282
ML12         ?    BHE  e S      ? 20230914 1623   27.8793 GAU  7.42e-03 -1.00e+00 -1.00e+00 -1.00e+00    1.0000 >    2.4102    0.0373    0.6935  736.8520 9823.3800   -0.9890    5.1135 347.27 347.3  94.2  9     0.0000    0.0482
END_PHASE
END_NLLOC

