NLLOC "./loc/SEML.20230914.172302.grid0" "LOCATED" "Location completed."
PUBLIC_ID None
SIGNATURE "Arham Zakki Edelo - edelo.17034@mhs.its.ac.id   obs:./obs/2023_09.obs   NLLoc:v7.00.10(30Aug2020)   run:22Jan2024 21h55m01"
COMMENT "SEML"
GRID  2001 2001 1001  727 9811 -2  0.01 0.01 0.01 PROB_DENSITY
SEARCH OCTREE nInitial 4851 nEvaluated 20019 smallestNodeSide 0.014881/0.014881/0.014205 oct_tree_integral 1.186236e-02 scatter_volume 1.186236e-02
HYPOCENTER  x 737.871 y 9818.31 z 0.478693  OT 1.6728  ix -1 iy -1 iz -1 MAXIMUM_LIKELIHOOD
GEOGRAPHIC  OT 2023 09 14  17 23 1.672801  Lat 9818.313988 Long 737.870536 Depth 0.478693
QUALITY  Pmax 6.12691e+84 MFmin 89.167 MFmax 104.07 RMS 0.024759 Nphs 24 Gap 281.921 Dist 0.9154 Mamp -9.90 0 Mdur -9.90 0
VPVSRATIO  VpVsRatio 1.82445  Npair 12  Diff 0.639095
STATISTICS  ExpectX 737.831927 Y 9818.258624 Z 0.527863  CovXX 0.0128745 XY 0.000127153 XZ -0.00676889 YY 0.0119727 YZ -0.000948163 ZZ 0.0130393 EllAz1  82.01 Dip1  44.6916 Len1  0.147105 Az2  172.024 Dip2  0.0139752 Len2  0.20543 Len3  2.643816e-01
STAT_GEOG  ExpectLat 9818.258624 Long 737.831927 Depth 0.527863
TRANSFORM  NONE
QML_OriginQuality  assocPhCt 24  usedPhCt 24  assocStaCt -1  usedStaCt 12  depthPhCt -1  stdErr 0.024759  azGap 281.921  secAzGap 281.921  gtLevel -  minDist 0.9154 maxDist 5.16739 medDist 2.98576
QML_OriginUncertainty  horUnc -1  minHorUnc 0.165821  maxHorUnc 0.172197  azMaxHorUnc 82.1258
QML_ConfidenceEllipsoid  semiMajorAxisLength 0.264382  semiMinorAxisLength 0.147105  semiIntermediateAxisLength 0.20543  majorAxisPlunge -45.3084  majorAxisAzimuth 82.038  majorAxisRotation 270
FOCALMECH  Hyp  9818.313988 737.870536 0.478693 Mech  0 0 0 mf  0 nObs -1
PHASE ID Ins Cmp On Pha  FM Date     HrMn   Sec     Err  ErrMag    Coda      Amp       Per       PriorWt  >   TTpred    Res       Weight    StaLoc(X  Y         Z)        SDist    SAzim  RAz  RDip RQual    Tcorr       TTerr
ML06         ?    BHZ  i P      d 20230914 1723    2.2332 GAU  3.74e-04 -1.00e+00 -1.00e+00 -1.00e+00    1.0000 >    0.5548    0.0056    1.6971  738.3100 9819.1170   -1.3960    0.9154  28.69  28.7 153.3 10     0.0000    0.0111
ML06         ?    BHE  e S      ? 20230914 1723    2.7155 GAU  1.68e-03 -1.00e+00 -1.00e+00 -1.00e+00    1.0000 >    0.9675    0.0752    0.3647  738.3100 9819.1170   -1.3960    0.9154  28.69  28.7 152.9 10     0.0000    0.0193
ML04         ?    BHZ  e P      d 20230914 1723    2.2984 GAU  2.48e-03 -1.00e+00  1.99e+03 -1.00e+00    1.0000 >    0.6318   -0.0062    1.6995  737.1400 9819.2520   -1.5710    1.1889 322.09 322.1 148.9 10     0.0000    0.0126
ML04         ?    BHN  e S      ? 20230914 1723    2.7932 GAU  8.09e-04 -1.00e+00  9.21e+02 -1.00e+00    1.0000 >    1.1007    0.0198    1.2300  737.1400 9819.2520   -1.5710    1.1889 322.09 322.1 148.5 10     0.0000    0.0220
ML02         ?    BHZ  i P      d 20230914 1723    2.3139 GAU  1.68e-03 -1.00e+00  5.66e+02 -1.00e+00    1.0000 >    0.6898   -0.0487    0.4941  736.5970 9819.4060   -1.4960    1.6776 310.61 310.6 138.3 10     0.0000    0.0138
ML02         ?    BHN  e S      ? 20230914 1723    2.8665 GAU  1.17e-03 -1.00e+00 -1.00e+00 -1.00e+00    1.0000 >    1.2022   -0.0085    1.4353  736.5970 9819.4060   -1.4960    1.6776 310.61 310.6 137.6 10     0.0000    0.0240
ML14         ?    BHZ  i P      c 20230914 1723    2.3602 GAU  2.07e-03 -1.00e+00 -1.00e+00 -1.00e+00    1.0000 >    0.6776    0.0098    1.5639  737.5530 9820.0110   -1.3980    1.7265 349.40 349.4 136.1 10     0.0000    0.0136
ML14         ?    BHN  e S      ? 20230914 1723    2.8571 GAU  2.63e-03 -1.00e+00  5.92e+02 -1.00e+00    1.0000 >    1.1816    0.0026    1.4544  737.5530 9820.0110   -1.3980    1.7265 349.40 349.4 135.3 10     0.0000    0.0236
ML11         ?    BHZ  i P      c 20230914 1723    2.4225 GAU  1.85e-03 -1.00e+00  5.77e+01 -1.00e+00    1.0000 >    0.7641   -0.0144    1.5050  738.4670 9820.4900   -1.3120    2.2563  15.33  15.3 126.5 10     0.0000    0.0153
ML11         ?    BHE  i S      ? 20230914 1723    3.0049 GAU  2.41e-03 -1.00e+00 -1.00e+00 -1.00e+00    1.0000 >    1.3332   -0.0011    1.3972  738.4670 9820.4900   -1.3120    2.2563  15.33  15.3 125.3 10     0.0000    0.0267
ML09         ?    BHZ  i P      c 20230914 1723    2.5133 GAU  1.45e-03 -1.00e+00  1.02e+02 -1.00e+00    1.0000 >    0.8462   -0.0057    1.6199  737.8820 9820.9850   -1.2700    2.6710   0.25   0.2 121.1 10     0.0000    0.0169
ML09         ?    BHN  e S      ? 20230914 1723    3.1377 GAU  1.50e-03 -1.00e+00  5.45e+02 -1.00e+00    1.0000 >    1.4767   -0.0118    1.2985  737.8820 9820.9850   -1.2700    2.6710   0.25   0.2 119.6 10     0.0000    0.0295
ML13         ?    BHZ  i P      c 20230914 1723    2.6349 GAU  2.41e-03 -1.00e+00 -1.00e+00 -1.00e+00    1.0000 >    0.9828   -0.0206    1.3157  737.1780 9821.5410   -1.2220    3.3005 347.89 347.9 114.8 10     0.0000    0.0197
ML13         ?    BHN  e S      ? 20230914 1723    3.3679 GAU  4.22e-04 -1.00e+00 -1.00e+00 -1.00e+00    1.0000 >    1.7157   -0.0205    1.1426  737.1780 9821.5410   -1.2220    3.3005 347.89 347.9 113.0 10     0.0000    0.0343
ML10         ?    BHZ  e P      c 20230914 1723    2.5724 GAU  3.13e-03 -1.00e+00 -1.00e+00 -1.00e+00    1.0000 >    0.9882   -0.0887    0.1026  736.5490 9821.3650   -1.2200    3.3249 336.58 336.6 114.6 10     0.0000    0.0198
ML10         ?    BHN  e S      ? 20230914 1723    3.2264 GAU  1.68e-03 -1.00e+00 -1.00e+00 -1.00e+00    1.0000 >    1.7252   -0.1716    0.0113  736.5490 9821.3650   -1.2200    3.3249 336.58 336.6 112.7 10     0.0000    0.0345
ML05         ?    BHZ  i P      c 20230914 1723    2.8462 GAU  2.70e-03 -1.00e+00  1.01e+01 -1.00e+00    1.0000 >    1.1643    0.0092    1.4019  736.2660 9822.0830   -1.1500    4.0963 336.94 336.9 109.0 10     0.0000    0.0233
ML05         ?    BHN  e S      ? 20230914 1723    3.7872 GAU  3.77e-04 -1.00e+00  2.34e+02 -1.00e+00    1.0000 >    2.0320    0.0825    0.4706  736.2660 9822.0830   -1.1500    4.0963 336.94 336.9  80.7  8     0.0000    0.0406
ML01         ?    BHZ  i P      d 20230914 1723    3.0126 GAU  3.03e-04 -1.00e+00  3.31e+02 -1.00e+00    1.0000 >    1.2468    0.0930    0.3281  736.4090 9822.5140   -1.1200    4.4470 340.81 340.8 107.1 10     0.0000    0.0249
ML01         ?    BHN  e S      ? 20230914 1723    4.0728 GAU  2.91e-03 -1.00e+00  1.63e+03 -1.00e+00    1.0000 >    2.1689    0.2311    0.0178  736.4090 9822.5140   -1.1200    4.4470 340.81 340.8  67.2 10     0.0000    0.0434
ML07         ?    BHZ  i P      d 20230914 1723    2.9451 GAU  7.19e-04 -1.00e+00 -1.00e+00 -1.00e+00    1.0000 >    1.2613    0.0111    1.3461  737.4430 9822.8030   -1.1120    4.5093 354.56 354.6 106.8 10     0.0000    0.0252
ML07         ?    BHE  e S      ? 20230914 1723    3.9755 GAU  1.22e-03 -1.00e+00 -1.00e+00 -1.00e+00    1.0000 >    2.1925    0.1102    0.3110  737.4430 9822.8030   -1.1120    4.5093 354.56 354.6  67.2 10     0.0000    0.0439
ML12         ?    BHZ  i P      c 20230914 1723    3.0761 GAU  3.02e-03 -1.00e+00 -1.00e+00 -1.00e+00    1.0000 >    1.4118   -0.0084    1.3438  736.8520 9823.3800   -0.9890    5.1674 348.63 348.6 103.4 10     0.0000    0.0282
ML12         ?    BHE  e S      ? 20230914 1723    4.1975 GAU  2.16e-03 -1.00e+00  8.40e+01 -1.00e+00    1.0000 >    2.4334    0.0913    0.4489  736.8520 9823.3800   -0.9890    5.1674 348.63 348.6  67.2 10     0.0000    0.0487
END_PHASE
END_NLLOC

