#  2023   9 14 17 22  43.411852  -1.641540119  101.136183600   2.42188  0  0  0  0.05166220  3165
ML06  0.53389500  1.000  P
ML06  0.97403900  1.000  S
ML02  0.56610300  1.000  P
ML02  1.02530500  1.000  S
ML14  0.57422100  1.000  P
ML14  1.02454200  1.000  S
ML04  0.63157100  1.000  P
ML04  1.04363400  1.000  S
ML11  0.67045800  1.000  P
ML11  1.25842500  1.000  S
ML09  0.81172700  1.000  P
ML09  1.44054200  1.000  S
ML13  0.84908900  1.000  P
ML13  1.52597200  1.000  S
ML05  1.13076200  1.000  P
ML05  1.96159900  1.000  S
ML07  1.24328400  1.000  P
ML07  2.19458600  1.000  S
ML12  1.36104000  1.000  P
ML12  2.37432700  1.000  S
#  2023   9 14 17 23   1.672801  -1.642614406  101.138056500   2.47869  0  0  0  0.02475900  3166
ML06  0.56042300  1.000  P
ML06  1.04272300  1.000  S
ML04  0.62563500  1.000  P
ML04  1.12043600  1.000  S
ML02  0.64107500  1.000  P
ML02  1.19368500  1.000  S
ML14  0.68741200  1.000  P
ML14  1.18426100  1.000  S
ML11  0.74974000  1.000  P
ML11  1.33211800  1.000  S
ML09  0.84049100  1.000  P
ML09  1.46494200  1.000  S
ML10  0.89959100  1.000  P
ML10  1.55361100  1.000  S
ML13  0.96214200  1.000  P
ML13  1.69514000  1.000  S
ML05  1.17344800  1.000  P
ML05  2.11441800  1.000  S
ML07  1.27233300  1.000  P
ML07  2.30273000  1.000  S
ML01  1.33976900  1.000  P
ML01  2.39996100  1.000  S
ML12  1.40331700  1.000  P
ML12  2.52471300  1.000  S
#  2023   9 14 17 23   3.432217  -1.649404988  101.141339200   2.14489  0  0  0  0.02823270  3167
ML06  0.69725300  1.000  P
ML06  1.19942900  1.000  S
ML04  0.75724100  1.000  P
ML04  1.20197200  1.000  S
ML02  0.78156000  1.000  P
ML02  1.39195300  1.000  S
ML14  0.81417700  1.000  P
ML14  1.46159800  1.000  S
ML11  0.87248400  1.000  P
ML11  1.54878600  1.000  S
ML09  0.97198300  1.000  P
ML09  1.72896400  1.000  S
ML13  1.09550300  1.000  P
ML13  1.89084700  1.000  S
ML10  1.18490200  1.000  P
ML10  2.05192000  1.000  S
ML12  1.33799400  1.000  P
ML12  2.33270700  1.000  S
ML05  1.36595800  1.000  P
ML05  2.37394900  1.000  S
ML07  1.42335500  1.000  P
ML07  2.52026900  1.000  S
ML01  1.44270000  1.000  P
ML01  2.55955900  1.000  S
#  2023   9 14 17 23  38.481678  -1.641370475  101.137553800   2.65980  0  0  0  0.03528270  3168
ML06  0.58742100  1.000  P
ML06  1.05584300  1.000  S
ML04  0.65943100  1.000  P
ML04  1.11058400  1.000  S
ML14  0.68462800  1.000  P
ML14  1.19968000  1.000  S
ML02  0.69091000  1.000  P
ML02  1.24166900  1.000  S
ML11  0.77995700  1.000  P
ML11  1.31369800  1.000  S
ML09  0.81506000  1.000  P
ML09  1.45839700  1.000  S
ML03  0.92960700  1.000  P
ML03  1.64936800  1.000  S
ML13  0.93063400  1.000  P
ML13  1.62886400  1.000  S
ML10  1.12921100  1.000  P
ML10  1.91835800  1.000  S
ML05  1.16460400  1.000  P
ML05  2.00241100  1.000  S
ML07  1.26586200  1.000  P
ML07  2.24451100  1.000  S
ML01  1.34972000  1.000  P
ML01  2.32780500  1.000  S
ML12  1.36686300  1.000  P
ML12  2.38914100  1.000  S
#  2023   9 14 17 24  47.472342  -1.643694738  101.134314200   2.50710  0  0  0  0.03013130  3169
ML06  0.60791200  1.000  P
ML06  1.07137400  1.000  S
ML04  0.61777300  1.000  P
ML04  1.09378600  1.000  S
ML14  0.63691500  1.000  P
ML14  1.14527300  1.000  S
ML11  0.78932000  1.000  P
ML11  1.37944600  1.000  S
ML09  0.89445300  1.000  P
ML09  1.56733500  1.000  S
ML13  1.01892200  1.000  P
ML13  1.73871800  1.000  S
ML07  1.25184400  1.000  P
ML07  2.18609800  1.000  S
ML12  1.48649400  1.000  P
ML12  2.57490300  1.000  S
#  2023   9 14 18  6  58.634264  -1.642681598  101.138123400   2.57102  0  0  0  0.01637080  3170
ML06  0.57999600  1.000  P
ML06  0.99971600  1.000  S
ML11  0.77193300  1.000  P
ML11  1.25254200  1.000  S
ML09  0.85666500  1.000  P
ML09  1.50791400  1.000  S
ML07  1.28644400  1.000  P
ML07  2.25245900  1.000  S
ML12  1.39748400  1.000  P
ML12  2.39325900  1.000  S
#  2023   9 14 21 33  19.927255  -1.621396701  101.164304100   0.09943  0  0  0  0.04282390  3171
ML09  0.81421300  1.000  P
ML09  1.42082300  1.000  S
ML06  0.81725600  1.000  P
ML06  1.42718400  1.000  S
ML13  1.04763700  1.000  P
ML13  1.77739400  1.000  S
ML07  1.24269900  1.000  P
ML07  2.13727800  1.000  S
ML12  1.34415900  1.000  P
ML12  2.37036000  1.000  S
ML05  1.42100000  1.000  P
ML05  2.46332400  1.000  S
#  2023   9 15 17 48  41.782234  -1.643967541  101.130838500   2.19460  0  0  0  0.02418110  3172
ML04  0.55502300  1.000  P
ML04  1.07638200  1.000  S
ML06  0.59225900  1.000  P
ML06  1.07188400  1.000  S
ML14  0.66679800  1.000  P
ML14  1.14894900  1.000  S
ML11  0.70704700  1.000  P
ML11  1.26631200  1.000  S
ML09  0.84832400  1.000  P
ML09  1.39411200  1.000  S
ML03  0.85615600  1.000  P
ML03  1.43267500  1.000  S
ML13  0.98439800  1.000  P
ML13  1.73028200  1.000  S
ML07  1.27982400  1.000  P
ML07  2.23684700  1.000  S
ML05  1.29782500  1.000  P
ML05  2.29917500  1.000  S
ML12  1.41257900  1.000  P
ML12  2.49855100  1.000  S
#  2023   9 15 17 50  48.409039  -1.639783369  101.143401100   2.62074  0  0  0  0.03680300  3173
ML06  0.55443500  1.000  P
ML06  1.07693800  1.000  S
ML11  0.69440000  1.000  P
ML11  1.24217200  1.000  S
ML14  0.69742500  1.000  P
ML14  1.17987800  1.000  S
ML09  0.74758100  1.000  P
ML09  1.31768800  1.000  S
ML13  0.83635300  1.000  P
ML13  1.52075100  1.000  S
ML10  0.95542900  1.000  P
ML10  1.73331800  1.000  S
ML05  1.18164000  1.000  P
ML05  2.08312900  1.000  S
ML07  1.22422700  1.000  P
ML07  2.15135900  1.000  S
ML12  1.33280900  1.000  P
ML12  2.34552300  1.000  S
#  2023   9 15 17 51   9.400665  -1.641526132  101.149151700   2.91903  0  0  0  0.01889670  3174
ML14  0.64500600  1.000  P
ML14  1.14534500  1.000  S
ML06  0.66845700  1.000  P
ML06  1.16930900  1.000  S
ML11  0.81405600  1.000  P
ML11  1.41746600  1.000  S
ML09  0.93837400  1.000  P
ML09  1.56272900  1.000  S
ML13  1.13259800  1.000  P
ML13  1.88795900  1.000  S
ML07  1.35618900  1.000  P
ML07  2.38593400  1.000  S
ML12  1.47918600  1.000  P
ML12  2.57979500  1.000  S
#  2023   9 18  5 36  41.986033  -1.638844344  101.140860000   2.47869  0  0  0  0.03734260  3175
ML04  0.61873000  1.000  P
ML04  1.07706200  1.000  S
ML06  0.64402900  1.000  P
ML06  1.16680300  1.000  S
ML11  0.67883800  1.000  P
ML11  1.17896000  1.000  S
ML14  0.69586300  1.000  P
ML14  1.18443100  1.000  S
ML02  0.70658300  1.000  P
ML02  1.26643500  1.000  S
ML09  0.75924800  1.000  P
ML09  1.32232000  1.000  S
ML13  0.87862500  1.000  P
ML13  1.54629700  1.000  S
ML10  1.06591600  1.000  P
ML10  1.84676900  1.000  S
ML05  1.11055100  1.000  P
ML05  1.96444100  1.000  S
ML07  1.16099300  1.000  P
ML07  2.04490400  1.000  S
#  2023   9 18 16 33  14.218442  -1.643487095  101.139728500   2.45739  0  0  0  0.04203970  3176
ML06  0.69535200  1.000  P
ML06  1.16978500  1.000  S
ML14  0.73492800  1.000  P
ML14  1.23613800  1.000  S
ML11  0.77577900  1.000  P
ML11  1.35596300  1.000  S
ML09  0.84352200  1.000  P
ML09  1.51055400  1.000  S
ML13  0.94086700  1.000  P
ML13  1.69115300  1.000  S
ML10  1.00141800  1.000  P
ML10  1.79044800  1.000  S
ML07  1.27422500  1.000  P
ML07  2.25631200  1.000  S
ML05  1.28531400  1.000  P
ML05  2.27759800  1.000  S
ML12  1.46746200  1.000  P
ML12  2.55064500  1.000  S
#  2023   9 19 22 37  53.886677  -1.633521594  101.148809000   3.56534  0  0  0  0.02305020  3177
ML04  0.76303100  1.000  P
ML04  1.29921700  1.000  S
ML06  0.79201500  1.000  P
ML06  1.37984100  1.000  S
ML11  0.81468600  1.000  P
ML11  1.41406200  1.000  S
ML09  0.87086100  1.000  P
ML09  1.48867400  1.000  S
ML14  0.87179900  1.000  P
ML14  1.42857000  1.000  S
ML13  1.07530200  1.000  P
ML13  1.78347800  1.000  S
ML10  1.09426900  1.000  P
ML10  1.84492500  1.000  S
ML05  1.23411900  1.000  P
ML05  2.10791800  1.000  S
ML07  1.36661100  1.000  P
ML07  2.32941400  1.000  S
#  2023   9 20 20 41  28.645259  -1.640058488  101.137786400   2.60653  0  0  0  0.03875090  3178
ML06  0.56804000  1.000  P
ML06  1.06856100  1.000  S
ML04  0.57231200  1.000  P
ML04  1.08754800  1.000  S
ML14  0.67424900  1.000  P
ML14  1.14183700  1.000  S
ML11  0.72626000  1.000  P
ML11  1.25580500  1.000  S
ML09  0.77866400  1.000  P
ML09  1.39462600  1.000  S
ML13  0.92491800  1.000  P
ML13  1.62427000  1.000  S
ML10  1.11759100  1.000  P
ML10  1.92182200  1.000  S
ML07  1.24574400  1.000  P
ML07  2.20448400  1.000  S
ML05  1.25382100  1.000  P
ML05  2.21079300  1.000  S
ML12  1.31493700  1.000  P
ML12  2.30495200  1.000  S
#  2023   9 21  3 26  18.592066  -1.644017154  101.147215900   1.77557  0  0  0  0.02394650  3179
ML06  0.68178700  1.000  P
ML06  1.19649700  1.000  S
ML11  0.69756700  1.000  P
ML11  1.22608400  1.000  S
ML14  0.74892800  1.000  P
ML14  1.36226400  1.000  S
ML02  0.78315300  1.000  P
ML02  1.38064200  1.000  S
ML09  0.88290200  1.000  P
ML09  1.52849200  1.000  S
ML13  0.90388700  1.000  P
ML13  1.59024200  1.000  S
ML05  1.26939800  1.000  P
ML05  2.25169500  1.000  S
ML12  1.51997900  1.000  P
ML12  2.67971400  1.000  S
#  2023   9 21  3 26  48.392718  -1.637890918  101.151688000   3.07528  0  0  0  0.01172600  3180
ML06  0.70763500  1.000  P
ML06  1.21372400  1.000  S
ML11  0.80781300  1.000  P
ML11  1.37608100  1.000  S
ML14  0.87530600  1.000  P
ML14  1.49744500  1.000  S
ML09  0.90429400  1.000  P
ML09  1.55157600  1.000  S
#  2023   9 21  3 26  59.630680  -1.639382493  101.140860600   3.20312  0  0  0  0.03163570  3181
ML06  0.69349600  1.000  P
ML06  1.19715200  1.000  S
ML11  0.76642400  1.000  P
ML11  1.32888800  1.000  S
ML14  0.78098100  1.000  P
ML14  1.35038100  1.000  S
ML02  0.78413800  1.000  P
ML02  1.40139600  1.000  S
ML04  0.79599100  1.000  P
ML04  1.34858100  1.000  S
ML09  0.86563600  1.000  P
ML09  1.50419300  1.000  S
ML13  0.97022700  1.000  P
ML13  1.71811100  1.000  S
ML05  1.20162300  1.000  P
ML05  2.09693500  1.000  S
ML07  1.30612600  1.000  P
ML07  2.29609900  1.000  S
ML12  1.50201700  1.000  P
ML12  2.63701400  1.000  S
#  2023   9 21  3 27  59.754458  -1.642632905  101.120810100   0.73153  0  0  0  0.02144530  3182
ML06  0.67141100  1.000  P
ML06  1.21655100  1.000  S
ML11  0.73970800  1.000  P
ML11  1.28441200  1.000  S
ML09  0.91099800  1.000  P
ML09  1.54888400  1.000  S
ML13  0.95786900  1.000  P
ML13  1.61635400  1.000  S
ML07  1.33865400  1.000  P
ML07  2.31161200  1.000  S
ML12  1.41209700  1.000  P
ML12  2.44689500  1.000  S
#  2023   9 21  3 28   2.728707  -1.644491139  101.144342000   1.96733  0  0  0  0.04120900  3183
ML06  0.67979700  1.000  P
ML06  1.18361600  1.000  S
ML14  0.68808300  1.000  P
ML14  1.20529100  1.000  S
ML11  0.71555900  1.000  P
ML11  1.28936300  1.000  S
ML09  0.85881200  1.000  P
ML09  1.48713200  1.000  S
ML04  0.89065400  1.000  P
ML04  1.63889900  1.000  S
ML13  0.97278600  1.000  P
ML13  1.67382300  1.000  S
ML05  1.28963100  1.000  P
ML05  2.26175600  1.000  S
ML07  1.34842000  1.000  P
ML07  2.33769300  1.000  S
ML12  1.46659400  1.000  P
ML12  2.53075300  1.000  S
#  2023   9 21  3 28  44.746861  -1.641126567  101.145407900   2.43608  0  0  0  0.04089960  3184
ML06  0.66426000  1.000  P
ML06  1.18471500  1.000  S
ML14  0.70396800  1.000  P
ML14  1.19726900  1.000  S
ML11  0.71992100  1.000  P
ML11  1.29320500  1.000  S
ML04  0.75847600  1.000  P
ML04  1.27508500  1.000  S
ML02  0.78376000  1.000  P
ML02  1.43115600  1.000  S
ML09  0.81371300  1.000  P
ML09  1.45131600  1.000  S
ML13  0.96797500  1.000  P
ML13  1.64610200  1.000  S
ML10  1.10765000  1.000  P
ML10  1.98093700  1.000  S
ML05  1.18120100  1.000  P
ML05  2.10585700  1.000  S
ML07  1.28532700  1.000  P
ML07  2.26350700  1.000  S
ML12  1.46041800  1.000  P
ML12  2.51447200  1.000  S
#  2023   9 21  3 37  14.611401  -1.637860550  101.117262200   0.46875  0  0  0  0.01369430  3185
ML14  0.63219900  1.000  P
ML14  1.10627900  1.000  S
ML06  0.76899600  1.000  P
ML06  1.30582400  1.000  S
ML09  0.87058700  1.000  P
ML09  1.51218900  1.000  S
ML13  0.97161800  1.000  P
ML13  1.66736600  1.000  S
#  2023   9 21  3 43   8.547568  -1.646443730  101.142672900   2.03125  0  0  0  0.01281020  3186
ML06  0.67530100  1.000  P
ML06  1.21590000  1.000  S
ML14  0.71222500  1.000  P
ML14  1.27542000  1.000  S
ML11  0.78623800  1.000  P
ML11  1.35984200  1.000  S
ML09  0.92329000  1.000  P
ML09  1.61687800  1.000  S
ML13  1.07468100  1.000  P
ML13  1.86942600  1.000  S
#  2023   9 21  3 43  36.966165  -1.644226108  101.140598300   2.18040  0  0  0  0.00403036  3187
ML06  0.63556200  1.000  P
ML06  1.14694500  1.000  S
ML14  0.67709600  1.000  P
ML14  1.17604700  1.000  S
ML11  0.74408200  1.000  P
ML11  1.31782400  1.000  S
ML09  0.85150000  1.000  P
ML09  1.49989200  1.000  S
ML13  1.01531500  1.000  P
ML13  1.77740700  1.000  S
#  2023   9 21  3 44  35.314834  -1.638107912  101.137583800   3.62216  0  0  0  0.01452840  3188
ML06  0.79391500  1.000  P
ML06  1.34837000  1.000  S
ML14  0.83908900  1.000  P
ML14  1.43020300  1.000  S
ML11  0.88169900  1.000  P
ML11  1.50824800  1.000  S
ML09  1.01056700  1.000  P
ML09  1.71926200  1.000  S
#  2023   9 21  3 45   0.401739  -1.636492609  101.138384200   3.13921  0  0  0  0.01383200  3189
ML06  0.67082800  1.000  P
ML06  1.15973300  1.000  S
ML14  0.72463900  1.000  P
ML14  1.23242800  1.000  S
ML11  0.76729900  1.000  P
ML11  1.31054700  1.000  S
ML09  0.88330600  1.000  P
ML09  1.50902300  1.000  S
#  2023   9 21  3 46  23.753327  -1.637134560  101.135677600   2.41832  0  0  0  0.04000720  3190
ML06  0.53159800  1.000  P
ML06  0.99965800  1.000  S
ML14  0.56338600  1.000  P
ML14  1.00648400  1.000  S
ML02  0.58295400  1.000  P
ML02  1.03627700  1.000  S
ML11  0.63631800  1.000  P
ML11  1.14287300  1.000  S
ML04  0.65313300  1.000  P
ML04  1.16627100  1.000  S
ML09  0.74753500  1.000  P
ML09  1.34938600  1.000  S
ML13  0.82006400  1.000  P
ML13  1.43237100  1.000  S
ML05  1.15754500  1.000  P
ML05  2.04076500  1.000  S
ML12  1.28606900  1.000  P
ML12  2.26586500  1.000  S
#  2023   9 21  3 47  35.902162  -1.640857502  101.145407600   2.83381  0  0  0  0.02234210  3191
ML06  0.68953200  1.000  P
ML06  1.19043600  1.000  S
ML02  0.75576300  1.000  P
ML02  1.29430300  1.000  S
ML11  0.77702600  1.000  P
ML11  1.33901100  1.000  S
ML14  0.77797200  1.000  P
ML14  1.35335000  1.000  S
ML04  0.78025300  1.000  P
ML04  1.33677500  1.000  S
ML09  0.86683500  1.000  P
ML09  1.50658300  1.000  S
ML13  1.02522900  1.000  P
ML13  1.78305700  1.000  S
ML05  1.27816600  1.000  P
ML05  2.19571900  1.000  S
#  2023   9 21  3 47  45.476231  -1.642339277  101.143671200   2.49290  0  0  0  0.00784434  3192
ML06  0.70605400  1.000  P
ML06  1.26602100  1.000  S
ML14  0.71847500  1.000  P
ML14  1.24358700  1.000  S
ML11  0.74176400  1.000  P
ML11  1.31114200  1.000  S
ML09  0.84545500  1.000  P
ML09  1.48680500  1.000  S
ML13  1.03150900  1.000  P
ML13  1.78926400  1.000  S
#  2023   9 21  3 50  10.319493  -1.638306338  101.140725700   3.01847  0  0  0  0.02460290  3193
ML06  0.64046000  1.000  P
ML06  1.10976400  1.000  S
ML04  0.66196600  1.000  P
ML04  1.14265600  1.000  S
ML14  0.75347600  1.000  P
ML14  1.23730600  1.000  S
ML11  0.76303400  1.000  P
ML11  1.32537900  1.000  S
ML09  0.82087100  1.000  P
ML09  1.43975700  1.000  S
ML13  0.96752000  1.000  P
ML13  1.65622200  1.000  S
ML10  1.06295200  1.000  P
ML10  1.82974700  1.000  S
ML05  1.28353100  1.000  P
ML05  2.21675600  1.000  S
#  2023   9 21  3 51  53.756371  -1.634608223  101.139184400   3.08239  0  0  0  0.03099780  3194
ML06  0.63541700  1.000  P
ML06  1.13224400  1.000  S
ML02  0.70248000  1.000  P
ML02  1.19939000  1.000  S
ML11  0.71578600  1.000  P
ML11  1.23401600  1.000  S
ML14  0.72597800  1.000  P
ML14  1.18631300  1.000  S
ML04  0.74799700  1.000  P
ML04  1.25039600  1.000  S
ML09  0.78047900  1.000  P
ML09  1.34945600  1.000  S
ML13  0.84564200  1.000  P
ML13  1.44337000  1.000  S
ML05  1.05504200  1.000  P
ML05  1.79346800  1.000  S
ML10  1.05916200  1.000  P
ML10  1.80774300  1.000  S
ML12  1.36200700  1.000  P
ML12  2.32110200  1.000  S
#  2023   9 21  3 54  41.160775  -1.634058868  101.149611700   3.33807  0  0  0  0.02292610  3195
ML06  0.75385200  1.000  P
ML06  1.26744400  1.000  S
ML11  0.76925200  1.000  P
ML11  1.32625100  1.000  S
ML09  0.94883300  1.000  P
ML09  1.56526900  1.000  S
ML13  1.04096500  1.000  P
ML13  1.74435700  1.000  S
ML05  1.19527400  1.000  P
ML05  2.07486600  1.000  S
#  2023   9 21  3 54  56.191213  -1.634788065  101.159572400   2.91903  0  0  0  0.01994010  3196
ML06  0.80238600  1.000  P
ML06  1.37274400  1.000  S
ML11  0.82594200  1.000  P
ML11  1.43889100  1.000  S
ML09  1.01958700  1.000  P
ML09  1.65418500  1.000  S
ML13  1.11970000  1.000  P
ML13  1.81168200  1.000  S
ML05  1.40680600  1.000  P
ML05  2.43075100  1.000  S
#  2023   9 21  3 55   2.205158  -1.635068689  101.148877500   3.14631  0  0  0  0.02249870  3197
ML06  0.70485400  1.000  P
ML06  1.22027600  1.000  S
ML11  0.73900900  1.000  P
ML11  1.28016500  1.000  S
ML14  0.78767600  1.000  P
ML14  1.36674900  1.000  S
ML09  0.90011200  1.000  P
ML09  1.55598100  1.000  S
ML13  1.02287500  1.000  P
ML13  1.72088500  1.000  S
ML05  1.20613000  1.000  P
ML05  2.11056400  1.000  S
#  2023   9 21  3 57  10.921028  -1.639444364  101.145874100   2.88352  0  0  0  0.03594330  3198
ML14  0.56610200  1.000  P
ML14  0.97136000  1.000  S
ML06  0.74250700  1.000  P
ML06  1.30524900  1.000  S
ML11  0.75078000  1.000  P
ML11  1.31119600  1.000  S
ML04  0.80322100  1.000  P
ML04  1.35442700  1.000  S
ML09  0.84506000  1.000  P
ML09  1.51676100  1.000  S
ML13  1.06167700  1.000  P
ML13  1.74910600  1.000  S
ML05  1.38373600  1.000  P
ML05  2.42315900  1.000  S
#  2023   9 21 18  0   5.392410  -1.650221176  101.133051100   0.01420  0  0  0  0.02056250  3199
ML14  0.71618500  1.000  P
ML14  1.24890800  1.000  S
ML06  0.77288300  1.000  P
ML06  1.38262100  1.000  S
ML11  0.91582300  1.000  P
ML11  1.57603900  1.000  S
ML09  0.94547700  1.000  P
ML09  1.67308000  1.000  S
ML13  1.11885700  1.000  P
ML13  1.95561600  1.000  S
ML05  1.32759000  1.000  P
ML05  2.31258300  1.000  S
ML07  1.49455000  1.000  P
ML07  2.52206700  1.000  S
ML12  1.63820900  1.000  P
ML12  2.85953800  1.000  S
#  2023   9 21 18  0  24.665356  -1.634577340  101.167794100   0.01420  0  0  0  0.02443230  3200
ML06  0.81571200  1.000  P
ML06  1.38684200  1.000  S
ML14  1.00787500  1.000  P
ML14  1.80442400  1.000  S
ML09  1.04225900  1.000  P
ML09  1.79728900  1.000  S
ML07  1.52005400  1.000  P
ML07  2.63558900  1.000  S
#  2023   9 21 18  0  43.870139  -1.639970932  101.156569900   0.04261  0  0  0  0.02949750  3201
ML06  0.70821100  1.000  P
ML06  1.22149800  1.000  S
ML14  0.76932300  1.000  P
ML14  1.35479500  1.000  S
ML11  0.78968900  1.000  P
ML11  1.33661400  1.000  S
ML09  0.89647000  1.000  P
ML09  1.50747400  1.000  S
ML13  1.10305900  1.000  P
ML13  1.85848700  1.000  S
ML07  1.36573100  1.000  P
ML07  2.33468000  1.000  S
ML05  1.40500700  1.000  P
ML05  2.44445100  1.000  S
ML12  1.60233000  1.000  P
ML12  2.75972500  1.000  S
