#  2023   9 21 18  2  53.306780  -1.645356713  101.152565000   2.37216  0  0  0  0.02931790  3202
ML06  0.75626900  1.000  P
ML06  1.31978800  1.000  S
ML11  0.84341600  1.000  P
ML11  1.46974400  1.000  S
ML14  0.88254700  1.000  P
ML14  1.53653900  1.000  S
ML09  0.98214900  1.000  P
ML09  1.73298800  1.000  S
ML13  0.99103000  1.000  P
ML13  1.73018800  1.000  S
ML05  1.34470900  1.000  P
ML05  2.33276200  1.000  S
ML07  1.43691400  1.000  P
ML07  2.52705900  1.000  S
ML12  1.59169900  1.000  P
ML12  2.79833400  1.000  S
#  2023   9 21 18  3   1.863211  -1.643281181  101.143538600   2.39347  0  0  0  0.03636260  3203
ML04  0.60325300  1.000  P
ML04  1.04074200  1.000  S
ML06  0.63660800  1.000  P
ML06  1.09130800  1.000  S
ML14  0.73337400  1.000  P
ML14  1.24056900  1.000  S
ML11  0.74919800  1.000  P
ML11  1.34149900  1.000  S
ML02  0.77206300  1.000  P
ML02  1.35649400  1.000  S
ML13  0.84197700  1.000  P
ML13  1.46240400  1.000  S
ML09  0.84521100  1.000  P
ML09  1.43180100  1.000  S
ML07  1.27336000  1.000  P
ML07  2.19126000  1.000  S
ML05  1.27670400  1.000  P
ML05  2.19305300  1.000  S
ML12  1.46638800  1.000  P
ML12  2.54900900  1.000  S
#  2023   9 21 18  3   6.839155  -1.639645227  101.146743300   2.45028  0  0  0  0.03135920  3204
ML06  0.58976300  1.000  P
ML06  1.05702600  1.000  S
ML11  0.68298600  1.000  P
ML11  1.14076300  1.000  S
ML14  0.69725000  1.000  P
ML14  1.23664500  1.000  S
ML04  0.72009700  1.000  P
ML04  1.25184000  1.000  S
ML09  0.82198700  1.000  P
ML09  1.46115700  1.000  S
ML13  0.95082000  1.000  P
ML13  1.67770400  1.000  S
ML05  1.22891400  1.000  P
ML05  2.14703800  1.000  S
ML07  1.29805800  1.000  P
ML07  2.27464900  1.000  S
ML12  1.39027900  1.000  P
ML12  2.41664300  1.000  S
#  2023   9 21 18  3  55.402140  -1.635920363  101.169934500   0.75284  0  0  0  0.02783220  3205
ML11  0.80121400  1.000  P
ML11  1.35038900  1.000  S
ML06  0.85845300  1.000  P
ML06  1.48695100  1.000  S
ML09  1.08497800  1.000  P
ML09  1.89867200  1.000  S
ML07  1.54116200  1.000  P
ML07  2.65907100  1.000  S
ML12  1.71842400  1.000  P
ML12  2.95081100  1.000  S
#  2023   9 21 18  3  58.453417  -1.639767610  101.157973400   2.47869  0  0  0  0.01823050  3206
ML06  0.69764100  1.000  P
ML06  1.22243700  1.000  S
ML11  0.80923600  1.000  P
ML11  1.41028000  1.000  S
ML09  0.83339100  1.000  P
ML09  1.48138200  1.000  S
ML07  1.38710200  1.000  P
ML07  2.38242900  1.000  S
ML12  1.52442000  1.000  P
ML12  2.66246300  1.000  S
#  2023   9 21 18  4   4.847070  -1.633578112  101.158769000   1.83949  0  0  0  0.01778840  3207
ML06  0.60747500  1.000  P
ML06  1.06354400  1.000  S
ML11  0.63753200  1.000  P
ML11  1.12707600  1.000  S
ML09  0.80873200  1.000  P
ML09  1.41958900  1.000  S
ML07  1.30606700  1.000  P
ML07  2.29624300  1.000  S
ML12  1.43121700  1.000  P
ML12  2.53370600  1.000  S
#  2023   9 21 18  4   8.673522  -1.643415285  101.143939800   2.39347  0  0  0  0.03039310  3208
ML06  0.64918200  1.000  P
ML06  1.15582300  1.000  S
ML04  0.68782600  1.000  P
ML04  1.21334200  1.000  S
ML14  0.75899000  1.000  P
ML14  1.29180800  1.000  S
ML11  0.75807900  1.000  P
ML11  1.32074400  1.000  S
ML02  0.78557700  1.000  P
ML02  1.38137700  1.000  S
ML09  0.85337600  1.000  P
ML09  1.46082800  1.000  S
ML13  0.97800000  1.000  P
ML13  1.69187400  1.000  S
ML10  1.14337300  1.000  P
ML10  1.97241200  1.000  S
ML05  1.24498000  1.000  P
ML05  2.12424000  1.000  S
ML07  1.32752600  1.000  P
ML07  2.28170900  1.000  S
ML01  1.35059900  1.000  P
ML01  2.34368600  1.000  S
ML12  1.47485900  1.000  P
ML12  2.55000000  1.000  S
#  2023   9 21 18  5  31.933446  -1.648129418  101.138998200   2.89062  0  0  0  0.01910980  3209
ML06  0.71806600  1.000  P
ML06  1.22466900  1.000  S
ML14  0.87013100  1.000  P
ML14  1.48355400  1.000  S
ML09  0.89216100  1.000  P
ML09  1.55775000  1.000  S
ML11  0.93092200  1.000  P
ML11  1.64968400  1.000  S
ML07  1.41374500  1.000  P
ML07  2.43371500  1.000  S
ML12  1.59238700  1.000  P
ML12  2.72953700  1.000  S
#  2023   9 21 18  5  48.377213  -1.643154572  101.136185300   2.89062  0  0  0  0.02908100  3210
ML06  0.66916600  1.000  P
ML06  1.14858600  1.000  S
ML14  0.77610700  1.000  P
ML14  1.30354600  1.000  S
ML11  0.84714500  1.000  P
ML11  1.50257800  1.000  S
ML09  0.89593100  1.000  P
ML09  1.56232400  1.000  S
ML07  1.29813300  1.000  P
ML07  2.25540500  1.000  S
ML05  1.35467100  1.000  P
ML05  2.31719200  1.000  S
ML12  1.53252400  1.000  P
ML12  2.65074100  1.000  S
#  2023   9 21 18  6  39.499944  -1.649694249  101.122622400   2.00284  0  0  0  0.03881570  3211
ML06  0.82976000  1.000  P
ML06  1.40238800  1.000  S
ML14  0.83917900  1.000  P
ML14  1.50162400  1.000  S
ML09  1.05147400  1.000  P
ML09  1.94893100  1.000  S
ML11  1.07492300  1.000  P
ML11  1.86476800  1.000  S
ML05  1.36119700  1.000  P
ML05  2.39414500  1.000  S
ML07  1.46049000  1.000  P
ML07  2.56756900  1.000  S
ML12  1.73816200  1.000  P
ML12  3.02959700  1.000  S
#  2023   9 21 18 40  21.609643  -1.649607730  101.140470400   2.63494  0  0  0  0.03301280  3212
ML04  0.75350900  1.000  P
ML04  1.31877600  1.000  S
ML06  0.78917400  1.000  P
ML06  1.36467500  1.000  S
ML02  0.85787900  1.000  P
ML02  1.50436100  1.000  S
ML14  0.87226800  1.000  P
ML14  1.51111900  1.000  S
ML11  0.93918900  1.000  P
ML11  1.61578800  1.000  S
ML09  1.00868300  1.000  P
ML09  1.75369200  1.000  S
ML13  1.06444100  1.000  P
ML13  1.82065500  1.000  S
ML05  1.32543300  1.000  P
ML05  2.30293900  1.000  S
ML07  1.45770400  1.000  P
ML07  2.52605000  1.000  S
ML12  1.64544800  1.000  P
ML12  2.83381900  1.000  S
#  2023   9 28  7  5   1.828476  -1.638564169  101.151153900   3.21733  0  0  0  0.01965970  3213
ML06  0.73053500  1.000  P
ML06  1.25235600  1.000  S
ML11  0.83791900  1.000  P
ML11  1.41420300  1.000  S
ML14  0.90072200  1.000  P
ML14  1.53667600  1.000  S
ML09  0.94350400  1.000  P
ML09  1.61830500  1.000  S
ML13  1.05829100  1.000  P
ML13  1.82429800  1.000  S
ML07  1.41981700  1.000  P
ML07  2.42504400  1.000  S
#  2023   9 28  7 39   3.832552  -1.634672125  101.142326200   3.08949  0  0  0  0.03271290  3214
ML06  0.66040900  1.000  P
ML06  1.14042300  1.000  S
ML11  0.70941500  1.000  P
ML11  1.21893300  1.000  S
ML14  0.71524700  1.000  P
ML14  1.21616300  1.000  S
ML04  0.76946500  1.000  P
ML04  1.33279500  1.000  S
ML02  0.81222800  1.000  P
ML02  1.41629300  1.000  S
ML09  0.87700200  1.000  P
ML09  1.50906000  1.000  S
ML13  0.93129800  1.000  P
ML13  1.58781500  1.000  S
ML05  1.25679500  1.000  P
ML05  2.13416600  1.000  S
ML07  1.33494100  1.000  P
ML07  2.30031200  1.000  S
#  2023   9 28  7 40   2.519272  -1.637367457  101.138050900   3.06108  0  0  0  0.02632520  3215
ML06  0.65455400  1.000  P
ML06  1.14132500  1.000  S
ML04  0.71938300  1.000  P
ML04  1.26198500  1.000  S
ML14  0.71989200  1.000  P
ML14  1.20637000  1.000  S
ML11  0.77482100  1.000  P
ML11  1.31158100  1.000  S
ML09  0.88539000  1.000  P
ML09  1.56194700  1.000  S
ML05  1.34127100  1.000  P
ML05  2.32558900  1.000  S
ML07  1.47584000  1.000  P
ML07  2.58385100  1.000  S
#  2023   9 28  7 55  56.946956  -1.636685426  101.146740100   2.90483  0  0  0  0.02880210  3216
ML06  0.62697300  1.000  P
ML06  1.08455300  1.000  S
ML04  0.66757300  1.000  P
ML04  1.16869000  1.000  S
ML11  0.71907500  1.000  P
ML11  1.24093700  1.000  S
ML14  0.73726300  1.000  P
ML14  1.22971000  1.000  S
ML09  0.79385400  1.000  P
ML09  1.38709700  1.000  S
ML02  0.86988500  1.000  P
ML02  1.51735400  1.000  S
ML13  1.01168500  1.000  P
ML13  1.70325500  1.000  S
ML05  1.29128300  1.000  P
ML05  2.22956100  1.000  S
ML07  1.31433200  1.000  P
ML07  2.26613300  1.000  S
#  2023   9 28  7 56   5.492735  -1.641128731  101.143402600   2.47869  0  0  0  0.02797340  3217
ML06  0.61374000  1.000  P
ML06  1.07184400  1.000  S
ML04  0.67534800  1.000  P
ML04  1.17055000  1.000  S
ML14  0.68921500  1.000  P
ML14  1.19862800  1.000  S
ML11  0.71728200  1.000  P
ML11  1.27873600  1.000  S
ML02  0.76749100  1.000  P
ML02  1.35725400  1.000  S
ML09  0.81970300  1.000  P
ML09  1.41847600  1.000  S
ML03  0.91071800  1.000  P
ML03  1.58656700  1.000  S
ML13  0.95170500  1.000  P
ML13  1.64917200  1.000  S
ML10  1.07398900  1.000  P
ML10  1.87425200  1.000  S
ML05  1.23725300  1.000  P
ML05  2.17994800  1.000  S
ML01  1.24070200  1.000  P
ML01  2.16783800  1.000  S
ML07  1.24633200  1.000  P
ML07  2.17516700  1.000  S
#  2023   9 28  7 56  11.486618  -1.641395930  101.145140800   2.49290  0  0  0  0.04274440  3218
ML06  0.63425300  1.000  P
ML06  1.14880900  1.000  S
ML14  0.69970300  1.000  P
ML14  1.23365600  1.000  S
ML04  0.70750000  1.000  P
ML04  1.25077300  1.000  S
ML11  0.74375300  1.000  P
ML11  1.37098200  1.000  S
ML02  0.82871500  1.000  P
ML02  1.50095900  1.000  S
ML09  0.84807200  1.000  P
ML09  1.48504300  1.000  S
ML13  0.98839000  1.000  P
ML13  1.77155100  1.000  S
ML10  1.08760300  1.000  P
ML10  1.90632500  1.000  S
ML03  1.30231800  1.000  P
ML03  2.28226800  1.000  S
ML07  1.50869100  1.000  P
ML07  2.66818100  1.000  S
#  2023   9 28  7 57  46.276622  -1.636690030  101.142462000   3.52983  0  0  0  0.03084650  3219
ML06  0.75213700  1.000  P
ML06  1.27852300  1.000  S
ML04  0.78656800  1.000  P
ML04  1.33255500  1.000  S
ML11  0.83742600  1.000  P
ML11  1.42975300  1.000  S
ML14  0.86187800  1.000  P
ML14  1.49230300  1.000  S
ML09  0.89595500  1.000  P
ML09  1.53925800  1.000  S
ML02  0.92105200  1.000  P
ML02  1.55628300  1.000  S
ML13  1.00056200  1.000  P
ML13  1.68439600  1.000  S
ML05  1.30065600  1.000  P
ML05  2.21522200  1.000  S
ML07  1.40936700  1.000  P
ML07  2.41556600  1.000  S
#  2023   9 28  7 59  35.898457  -1.644077389  101.153700000   0.97301  0  0  0  0.03608140  3220
ML06  0.70769100  1.000  P
ML06  1.21322200  1.000  S
ML14  0.73423000  1.000  P
ML14  1.24998400  1.000  S
ML04  0.76033400  1.000  P
ML04  1.31175200  1.000  S
ML11  0.82089200  1.000  P
ML11  1.44094800  1.000  S
ML02  0.90097000  1.000  P
ML02  1.57144100  1.000  S
ML09  0.92440800  1.000  P
ML09  1.56712700  1.000  S
ML13  1.04418500  1.000  P
ML13  1.75299400  1.000  S
ML10  1.27294900  1.000  P
ML10  2.16200600  1.000  S
ML05  1.38789700  1.000  P
ML05  2.39421800  1.000  S
ML07  1.40802300  1.000  P
ML07  2.42523200  1.000  S
#  2023   9 28  8  1  35.723212  -1.642878580  101.142602300   2.16619  0  0  0  0.01356560  3221
ML06  0.60635500  1.000  P
ML06  1.04638400  1.000  S
ML14  0.66591800  1.000  P
ML14  1.15533600  1.000  S
ML11  0.70269500  1.000  P
ML11  1.26315000  1.000  S
ML09  0.81683500  1.000  P
ML09  1.41446400  1.000  S
ML07  1.28566500  1.000  P
ML07  2.23702000  1.000  S
#  2023   9 28  8  2   3.363576  -1.640450282  101.148749500   1.85369  0  0  0  0.02377640  3222
ML06  0.54956900  1.000  P
ML06  1.00187800  1.000  S
ML11  0.62734300  1.000  P
ML11  1.13624600  1.000  S
ML04  0.66149500  1.000  P
ML04  1.14408500  1.000  S
ML14  0.66275600  1.000  P
ML14  1.15523800  1.000  S
ML09  0.75563400  1.000  P
ML09  1.34512600  1.000  S
ML02  0.80319800  1.000  P
ML02  1.40274700  1.000  S
ML10  0.87856500  1.000  P
ML10  1.53585400  1.000  S
ML13  0.88307900  1.000  P
ML13  1.50990000  1.000  S
ML07  1.23645200  1.000  P
ML07  2.17139500  1.000  S
ML05  1.24257900  1.000  P
ML05  2.16365400  1.000  S
#  2023   9 28  8  2  40.309346  -1.643952123  101.145143600   2.23722  0  0  0  0.03663300  3223
ML06  0.66310400  1.000  P
ML06  1.15051600  1.000  S
ML04  0.68659900  1.000  P
ML04  1.20676700  1.000  S
ML14  0.72872800  1.000  P
ML14  1.26672300  1.000  S
ML11  0.77021000  1.000  P
ML11  1.32977200  1.000  S
ML09  0.86459700  1.000  P
ML09  1.50985300  1.000  S
ML02  0.87964600  1.000  P
ML02  1.50762100  1.000  S
ML13  0.97569600  1.000  P
ML13  1.65428800  1.000  S
ML10  1.15535700  1.000  P
ML10  1.98274200  1.000  S
ML05  1.29526800  1.000  P
ML05  2.27465700  1.000  S
ML07  1.30102500  1.000  P
ML07  2.29137700  1.000  S
ML01  1.34172000  1.000  P
ML01  2.33576100  1.000  S
#  2023   9 28  8  7  49.710402  -1.639511123  101.146342100   2.10938  0  0  0  0.02114780  3224
ML06  0.52444600  1.000  P
ML06  0.99489400  1.000  S
ML14  0.59027600  1.000  P
ML14  1.09023800  1.000  S
ML11  0.63221100  1.000  P
ML11  1.12404400  1.000  S
ML04  0.64262200  1.000  P
ML04  1.15093400  1.000  S
ML09  0.75229000  1.000  P
ML09  1.31450400  1.000  S
ML02  0.76794200  1.000  P
ML02  1.33558800  1.000  S
ML13  0.92861300  1.000  P
ML13  1.64098900  1.000  S
ML05  1.18164200  1.000  P
ML05  2.09528100  1.000  S
ML07  1.21747000  1.000  P
ML07  2.15747600  1.000  S
#  2023   9 28  8 13   6.840710  -1.643950677  101.146480500   1.99574  0  0  0  0.03736090  3225
ML06  0.59184000  1.000  P
ML06  1.06862500  1.000  S
ML04  0.64261500  1.000  P
ML04  1.12569000  1.000  S
ML14  0.70151400  1.000  P
ML14  1.20795800  1.000  S
ML11  0.72957100  1.000  P
ML11  1.28830900  1.000  S
ML02  0.78823800  1.000  P
ML02  1.40539400  1.000  S
ML09  0.80984000  1.000  P
ML09  1.45743100  1.000  S
ML13  0.94446600  1.000  P
ML13  1.64881600  1.000  S
ML10  1.10410500  1.000  P
ML10  1.92059100  1.000  S
ML05  1.24703900  1.000  P
ML05  2.22615200  1.000  S
ML07  1.25023000  1.000  P
ML07  2.21206300  1.000  S
ML01  1.35446400  1.000  P
ML01  2.40604000  1.000  S
#  2023   9 28  8 15  50.847877  -1.640317623  101.147011400   2.18040  0  0  0  0.02267480  3226
ML06  0.56782200  1.000  P
ML06  1.04433900  1.000  S
ML11  0.65232500  1.000  P
ML11  1.16090400  1.000  S
ML14  0.68926700  1.000  P
ML14  1.17496200  1.000  S
ML09  0.77660000  1.000  P
ML09  1.39165900  1.000  S
ML13  0.86472800  1.000  P
ML13  1.52788200  1.000  S
ML05  1.20845100  1.000  P
ML05  2.11240800  1.000  S
ML07  1.26160900  1.000  P
ML07  2.21223500  1.000  S
#  2023   9 28  8 15  58.195898  -1.646643288  101.144745400   1.37074  0  0  0  0.03247390  3227
ML06  0.67333000  1.000  P
ML06  1.15617600  1.000  S
ML14  0.69843500  1.000  P
ML14  1.20445400  1.000  S
ML02  0.72427600  1.000  P
ML02  1.23967200  1.000  S
ML04  0.73593000  1.000  P
ML04  1.27560600  1.000  S
ML11  0.74113700  1.000  P
ML11  1.26891500  1.000  S
ML09  0.89955000  1.000  P
ML09  1.53959900  1.000  S
ML13  1.01714900  1.000  P
ML13  1.73059300  1.000  S
ML05  1.33547000  1.000  P
ML05  2.29046800  1.000  S
ML07  1.34631900  1.000  P
ML07  2.29284100  1.000  S
#  2023   9 28  8 17   0.495618  -1.642474969  101.142601800   2.72017  0  0  0  0.02065420  3228
ML06  0.60805000  1.000  P
ML06  1.14373300  1.000  S
ML14  0.73613300  1.000  P
ML14  1.29965300  1.000  S
ML11  0.77822900  1.000  P
ML11  1.34014600  1.000  S
ML09  0.88747200  1.000  P
ML09  1.54192600  1.000  S
ML13  1.01715000  1.000  P
ML13  1.80831600  1.000  S
ML07  1.33444000  1.000  P
ML07  2.34109900  1.000  S
#  2023   9 28  8 17  24.296935  -1.640060787  101.135647300   2.56392  0  0  0  0.01039340  3229
ML06  0.57093200  1.000  P
ML06  0.99998600  1.000  S
ML14  0.63918800  1.000  P
ML14  1.11720600  1.000  S
ML11  0.64956600  1.000  P
ML11  1.13789700  1.000  S
ML09  0.79334400  1.000  P
ML09  1.38787600  1.000  S
ML13  0.92781600  1.000  P
ML13  1.61150800  1.000  S
#  2023   9 28  8 19  49.299552  -1.638980319  101.139523200   2.96165  0  0  0  0.01971920  3230
ML06  0.63258500  1.000  P
ML06  1.12361200  1.000  S
ML04  0.71933500  1.000  P
ML04  1.23408600  1.000  S
ML14  0.72576200  1.000  P
ML14  1.19606100  1.000  S
ML11  0.75406400  1.000  P
ML11  1.32142000  1.000  S
ML02  0.77921400  1.000  P
ML02  1.36311400  1.000  S
ML09  0.86155800  1.000  P
ML09  1.45189400  1.000  S
ML13  0.96838900  1.000  P
ML13  1.64461600  1.000  S
ML05  1.34752400  1.000  P
ML05  2.35565300  1.000  S
ML07  1.35023600  1.000  P
ML07  2.36204200  1.000  S
#  2023   9 28  8 20  55.526452  -1.639791280  101.136048100   2.69176  0  0  0  0.02693350  3231
ML06  0.59305500  1.000  P
ML06  1.03747500  1.000  S
ML04  0.63496300  1.000  P
ML04  1.08845000  1.000  S
ML14  0.67356400  1.000  P
ML14  1.15448700  1.000  S
ML11  0.72964000  1.000  P
ML11  1.27313900  1.000  S
ML09  0.81665000  1.000  P
ML09  1.42333100  1.000  S
ML13  0.85203800  1.000  P
ML13  1.51037500  1.000  S
ML05  1.29237300  1.000  P
ML05  2.24587500  1.000  S
ML07  1.30194800  1.000  P
ML07  2.25569400  1.000  S
#  2023   9 28  8 26  42.881262  -1.640722965  101.145407500   2.37926  0  0  0  0.02808850  3232
ML06  0.58088500  1.000  P
ML06  1.05604700  1.000  S
ML04  0.64315600  1.000  P
ML04  1.17937300  1.000  S
ML14  0.67866300  1.000  P
ML14  1.19244600  1.000  S
ML11  0.69595500  1.000  P
ML11  1.24976900  1.000  S
ML02  0.80730200  1.000  P
ML02  1.39617700  1.000  S
ML09  0.81371100  1.000  P
ML09  1.40058700  1.000  S
ML03  0.92841500  1.000  P
ML03  1.62200000  1.000  S
ML13  0.93453800  1.000  P
ML13  1.67194500  1.000  S
ML10  1.01138900  1.000  P
ML10  1.79206300  1.000  S
ML05  1.23537200  1.000  P
ML05  2.20267300  1.000  S
ML07  1.23863000  1.000  P
ML07  2.19955600  1.000  S
ML01  1.27339000  1.000  P
ML01  2.22617500  1.000  S
ML12  1.39392300  1.000  P
ML12  2.47184200  1.000  S
#  2023   9 28  8 26  46.839589  -1.641595501  101.147213300   1.97443  0  0  0  0.04420550  3233
ML06  0.53580000  1.000  P
ML06  1.03529300  1.000  S
ML04  0.62605200  1.000  P
ML04  1.15666100  1.000  S
ML14  0.66699500  1.000  P
ML14  1.16367300  1.000  S
ML11  0.67584500  1.000  P
ML11  1.27307800  1.000  S
ML09  0.73820800  1.000  P
ML09  1.36988700  1.000  S
ML02  0.77777800  1.000  P
ML02  1.37540400  1.000  S
ML03  0.79751500  1.000  P
ML03  1.47531400  1.000  S
ML13  0.90668400  1.000  P
ML13  1.64444600  1.000  S
ML10  1.02094600  1.000  P
ML10  1.83838600  1.000  S
ML07  1.24943100  1.000  P
ML07  2.26113800  1.000  S
ML05  1.24982000  1.000  P
ML05  2.25014800  1.000  S
ML01  1.25344000  1.000  P
ML01  2.23838300  1.000  S
ML12  1.42237000  1.000  P
ML12  2.55717000  1.000  S
#  2023   9 28  8 27   2.100451  -1.642742022  101.144473800   2.46449  0  0  0  0.02937560  3234
ML06  0.62562500  1.000  P
ML06  1.12345400  1.000  S
ML04  0.66212400  1.000  P
ML04  1.17378900  1.000  S
ML14  0.74238200  1.000  P
ML14  1.24165300  1.000  S
ML11  0.75314300  1.000  P
ML11  1.31695200  1.000  S
ML02  0.79538800  1.000  P
ML02  1.43157300  1.000  S
ML09  0.84507100  1.000  P
ML09  1.51611600  1.000  S
ML03  0.94075500  1.000  P
ML03  1.63870000  1.000  S
ML13  0.98161000  1.000  P
ML13  1.75326300  1.000  S
ML10  1.07636200  1.000  P
ML10  1.89649500  1.000  S
ML01  1.21895000  1.000  P
ML01  2.14469400  1.000  S
ML05  1.25597000  1.000  P
ML05  2.19448000  1.000  S
ML07  1.28205300  1.000  P
ML07  2.24921300  1.000  S
ML12  1.42946900  1.000  P
ML12  2.48812600  1.000  S
#  2023   9 28  8 29  31.021827  -1.642869181  101.151292200   0.98722  0  0  0  0.03000130  3235
ML06  0.64126300  1.000  P
ML06  1.12706100  1.000  S
ML14  0.67900300  1.000  P
ML14  1.18618500  1.000  S
ML04  0.67910800  1.000  P
ML04  1.17769700  1.000  S
ML11  0.78100700  1.000  P
ML11  1.33609800  1.000  S
ML02  0.85750300  1.000  P
ML02  1.47622700  1.000  S
ML09  0.88167800  1.000  P
ML09  1.52694400  1.000  S
ML13  0.98142700  1.000  P
ML13  1.67905100  1.000  S
ML05  1.34423900  1.000  P
ML05  2.30672500  1.000  S
ML07  1.34547100  1.000  P
ML07  2.32362800  1.000  S
