#  2023   9 11  2 12  34.790987  -1.708159953  101.174693200   9.71591  0  0  0  0.14586200  3089
ML06  2.97083900  1.000  P
ML06  4.94883500  1.000  S
ML09  3.22631300  1.000  P
ML09  5.34659800  1.000  S
ML11  3.28259900  1.000  P
ML11  5.40586300  1.000  S
ML13  3.39335800  1.000  P
ML13  5.71710800  1.000  S
ML14  3.41695200  1.000  P
ML14  5.71255300  1.000  S
ML07  3.57048200  1.000  P
ML07  5.93673500  1.000  S
ML05  3.58397100  1.000  P
ML05  5.92698900  1.000  S
ML08  3.67042400  1.000  P
ML08  6.14641400  1.000  S
ML12  3.99846500  1.000  P
ML12  6.68303900  1.000  S
#  2023   9 11  2 17  42.962951  -1.708406685  101.194212600   0.02841  0  0  0  0.11345500  3090
ML06  2.73204100  1.000  P
ML06  4.76125400  1.000  S
ML09  3.22581200  1.000  P
ML09  5.58680800  1.000  S
ML11  3.24282100  1.000  P
ML11  5.54463600  1.000  S
ML08  3.35777700  1.000  P
ML08  5.91132000  1.000  S
ML05  3.69216200  1.000  P
ML05  6.38141700  1.000  S
ML07  3.81392400  1.000  P
ML07  6.65272600  1.000  S
ML12  3.99715900  1.000  P
ML12  6.91964800  1.000  S
#  2023   9 11  2 19  35.939195  -1.708498983  101.112391100   1.27841  0  0  0  0.07874940  3091
ML06  2.30710900  1.000  P
ML06  4.11199800  1.000  S
ML14  2.69311000  1.000  P
ML14  4.82304600  1.000  S
ML11  2.73097500  1.000  P
ML11  4.87726800  1.000  S
ML03  2.73595300  1.000  P
ML03  4.83130500  1.000  S
ML09  2.74783200  1.000  P
ML09  4.91029200  1.000  S
ML13  2.86541600  1.000  P
ML13  5.05806600  1.000  S
ML05  2.91381700  1.000  P
ML05  5.14932500  1.000  S
ML07  3.07034900  1.000  P
ML07  5.40463100  1.000  S
ML12  3.39889000  1.000  P
ML12  5.99386500  1.000  S
#  2023   9 11  2 35  19.249357  -1.708153854  101.180040900   9.48864  0  0  0  0.11326700  3092
ML06  2.98937800  1.000  P
ML06  4.93119500  1.000  S
ML14  3.02171000  1.000  P
ML14  4.97113600  1.000  S
ML11  3.37632600  1.000  P
ML11  5.58171300  1.000  S
ML09  3.38030500  1.000  P
ML09  5.60061100  1.000  S
ML08  3.41325000  1.000  P
ML08  5.67833500  1.000  S
ML07  3.57263400  1.000  P
ML07  5.96401800  1.000  S
ML05  3.57998300  1.000  P
ML05  5.97295600  1.000  S
ML12  4.02879700  1.000  P
ML12  6.75535400  1.000  S
#  2023   9 11  2 46  58.289493  -1.708390652  101.208116500   0.88068  0  0  0  0.07609180  3093
ML06  3.01377800  1.000  P
ML06  5.19041500  1.000  S
ML11  3.32431400  1.000  P
ML11  5.68443300  1.000  S
ML09  3.40315800  1.000  P
ML09  5.87679900  1.000  S
ML13  3.49723300  1.000  P
ML13  6.07672700  1.000  S
ML08  3.55980600  1.000  P
ML08  6.13625600  1.000  S
ML05  3.73767400  1.000  P
ML05  6.43672800  1.000  S
ML07  3.75985700  1.000  P
ML07  6.53222800  1.000  S
#  2023   9 13 15 18  58.211231  -1.639251837  101.137250700   2.72017  0  0  0  0.00999425  3094
ML06  0.58566300  1.000  P
ML06  1.02533000  1.000  S
ML11  0.74632700  1.000  P
ML11  1.27610000  1.000  S
ML09  0.79209900  1.000  P
ML09  1.40058900  1.000  S
ML13  0.93395600  1.000  P
ML13  1.58504100  1.000  S
ML07  1.29985500  1.000  P
ML07  2.26106700  1.000  S
#  2023   9 14 16  1   7.062317  -1.643013117  101.142602400   1.96733  0  0  0  0.02394820  3095
ML06  0.57793100  1.000  P
ML06  1.09011200  1.000  S
ML14  0.63249000  1.000  P
ML14  1.11672400  1.000  S
ML11  0.69211500  1.000  P
ML11  1.21131800  1.000  S
ML09  0.80425900  1.000  P
ML09  1.42348900  1.000  S
ML13  0.97719900  1.000  P
ML13  1.72392100  1.000  S
ML05  1.25955500  1.000  P
ML05  2.23894500  1.000  S
ML07  1.26324100  1.000  P
ML07  2.24015300  1.000  S
#  2023   9 14 16  1  16.519503  -1.640044937  101.150353400   2.39347  0  0  0  0.01527710  3096
ML06  0.55571300  1.000  P
ML06  1.10079300  1.000  S
ML11  0.69962100  1.000  P
ML11  1.24585900  1.000  S
ML14  0.76091000  1.000  P
ML14  1.30977400  1.000  S
ML09  0.77301200  1.000  P
ML09  1.47872300  1.000  S
ML07  1.26462500  1.000  P
ML07  2.28277000  1.000  S
#  2023   9 14 16  1  24.831252  -1.647198176  101.129237600   2.39347  0  0  0  0.02926170  3097
ML06  0.70373600  1.000  P
ML06  1.22047000  1.000  S
ML14  0.76924000  1.000  P
ML14  1.36875600  1.000  S
ML11  0.87915700  1.000  P
ML11  1.43660700  1.000  S
ML09  0.99095100  1.000  P
ML09  1.70256900  1.000  S
ML13  1.00672100  1.000  P
ML13  1.76513400  1.000  S
ML05  1.42818600  1.000  P
ML05  2.47638600  1.000  S
ML07  1.43171200  1.000  P
ML07  2.44351100  1.000  S
ML12  1.49957400  1.000  P
ML12  2.59907300  1.000  S
#  2023   9 14 16  3  59.181722  -1.639524931  101.133507600   3.67188  0  0  0  0.00384360  3098
ML06  0.83670000  1.000  P
ML06  1.41630800  1.000  S
ML14  0.86416600  1.000  P
ML14  1.47194300  1.000  S
ML11  0.93711600  1.000  P
ML11  1.60805500  1.000  S
ML09  1.28671700  1.000  P
ML09  2.18296900  1.000  S
#  2023   9 14 16  4   8.140922  -1.641133054  101.139391800   2.47869  0  0  0  0.03420740  3099
ML06  0.53842700  1.000  P
ML06  1.04917000  1.000  S
ML02  0.58156300  1.000  P
ML02  1.08398000  1.000  S
ML04  0.60344000  1.000  P
ML04  1.08845800  1.000  S
ML14  0.68338100  1.000  P
ML14  1.14049900  1.000  S
ML11  0.69749500  1.000  P
ML11  1.25534100  1.000  S
ML09  0.81863000  1.000  P
ML09  1.38032900  1.000  S
ML13  0.95035900  1.000  P
ML13  1.70633500  1.000  S
ML01  1.07802400  1.000  P
ML01  1.83307500  1.000  S
ML07  1.21037200  1.000  P
ML07  2.11145900  1.000  S
ML05  1.27940600  1.000  P
ML05  2.37831500  1.000  S
ML12  1.34551300  1.000  P
ML12  2.41979000  1.000  S
#  2023   9 14 16  7  36.655681  -1.644101649  101.131239700   3.30256  0  0  0  0.02400650  3100
ML14  0.78546600  1.000  P
ML14  1.34361300  1.000  S
ML11  0.80416200  1.000  P
ML11  1.38616200  1.000  S
ML04  0.80480600  1.000  P
ML04  1.37922700  1.000  S
ML06  0.80484100  1.000  P
ML06  1.39134300  1.000  S
ML09  1.01166600  1.000  P
ML09  1.72392300  1.000  S
ML13  1.10164700  1.000  P
ML13  1.86510100  1.000  S
#  2023   9 14 16  7  43.030211  -1.639923232  101.138454700   2.73438  0  0  0  0.02128190  3101
ML06  0.58525600  1.000  P
ML06  1.06742600  1.000  S
ML14  0.67843800  1.000  P
ML14  1.09493000  1.000  S
ML04  0.69600400  1.000  P
ML04  1.15348200  1.000  S
ML11  0.75208400  1.000  P
ML11  1.29044100  1.000  S
ML09  0.86051300  1.000  P
ML09  1.50708100  1.000  S
ML13  0.95266900  1.000  P
ML13  1.64811800  1.000  S
#  2023   9 14 16 10  57.361676  -1.637850862  101.126353300   1.77557  0  0  0  0.00675283  3102
ML06  0.48014800  1.000  P
ML06  0.99723700  1.000  S
ML09  0.72794600  1.000  P
ML09  1.29119800  1.000  S
ML11  0.74234300  1.000  P
ML11  1.28734900  1.000  S
ML07  1.21083000  1.000  P
ML07  2.22844600  1.000  S
#  2023   9 14 16 11  12.314833  -1.644025533  101.139461700   2.85511  0  0  0  0.00649107  3103
ML06  0.65431300  1.000  P
ML06  1.11668900  1.000  S
ML11  0.83968700  1.000  P
ML11  1.46659800  1.000  S
ML09  1.10531200  1.000  P
ML09  1.91541600  1.000  S
ML07  1.32789000  1.000  P
ML07  2.28476800  1.000  S
#  2023   9 14 16 11  17.975984  -1.643891428  101.139060500   3.32386  0  0  0  0.00352773  3104
ML06  0.75315700  1.000  P
ML06  1.29302300  1.000  S
ML11  0.92147100  1.000  P
ML11  1.56693500  1.000  S
ML09  0.99118700  1.000  P
ML09  1.69493000  1.000  S
ML07  1.59414000  1.000  P
ML07  2.72387900  1.000  S
#  2023   9 14 16 23  25.431857  -1.641907042  101.139025000   2.65270  0  0  0  0.01807910  3105
ML06  0.58258400  1.000  P
ML06  1.01413300  1.000  S
ML04  0.68109800  1.000  P
ML04  1.17031400  1.000  S
ML14  0.69832000  1.000  P
ML14  1.19946000  1.000  S
ML02  0.72096400  1.000  P
ML02  1.26537800  1.000  S
ML11  0.76711200  1.000  P
ML11  1.36439400  1.000  S
ML09  0.84931700  1.000  P
ML09  1.46989000  1.000  S
ML03  0.90352700  1.000  P
ML03  1.56303100  1.000  S
ML13  0.96746000  1.000  P
ML13  1.67223100  1.000  S
ML10  1.00279300  1.000  P
ML10  1.74360800  1.000  S
ML05  1.21136400  1.000  P
ML05  2.12895300  1.000  S
ML01  1.21713400  1.000  P
ML01  2.13889200  1.000  S
ML07  1.28982800  1.000  P
ML07  2.26786100  1.000  S
ML12  1.38381900  1.000  P
ML12  2.44746100  1.000  S
#  2023   9 14 16 23  33.898537  -1.644833623  101.138660400   2.91193  0  0  0  0.03629990  3106
ML06  0.66126200  1.000  P
ML06  1.17748600  1.000  S
ML04  0.76788300  1.000  P
ML04  1.29282700  1.000  S
ML14  0.82400100  1.000  P
ML14  1.27559200  1.000  S
ML11  0.87133800  1.000  P
ML11  1.55080000  1.000  S
ML02  0.87592300  1.000  P
ML02  1.48495800  1.000  S
ML03  0.96027700  1.000  P
ML03  1.69658200  1.000  S
ML09  0.96755600  1.000  P
ML09  1.61613400  1.000  S
ML10  1.06696700  1.000  P
ML10  1.94087900  1.000  S
ML13  1.08434600  1.000  P
ML13  1.81482300  1.000  S
ML01  1.22769500  1.000  P
ML01  2.05883400  1.000  S
ML07  1.45177800  1.000  P
ML07  2.46999300  1.000  S
ML12  1.52940700  1.000  P
ML12  2.68735100  1.000  S
#  2023   9 14 16 23  52.762674  -1.645436078  101.141401800   2.46449  0  0  0  0.02552850  3107
ML06  0.66425200  1.000  P
ML06  1.18564800  1.000  S
ML04  0.71051200  1.000  P
ML04  1.21094000  1.000  S
ML14  0.72106000  1.000  P
ML14  1.30454100  1.000  S
ML02  0.77246300  1.000  P
ML02  1.37304900  1.000  S
ML11  0.81762200  1.000  P
ML11  1.43521300  1.000  S
ML13  0.81940300  1.000  P
ML13  1.46172900  1.000  S
ML09  0.91059000  1.000  P
ML09  1.59369900  1.000  S
ML07  1.34335900  1.000  P
ML07  2.37313300  1.000  S
ML12  1.71479300  1.000  P
ML12  2.97111700  1.000  S
#  2023   9 14 16 23  59.078159  -1.643427243  101.132843300   3.13210  0  0  0  0.02816760  3108
ML06  0.74313800  1.000  P
ML06  1.29086300  1.000  S
ML02  0.75941500  1.000  P
ML02  1.33739100  1.000  S
ML04  0.76588500  1.000  P
ML04  1.33708200  1.000  S
ML14  0.84547500  1.000  P
ML14  1.32120200  1.000  S
ML11  0.95348800  1.000  P
ML11  1.58321400  1.000  S
ML09  0.96246800  1.000  P
ML09  1.59736700  1.000  S
ML13  1.06578500  1.000  P
ML13  1.82437900  1.000  S
ML07  1.46152500  1.000  P
ML07  2.52556300  1.000  S
ML12  1.69591900  1.000  P
ML12  2.92551500  1.000  S
#  2023   9 14 16 24   4.688811  -1.647459618  101.136323600   3.18892  0  0  0  0.02239130  3109
ML06  0.79043700  1.000  P
ML06  1.33504400  1.000  S
ML04  0.82997100  1.000  P
ML04  1.43645500  1.000  S
ML14  0.87658600  1.000  P
ML14  1.40197600  1.000  S
ML11  0.93473700  1.000  P
ML11  1.49694000  1.000  S
ML09  1.05135600  1.000  P
ML09  1.79219900  1.000  S
ML13  1.16548600  1.000  P
ML13  1.97874900  1.000  S
ML07  1.46940800  1.000  P
ML07  2.49607200  1.000  S
#  2023   9 14 16 24  13.521952  -1.640495913  101.137619700   2.40412  0  0  0  0.02622280  3110
ML06  0.52131300  1.000  P
ML06  0.93733500  1.000  S
ML04  0.58500200  1.000  P
ML04  1.01450100  1.000  S
ML14  0.63580100  1.000  P
ML14  1.15101900  1.000  S
ML02  0.65098700  1.000  P
ML02  1.12099300  1.000  S
ML11  0.68669100  1.000  P
ML11  1.25216200  1.000  S
ML09  0.76904600  1.000  P
ML09  1.35304400  1.000  S
ML03  0.79253000  1.000  P
ML03  1.41044200  1.000  S
ML13  0.89114300  1.000  P
ML13  1.53079500  1.000  S
ML10  1.00156200  1.000  P
ML10  1.72033900  1.000  S
ML07  1.19235800  1.000  P
ML07  2.10684400  1.000  S
ML01  1.21864200  1.000  P
ML01  2.11642800  1.000  S
ML05  1.21981200  1.000  P
ML05  2.12275400  1.000  S
ML12  1.36989600  1.000  P
ML12  2.42099200  1.000  S
#  2023   9 14 16 24  25.413854  -1.639215942  101.139356300   2.38281  0  0  0  0.02790380  3111
ML06  0.50220200  1.000  P
ML06  1.01958100  1.000  S
ML14  0.60324700  1.000  P
ML14  1.04390600  1.000  S
ML04  0.60970600  1.000  P
ML04  1.02716300  1.000  S
ML02  0.65203300  1.000  P
ML02  1.14318300  1.000  S
ML11  0.65890400  1.000  P
ML11  1.17095200  1.000  S
ML09  0.73870500  1.000  P
ML09  1.37664900  1.000  S
ML13  0.87694400  1.000  P
ML13  1.59280800  1.000  S
ML10  1.00963300  1.000  P
ML10  1.78442400  1.000  S
ML07  1.14720800  1.000  P
ML07  2.08942300  1.000  S
ML05  1.19734600  1.000  P
ML05  2.14707600  1.000  S
ML12  1.35068600  1.000  P
ML12  2.36083900  1.000  S
#  2023   9 14 16 24  54.752989  -1.644025821  101.139194400   2.68466  0  0  0  0.02000250  3112
ML06  0.61118100  1.000  P
ML06  1.04954700  1.000  S
ML14  0.76919700  1.000  P
ML14  1.30867600  1.000  S
ML11  0.85067900  1.000  P
ML11  1.46671500  1.000  S
ML09  0.89714200  1.000  P
ML09  1.52971100  1.000  S
ML07  1.30565100  1.000  P
ML07  2.26725600  1.000  S
#  2023   9 14 16 24  59.378260  -1.645036074  101.138059000   2.64915  0  0  0  0.05102800  3113
ML06  0.69696200  1.000  P
ML06  1.22767000  1.000  S
ML04  0.70147400  1.000  P
ML04  1.20561400  1.000  S
ML02  0.74807800  1.000  P
ML02  1.33206400  1.000  S
ML14  0.75419000  1.000  P
ML14  1.32722600  1.000  S
ML11  0.86482800  1.000  P
ML11  1.45763100  1.000  S
ML09  0.90101200  1.000  P
ML09  1.53883800  1.000  S
ML13  1.06081500  1.000  P
ML13  1.81846100  1.000  S
ML10  1.20032500  1.000  P
ML10  2.06229000  1.000  S
ML05  1.38980000  1.000  P
ML05  2.38232100  1.000  S
ML07  1.42354900  1.000  P
ML07  2.47389300  1.000  S
ML12  1.49222600  1.000  P
ML12  2.60789600  1.000  S
#  2023   9 14 16 25   6.482287  -1.642349933  101.133778000   2.12358  0  0  0  0.02823970  3114
ML04  0.51878400  1.000  P
ML04  0.89763400  1.000  S
ML06  0.52201400  1.000  P
ML06  0.90698800  1.000  S
ML14  0.64350800  1.000  P
ML14  1.07252300  1.000  S
ML02  0.67742900  1.000  P
ML02  1.25906000  1.000  S
ML11  0.68317500  1.000  P
ML11  1.22885000  1.000  S
ML09  0.76692900  1.000  P
ML09  1.41288700  1.000  S
ML10  0.90066600  1.000  P
ML10  1.56041900  1.000  S
ML13  0.91972700  1.000  P
ML13  1.67450000  1.000  S
ML05  1.11014600  1.000  P
ML05  1.93719400  1.000  S
ML07  1.21173400  1.000  P
ML07  2.15090000  1.000  S
ML12  1.46204300  1.000  P
ML12  2.54403600  1.000  S
#  2023   9 14 16 25  25.752631  -1.641395208  101.145809300   1.93892  0  0  0  0.01781530  3115
ML06  0.56894000  1.000  P
ML06  1.01293500  1.000  S
ML14  0.63411400  1.000  P
ML14  1.11744400  1.000  S
ML11  0.64979100  1.000  P
ML11  1.15593800  1.000  S
ML09  0.77486000  1.000  P
ML09  1.35022700  1.000  S
ML13  0.84662200  1.000  P
ML13  1.51000500  1.000  S
ML05  1.23056000  1.000  P
ML05  2.16830200  1.000  S
ML07  1.23707300  1.000  P
ML07  2.18684100  1.000  S
ML12  1.43316000  1.000  P
ML12  2.49290400  1.000  S
#  2023   9 14 16 25  28.452398  -1.641398527  101.142734400   2.62074  0  0  0  0.01383870  3116
ML06  0.56435600  1.000  P
ML06  1.00260200  1.000  S
ML14  0.71089000  1.000  P
ML14  1.23083900  1.000  S
ML11  0.73442900  1.000  P
ML11  1.29200000  1.000  S
ML09  0.85212400  1.000  P
ML09  1.47443400  1.000  S
ML07  1.29150800  1.000  P
ML07  2.25666500  1.000  S
#  2023   9 14 16 25  34.354244  -1.633347743  101.122672000   2.36506  0  0  0  0.00638011  3117
ML14  0.62936000  1.000  P
ML14  1.08340100  1.000  S
ML06  0.73973100  1.000  P
ML06  1.29835200  1.000  S
ML11  0.80884600  1.000  P
ML11  1.44000300  1.000  S
ML09  1.02567300  1.000  P
ML09  1.77687900  1.000  S
#  2023   9 14 16 25  42.667775  -1.642760148  101.127628600   0.00710  0  0  0  0.01375900  3118
ML06  0.51703900  1.000  P
ML06  0.90490600  1.000  S
ML14  0.55109300  1.000  P
ML14  0.94390800  1.000  S
ML11  0.75347400  1.000  P
ML11  1.31880500  1.000  S
ML09  0.83639800  1.000  P
ML09  1.44492600  1.000  S
#  2023   9 14 16 25  48.118899  -1.640226622  101.137820000   2.52486  0  0  0  0.00893234  3119
ML06  0.54141000  1.000  P
ML06  0.95092100  1.000  S
ML14  0.65159000  1.000  P
ML14  1.11425100  1.000  S
ML11  0.72255100  1.000  P
ML11  1.27343900  1.000  S
ML09  0.78893000  1.000  P
ML09  1.38058200  1.000  S
ML07  1.32361000  1.000  P
ML07  2.30505500  1.000  S
#  2023   9 14 16 25  56.819179  -1.637403277  101.136012100   2.34730  0  0  0  0.00820830  3120
ML06  0.50224700  1.000  P
ML06  0.88239300  1.000  S
ML14  0.54710400  1.000  P
ML14  0.96652700  1.000  S
ML11  0.64840400  1.000  P
ML11  1.11952600  1.000  S
ML09  0.71473400  1.000  P
ML09  1.25643200  1.000  S
#  2023   9 14 16 26   2.757131  -1.637800068  101.142362900   2.46094  0  0  0  0.02558440  3121
ML06  0.52597100  1.000  P
ML06  0.96047800  1.000  S
ML14  0.62014800  1.000  P
ML14  1.09343300  1.000  S
ML11  0.64047600  1.000  P
ML11  1.10416400  1.000  S
ML04  0.64525800  1.000  P
ML04  1.11669900  1.000  S
ML02  0.68695800  1.000  P
ML02  1.25075100  1.000  S
ML09  0.72129600  1.000  P
ML09  1.30573700  1.000  S
ML03  0.73640700  1.000  P
ML03  1.30925100  1.000  S
ML13  0.78813300  1.000  P
ML13  1.42984400  1.000  S
ML10  0.97645000  1.000  P
ML10  1.70238100  1.000  S
ML05  1.09570000  1.000  P
ML05  1.92024000  1.000  S
ML07  1.15386900  1.000  P
ML07  2.04632500  1.000  S
ML01  1.16855100  1.000  P
ML01  2.04366900  1.000  S
ML12  1.31805000  1.000  P
ML12  2.31680600  1.000  S
#  2023   9 14 16 26  23.649284  -1.638846213  101.139122000   2.64915  0  0  0  0.02688130  3122
ML06  0.56146100  1.000  P
ML06  1.01055200  1.000  S
ML14  0.64934200  1.000  P
ML14  1.12538800  1.000  S
ML02  0.67280200  1.000  P
ML02  1.21184600  1.000  S
ML11  0.68200300  1.000  P
ML11  1.23784300  1.000  S
ML04  0.68205700  1.000  P
ML04  1.11933900  1.000  S
ML09  0.77240600  1.000  P
ML09  1.34740500  1.000  S
ML03  0.84514700  1.000  P
ML03  1.48846700  1.000  S
ML13  0.89869900  1.000  P
ML13  1.53998000  1.000  S
ML10  0.97880800  1.000  P
ML10  1.73710500  1.000  S
ML05  1.12660400  1.000  P
ML05  1.97608000  1.000  S
ML01  1.14069200  1.000  P
ML01  1.97835800  1.000  S
ML07  1.18824600  1.000  P
ML07  2.04488600  1.000  S
ML12  1.35294000  1.000  P
ML12  2.36561600  1.000  S
#  2023   9 14 16 26  34.959325  -1.639176444  101.144804200   3.56534  0  0  0  0.03285230  3123
ML06  0.77458800  1.000  P
ML06  1.33410500  1.000  S
ML11  0.87786800  1.000  P
ML11  1.49222100  1.000  S
ML14  0.93889500  1.000  P
ML14  1.49059600  1.000  S
ML09  0.94988900  1.000  P
ML09  1.63211300  1.000  S
ML13  1.08879700  1.000  P
ML13  1.85345700  1.000  S
ML07  1.43554600  1.000  P
ML07  2.44694000  1.000  S
ML12  1.71414100  1.000  P
ML12  2.97209400  1.000  S
#  2023   9 14 16 26  48.501240  -1.645166859  101.141535200   2.32244  0  0  0  0.01672020  3124
ML06  0.70426500  1.000  P
ML06  1.21665600  1.000  S
ML14  0.73847200  1.000  P
ML14  1.24387000  1.000  S
ML11  0.76800900  1.000  P
ML11  1.37934500  1.000  S
ML09  0.90376300  1.000  P
ML09  1.57456200  1.000  S
ML13  1.05232200  1.000  P
ML13  1.85564400  1.000  S
ML05  1.24011200  1.000  P
ML05  2.19245900  1.000  S
ML07  1.27161000  1.000  P
ML07  2.16059900  1.000  S
ML12  1.49908400  1.000  P
ML12  2.61748500  1.000  S
#  2023   9 14 16 27   6.152468  -1.645976827  101.138995900   0.39062  0  0  0  0.02281350  3125
ML14  0.58082600  1.000  P
ML14  1.01338800  1.000  S
ML06  0.61453900  1.000  P
ML06  1.10532200  1.000  S
ML11  0.74075500  1.000  P
ML11  1.24451300  1.000  S
ML09  0.82611500  1.000  P
ML09  1.42725700  1.000  S
ML13  0.91303100  1.000  P
ML13  1.58155100  1.000  S
ML05  1.23581600  1.000  P
ML05  2.18081200  1.000  S
ML07  1.40855000  1.000  P
ML07  2.38340800  1.000  S
ML12  1.54076100  1.000  P
ML12  2.66114400  1.000  S
