#  2023   9 14 16 27  14.245647  -1.641265287  101.141531000   2.64915  0  0  0  0.01786100  3126
ML06  0.57065000  1.000  P
ML06  0.99459000  1.000  S
ML14  0.70572400  1.000  P
ML14  1.20774300  1.000  S
ML11  0.73293800  1.000  P
ML11  1.29448100  1.000  S
ML09  0.84656700  1.000  P
ML09  1.49509000  1.000  S
ML13  0.89874100  1.000  P
ML13  1.57426400  1.000  S
ML07  1.33299300  1.000  P
ML07  2.32874900  1.000  S
#  2023   9 14 16 27  17.692638  -1.637196236  101.140891700   2.31179  0  0  0  0.02631340  3127
ML06  0.45523300  1.000  P
ML06  0.87236100  1.000  S
ML14  0.57431300  1.000  P
ML14  0.99865200  1.000  S
ML04  0.59074800  1.000  P
ML04  1.00895700  1.000  S
ML11  0.60914800  1.000  P
ML11  1.04131400  1.000  S
ML02  0.64354000  1.000  P
ML02  1.14707800  1.000  S
ML09  0.70769900  1.000  P
ML09  1.28601100  1.000  S
ML03  0.82219700  1.000  P
ML03  1.49722700  1.000  S
ML13  0.83857800  1.000  P
ML13  1.47493200  1.000  S
ML10  0.92304300  1.000  P
ML10  1.64163200  1.000  S
ML01  1.09099800  1.000  P
ML01  1.95878600  1.000  S
ML07  1.12402400  1.000  P
ML07  1.98764300  1.000  S
ML05  1.13077200  1.000  P
ML05  1.95790300  1.000  S
ML12  1.26279500  1.000  P
ML12  2.21859800  1.000  S
#  2023   9 14 16 27  22.957502  -1.635210417  101.142193000   2.49290  0  0  0  0.01432940  3128
ML06  0.47809400  1.000  P
ML06  0.88346100  1.000  S
ML11  0.59232600  1.000  P
ML11  1.04899300  1.000  S
ML14  0.59526700  1.000  P
ML14  1.02018000  1.000  S
ML09  0.69701200  1.000  P
ML09  1.15484100  1.000  S
ML07  1.29886300  1.000  P
ML07  2.25557400  1.000  S
#  2023   9 14 16 27  30.119411  -1.638847793  101.137651400   2.63494  0  0  0  0.01796900  3129
ML06  0.56485800  1.000  P
ML06  0.97989700  1.000  S
ML14  0.69668600  1.000  P
ML14  1.10545200  1.000  S
ML11  0.71029700  1.000  P
ML11  1.09345500  1.000  S
ML09  0.75391800  1.000  P
ML09  1.38502000  1.000  S
ML07  1.18763800  1.000  P
ML07  2.02009600  1.000  S
#  2023   9 14 16 27  36.080619  -1.636292160  101.137113900   3.20312  0  0  0  0.01613700  3130
ML06  0.68397200  1.000  P
ML06  1.20813800  1.000  S
ML14  0.77747800  1.000  P
ML14  1.24421000  1.000  S
ML11  0.79525100  1.000  P
ML11  1.33683500  1.000  S
ML09  0.82253300  1.000  P
ML09  1.41674900  1.000  S
ML07  1.34879400  1.000  P
ML07  2.30925100  1.000  S
#  2023   9 14 16 28   5.156149  -1.638333752  101.146507900   2.20526  0  0  0  0.04312320  3131
ML06  0.55372500  1.000  P
ML06  0.99952200  1.000  S
ML11  0.61010100  1.000  P
ML11  1.06752600  1.000  S
ML14  0.65547400  1.000  P
ML14  1.12295900  1.000  S
ML04  0.66774300  1.000  P
ML04  1.15544700  1.000  S
ML09  0.73863600  1.000  P
ML09  1.34449500  1.000  S
ML02  0.86239600  1.000  P
ML02  1.55722500  1.000  S
ML13  0.90143500  1.000  P
ML13  1.59398000  1.000  S
ML10  1.09365900  1.000  P
ML10  1.90986200  1.000  S
ML05  1.14070800  1.000  P
ML05  2.01857500  1.000  S
ML07  1.19451900  1.000  P
ML07  2.11047600  1.000  S
ML01  1.23380000  1.000  P
ML01  2.16486300  1.000  S
ML12  1.38492700  1.000  P
ML12  2.39380500  1.000  S
#  2023   9 14 16 28  10.981918  -1.643010518  101.145008900   2.02415  0  0  0  0.03066070  3132
ML06  0.58157500  1.000  P
ML06  1.01531000  1.000  S
ML04  0.64294700  1.000  P
ML04  1.12259500  1.000  S
ML14  0.66647800  1.000  P
ML14  1.17073700  1.000  S
ML11  0.70039100  1.000  P
ML11  1.24606500  1.000  S
ML02  0.80260100  1.000  P
ML02  1.38147400  1.000  S
ML09  0.82610700  1.000  P
ML09  1.46217500  1.000  S
ML13  0.93365500  1.000  P
ML13  1.67168700  1.000  S
ML10  1.05872100  1.000  P
ML10  1.85333600  1.000  S
ML01  1.24482800  1.000  P
ML01  2.20641000  1.000  S
ML05  1.28264700  1.000  P
ML05  2.26962800  1.000  S
ML07  1.28690800  1.000  P
ML07  2.28463600  1.000  S
ML12  1.43362700  1.000  P
ML12  2.53598900  1.000  S
#  2023   9 14 16 28  18.735639  -1.638849516  101.136047100   2.74858  0  0  0  0.05387940  3133
ML06  0.60503100  1.000  P
ML06  1.05023600  1.000  S
ML04  0.65237300  1.000  P
ML04  1.09976600  1.000  S
ML11  0.73566500  1.000  P
ML11  1.28996000  1.000  S
ML14  0.75888900  1.000  P
ML14  1.34171200  1.000  S
ML09  0.79599400  1.000  P
ML09  1.40240000  1.000  S
ML13  0.90816900  1.000  P
ML13  1.57148400  1.000  S
ML10  1.02000700  1.000  P
ML10  1.74117900  1.000  S
ML05  1.23148800  1.000  P
ML05  2.17618200  1.000  S
ML07  1.26300700  1.000  P
ML07  2.20517600  1.000  S
ML12  1.59507000  1.000  P
ML12  2.78669600  1.000  S
#  2023   9 14 16 28  27.965281  -1.641047800  101.156036300   2.40057  0  0  0  0.01938160  3134
ML06  0.64795600  1.000  P
ML06  1.15767800  1.000  S
ML11  0.80231800  1.000  P
ML11  1.38233700  1.000  S
ML09  0.90780600  1.000  P
ML09  1.62898600  1.000  S
ML07  1.37575900  1.000  P
ML07  2.41763600  1.000  S
#  2023   9 14 16 28  40.484118  -1.640988130  101.149017500   1.54119  0  0  0  0.03114060  3135
ML06  0.51259400  1.000  P
ML06  0.94972000  1.000  S
ML04  0.56385900  1.000  P
ML04  1.11391200  1.000  S
ML11  0.64159900  1.000  P
ML11  1.23779800  1.000  S
ML14  0.64708500  1.000  P
ML14  1.10648100  1.000  S
ML09  0.77031500  1.000  P
ML09  1.36131400  1.000  S
ML13  0.84862700  1.000  P
ML13  1.50110000  1.000  S
ML10  1.06935600  1.000  P
ML10  1.86607100  1.000  S
ML07  1.19606900  1.000  P
ML07  2.16623800  1.000  S
ML05  1.23853100  1.000  P
ML05  2.20838700  1.000  S
ML12  1.39871400  1.000  P
ML12  2.54039500  1.000  S
#  2023   9 14 16 28  47.260618  -1.642620015  101.132842500   2.70597  0  0  0  0.03563660  3136
ML06  0.64430400  1.000  P
ML06  1.14769600  1.000  S
ML14  0.64982100  1.000  P
ML14  1.17212900  1.000  S
ML04  0.65976200  1.000  P
ML04  1.12492200  1.000  S
ML11  0.79960500  1.000  P
ML11  1.36126900  1.000  S
ML09  0.90292200  1.000  P
ML09  1.53786700  1.000  S
ML07  1.48370200  1.000  P
ML07  2.61756300  1.000  S
ML12  1.96841300  1.000  P
ML12  3.38801000  1.000  S
#  2023   9 14 16 28  51.578746  -1.643687102  101.141399900   2.43608  0  0  0  0.04207400  3137
ML06  0.67564900  1.000  P
ML06  1.12447400  1.000  S
ML14  0.69308200  1.000  P
ML14  1.23844200  1.000  S
ML04  0.70966800  1.000  P
ML04  1.20566600  1.000  S
ML11  0.76733100  1.000  P
ML11  1.38660900  1.000  S
ML09  0.86001700  1.000  P
ML09  1.54214200  1.000  S
ML13  0.97601000  1.000  P
ML13  1.71355500  1.000  S
ML10  1.05422700  1.000  P
ML10  1.81152400  1.000  S
ML05  1.25881700  1.000  P
ML05  2.16487200  1.000  S
ML07  1.34308300  1.000  P
ML07  2.32755400  1.000  S
ML12  1.60375300  1.000  P
ML12  2.79937100  1.000  S
#  2023   9 14 16 29  41.083231  -1.643704353  101.125356800   1.65483  0  0  0  0.01233540  3138
ML06  0.62326600  1.000  P
ML06  1.10122500  1.000  S
ML14  0.64602100  1.000  P
ML14  1.12095400  1.000  S
ML09  0.87388800  1.000  P
ML09  1.53216400  1.000  S
ML11  0.87846600  1.000  P
ML11  1.51409300  1.000  S
ML07  1.35244600  1.000  P
ML07  2.40178500  1.000  S
#  2023   9 14 16 29  46.228926  -1.640727002  101.141664100   2.45028  0  0  0  0.01432850  3139
ML06  0.51693100  1.000  P
ML06  0.96362500  1.000  S
ML14  0.66477700  1.000  P
ML14  1.13716700  1.000  S
ML11  0.69317800  1.000  P
ML11  1.23117600  1.000  S
ML09  0.77351900  1.000  P
ML09  1.40707900  1.000  S
ML07  1.23375100  1.000  P
ML07  2.15777700  1.000  S
#  2023   9 14 16 29  52.261738  -1.644492151  101.143406200   2.29403  0  0  0  0.01982990  3140
ML06  0.61748100  1.000  P
ML06  1.12011700  1.000  S
ML14  0.72077500  1.000  P
ML14  1.26068500  1.000  S
ML11  0.77006500  1.000  P
ML11  1.33136000  1.000  S
ML09  0.86358200  1.000  P
ML09  1.55478700  1.000  S
ML13  0.93960200  1.000  P
ML13  1.66901800  1.000  S
ML07  1.34280400  1.000  P
ML07  2.31879400  1.000  S
ML12  1.47608200  1.000  P
ML12  2.61776300  1.000  S
#  2023   9 14 16 32   8.396723  -1.642471792  101.145543100   2.33665  0  0  0  0.02443570  3141
ML06  0.64239400  1.000  P
ML06  1.16222600  1.000  S
ML11  0.70837700  1.000  P
ML11  1.28364400  1.000  S
ML14  0.71186100  1.000  P
ML14  1.23213000  1.000  S
ML04  0.71673100  1.000  P
ML04  1.18169300  1.000  S
ML02  0.79501100  1.000  P
ML02  1.41015800  1.000  S
ML09  0.86076000  1.000  P
ML09  1.54467700  1.000  S
ML03  0.94518500  1.000  P
ML03  1.64267300  1.000  S
ML13  0.97979600  1.000  P
ML13  1.78031400  1.000  S
ML10  1.04009600  1.000  P
ML10  1.82559500  1.000  S
ML07  1.27451300  1.000  P
ML07  2.24460600  1.000  S
ML05  1.31701400  1.000  P
ML05  2.26422400  1.000  S
ML01  1.33671400  1.000  P
ML01  2.31924200  1.000  S
ML12  1.43791000  1.000  P
ML12  2.55471400  1.000  S
#  2023   9 14 16 32  17.740158  -1.638440588  101.140993300   2.35085  0  0  0  0.03136330  3142
ML06  0.47480800  1.000  P
ML06  0.98055300  1.000  S
ML14  0.60433800  1.000  P
ML14  1.03428700  1.000  S
ML04  0.60536000  1.000  P
ML04  1.03987500  1.000  S
ML11  0.63610500  1.000  P
ML11  1.19477700  1.000  S
ML02  0.66698800  1.000  P
ML02  1.22511700  1.000  S
ML09  0.71438200  1.000  P
ML09  1.29730800  1.000  S
ML13  0.85666700  1.000  P
ML13  1.51023100  1.000  S
ML10  1.00897000  1.000  P
ML10  1.81114000  1.000  S
ML07  1.20019700  1.000  P
ML07  2.18705600  1.000  S
ML12  1.33373300  1.000  P
ML12  2.38240600  1.000  S
#  2023   9 14 16 32  30.693599  -1.639905190  101.155166100   1.24290  0  0  0  0.01763940  3143
ML11  0.65261000  1.000  P
ML11  1.09307700  1.000  S
ML06  0.67938900  1.000  P
ML06  1.17434400  1.000  S
ML14  0.73588300  1.000  P
ML14  1.28936100  1.000  S
ML09  0.82683400  1.000  P
ML09  1.47938200  1.000  S
ML13  0.92450800  1.000  P
ML13  1.61216400  1.000  S
ML07  1.34583700  1.000  P
ML07  2.29172600  1.000  S
ML12  1.50431100  1.000  P
ML12  2.62055700  1.000  S
#  2023   9 14 16 32  37.113818  -1.639047520  101.139590100   2.47159  0  0  0  0.02805490  3144
ML06  0.52161900  1.000  P
ML06  0.98393700  1.000  S
ML04  0.60866300  1.000  P
ML04  1.04257700  1.000  S
ML14  0.62240000  1.000  P
ML14  1.07629500  1.000  S
ML11  0.63461800  1.000  P
ML11  1.19251700  1.000  S
ML02  0.66272800  1.000  P
ML02  1.20169900  1.000  S
ML09  0.73194600  1.000  P
ML09  1.32059200  1.000  S
ML03  0.76368800  1.000  P
ML03  1.33934900  1.000  S
ML13  0.84847400  1.000  P
ML13  1.48136600  1.000  S
ML10  0.94669100  1.000  P
ML10  1.71651600  1.000  S
ML05  1.10360800  1.000  P
ML05  1.98147300  1.000  S
ML01  1.13377100  1.000  P
ML01  2.02952700  1.000  S
ML07  1.16212600  1.000  P
ML07  2.06099000  1.000  S
ML12  1.32071800  1.000  P
ML12  2.36034100  1.000  S
#  2023   9 14 16 32  59.114955  -1.643425086  101.134848700   2.96165  0  0  0  0.02985360  3145
ML14  0.77143900  1.000  P
ML14  1.34414800  1.000  S
ML06  0.77984300  1.000  P
ML06  1.29559000  1.000  S
ML11  0.88284000  1.000  P
ML11  1.48608900  1.000  S
ML13  0.89482200  1.000  P
ML13  1.54272600  1.000  S
ML09  0.95680300  1.000  P
ML09  1.63929500  1.000  S
ML05  1.19836500  1.000  P
ML05  2.05566900  1.000  S
ML07  1.31493800  1.000  P
ML07  2.25084000  1.000  S
ML12  1.60440200  1.000  P
ML12  2.74093000  1.000  S
#  2023   9 14 16 34  11.011336  -1.635936895  101.154693900   2.88352  0  0  0  0.02058680  3146
ML06  0.71501100  1.000  P
ML06  1.22629600  1.000  S
ML11  0.75578300  1.000  P
ML11  1.33511600  1.000  S
ML09  0.76443600  1.000  P
ML09  1.34505100  1.000  S
ML14  0.86438400  1.000  P
ML14  1.46611200  1.000  S
ML05  1.32693200  1.000  P
ML05  2.27617300  1.000  S
ML07  1.39069600  1.000  P
ML07  2.38499300  1.000  S
#  2023   9 14 16 34  40.432994  -1.640242323  101.154431100   2.23011  0  0  0  0.02235370  3147
ML06  0.59707700  1.000  P
ML06  1.01290600  1.000  S
ML11  0.64922400  1.000  P
ML11  1.28011800  1.000  S
ML14  0.78285300  1.000  P
ML14  1.43728700  1.000  S
ML09  0.87900200  1.000  P
ML09  1.53246400  1.000  S
ML07  1.32327000  1.000  P
ML07  2.35981100  1.000  S
#  2023   9 14 16 34  47.566675  -1.638708511  101.142063100   2.46449  0  0  0  0.02041180  3148
ML06  0.50112000  1.000  P
ML06  0.93680400  1.000  S
ML14  0.63983000  1.000  P
ML14  1.10381500  1.000  S
ML11  0.66250800  1.000  P
ML11  1.16128700  1.000  S
ML09  0.71427000  1.000  P
ML09  1.29866600  1.000  S
ML13  0.87277800  1.000  P
ML13  1.48889000  1.000  S
ML07  1.17145000  1.000  P
ML07  2.07760100  1.000  S
ML12  1.33177800  1.000  P
ML12  2.34275300  1.000  S
#  2023   9 14 16 34  58.790326  -1.638080766  101.162717600   2.99716  0  0  0  0.00907635  3149
ML06  0.88046200  1.000  P
ML06  1.37755100  1.000  S
ML11  0.93629000  1.000  P
ML11  1.62194000  1.000  S
ML09  1.09128900  1.000  P
ML09  1.87706700  1.000  S
ML07  1.45507700  1.000  P
ML07  2.43653000  1.000  S
#  2023   9 14 16 36  23.411720  -1.642155517  101.126892600   2.20171  0  0  0  0.01627750  3150
ML06  0.65803200  1.000  P
ML06  1.12777900  1.000  S
ML11  0.83547000  1.000  P
ML11  1.50512000  1.000  S
ML09  0.86236600  1.000  P
ML09  1.52562000  1.000  S
ML07  1.41398600  1.000  P
ML07  2.45292100  1.000  S
#  2023   9 14 16 38  46.270767  -1.639592554  101.133173500   2.52841  0  0  0  0.01520530  3151
ML06  0.58763900  1.000  P
ML06  1.02119800  1.000  S
ML11  0.79476900  1.000  P
ML11  1.30557300  1.000  S
ML09  0.79481900  1.000  P
ML09  1.41223200  1.000  S
ML07  1.17612100  1.000  P
ML07  2.01372200  1.000  S
#  2023   9 14 16 39  22.148088  -1.642408777  101.141599100   3.76421  0  0  0  0.01447780  3152
ML06  0.83573600  1.000  P
ML06  1.41940500  1.000  S
ML11  0.96652100  1.000  P
ML11  1.62624600  1.000  S
ML09  1.02136100  1.000  P
ML09  1.77227300  1.000  S
ML07  1.50915200  1.000  P
ML07  2.56056800  1.000  S
#  2023   9 14 16 40  10.579888  -1.645429279  101.147685300   2.09517  0  0  0  0.00920324  3153
ML06  0.64966800  1.000  P
ML06  1.18274000  1.000  S
ML14  0.76882100  1.000  P
ML14  1.33465700  1.000  S
ML11  0.77644200  1.000  P
ML11  1.35132900  1.000  S
ML09  0.91516800  1.000  P
ML09  1.63219500  1.000  S
ML07  1.35596100  1.000  P
ML07  2.40715200  1.000  S
#  2023   9 14 16 40  29.725071  -1.638585600  101.131233900   2.45028  0  0  0  0.01041490  3154
ML06  0.58664300  1.000  P
ML06  1.04703300  1.000  S
ML11  0.74777800  1.000  P
ML11  1.31187600  1.000  S
ML09  0.78763000  1.000  P
ML09  1.33261100  1.000  S
ML07  1.34871300  1.000  P
ML07  2.36157600  1.000  S
#  2023   9 14 16 42  57.515501  -1.639513574  101.144069300   3.08949  0  0  0  0.02297200  3155
ML06  0.67258300  1.000  P
ML06  1.16412200  1.000  S
ML14  0.76595100  1.000  P
ML14  1.26242300  1.000  S
ML11  0.79044500  1.000  P
ML11  1.36781500  1.000  S
ML04  0.80874800  1.000  P
ML04  1.19914100  1.000  S
ML09  0.86852800  1.000  P
ML09  1.51001600  1.000  S
ML02  0.86967700  1.000  P
ML02  1.50836400  1.000  S
ML03  0.96121400  1.000  P
ML03  1.67002300  1.000  S
ML13  1.00501800  1.000  P
ML13  1.72064800  1.000  S
ML10  1.12037900  1.000  P
ML10  1.86304700  1.000  S
ML05  1.23984700  1.000  P
ML05  2.07766900  1.000  S
ML01  1.26582500  1.000  P
ML01  2.13400500  1.000  S
ML07  1.29451600  1.000  P
ML07  2.16539600  1.000  S
ML12  1.45585400  1.000  P
ML12  2.51900700  1.000  S
#  2023   9 14 16 43  40.414810  -1.645296914  101.145679800   1.89631  0  0  0  0.02832260  3156
ML04  0.63944600  1.000  P
ML04  1.16573700  1.000  S
ML06  0.64989900  1.000  P
ML06  1.17021600  1.000  S
ML14  0.73469900  1.000  P
ML14  1.22879800  1.000  S
ML11  0.74831000  1.000  P
ML11  1.30523300  1.000  S
ML09  0.85379800  1.000  P
ML09  1.53132300  1.000  S
ML13  0.96194100  1.000  P
ML13  1.62732000  1.000  S
ML10  1.10248200  1.000  P
ML10  1.96382900  1.000  S
ML05  1.32480300  1.000  P
ML05  2.29697100  1.000  S
ML07  1.33402300  1.000  P
ML07  2.33335900  1.000  S
ML12  1.43926600  1.000  P
ML12  2.51144000  1.000  S
#  2023   9 14 16 48  22.347757  -1.639155559  101.132939100   2.46804  0  0  0  0.02512960  3157
ML04  0.56528700  1.000  P
ML04  0.99026000  1.000  S
ML06  0.57585600  1.000  P
ML06  1.01273600  1.000  S
ML14  0.60966100  1.000  P
ML14  1.12525400  1.000  S
ML11  0.64979800  1.000  P
ML11  1.15453000  1.000  S
ML09  0.75669900  1.000  P
ML09  1.33861400  1.000  S
ML13  0.85558700  1.000  P
ML13  1.53902900  1.000  S
ML10  1.05924800  1.000  P
ML10  1.90295600  1.000  S
ML07  1.17239400  1.000  P
ML07  2.07392700  1.000  S
ML05  1.18967700  1.000  P
ML05  2.10815700  1.000  S
ML12  1.30120500  1.000  P
ML12  2.29158600  1.000  S
#  2023   9 14 16 48  45.509039  -1.639185075  101.136782700   3.11080  0  0  0  0.01358320  3158
ML06  0.68387000  1.000  P
ML06  1.17309800  1.000  S
ML11  0.82715400  1.000  P
ML11  1.37159500  1.000  S
ML09  0.84894700  1.000  P
ML09  1.50591100  1.000  S
ML07  1.45512600  1.000  P
ML07  2.49815900  1.000  S
#  2023   9 14 16 51  31.983447  -1.638348384  101.164054800   0.49716  0  0  0  0.02252440  3159
ML06  0.68223700  1.000  P
ML06  1.18414800  1.000  S
ML11  0.77411000  1.000  P
ML11  1.32882400  1.000  S
ML09  1.00664200  1.000  P
ML09  1.76719800  1.000  S
ML07  1.47793300  1.000  P
ML07  2.60321500  1.000  S
#  2023   9 14 16 56   2.080378  -1.642399820  101.149888000   2.88352  0  0  0  0.01589660  3160
ML06  0.67559200  1.000  P
ML06  1.17524600  1.000  S
ML11  0.83904300  1.000  P
ML11  1.42275900  1.000  S
ML09  0.94072200  1.000  P
ML09  1.65277000  1.000  S
ML07  1.41147300  1.000  P
ML07  2.48269900  1.000  S
#  2023   9 14 17  0  13.881972  -1.643109354  101.146914100   2.10582  0  0  0  0.01484810  3161
ML06  0.66113000  1.000  P
ML06  1.17830800  1.000  S
ML04  0.69371600  1.000  P
ML04  1.23819500  1.000  S
ML11  0.70922800  1.000  P
ML11  1.25102600  1.000  S
ML14  0.70945100  1.000  P
ML14  1.22495500  1.000  S
ML09  0.86982300  1.000  P
ML09  1.54049000  1.000  S
ML13  0.92210000  1.000  P
ML13  1.63579600  1.000  S
ML05  1.27184500  1.000  P
ML05  2.20794600  1.000  S
ML07  1.30947600  1.000  P
ML07  2.28240300  1.000  S
ML12  1.47460200  1.000  P
ML12  2.61511500  1.000  S
#  2023   9 14 17 16   3.193791  -1.632625411  101.137678200   0.39418  0  0  0  0.00788003  3162
ML06  0.14618700  1.000  P
ML06  0.28772300  1.000  S
ML14  0.35007900  1.000  P
ML14  0.56219200  1.000  S
ML11  0.35103400  1.000  P
ML11  0.60365700  1.000  S
ML09  0.44204400  1.000  P
ML09  0.75128900  1.000  S
ML07  0.60845200  1.000  P
ML07  1.07067500  1.000  S
#  2023   9 14 17 16  12.594621  -1.642340864  101.142200600   2.77699  0  0  0  0.01470770  3163
ML06  0.61174300  1.000  P
ML06  1.06236300  1.000  S
ML14  0.74265000  1.000  P
ML14  1.31111600  1.000  S
ML11  0.79126400  1.000  P
ML11  1.35944700  1.000  S
ML09  0.88845700  1.000  P
ML09  1.46780200  1.000  S
ML07  1.32881400  1.000  P
ML07  2.31979200  1.000  S
#  2023   9 14 17 16  20.608754  -1.643698043  101.131239300   2.19460  0  0  0  0.01808200  3164
ML04  0.51388500  1.000  P
ML04  0.96078000  1.000  S
ML06  0.58602300  1.000  P
ML06  1.01076600  1.000  S
ML14  0.66463400  1.000  P
ML14  1.14567700  1.000  S
ML11  0.73521200  1.000  P
ML11  1.28273700  1.000  S
ML09  0.86202200  1.000  P
ML09  1.50459600  1.000  S
ML07  1.24937600  1.000  P
ML07  2.20783300  1.000  S
