#  2023   9 28  8 33  52.383476  -1.638611892  101.138085600   2.87997  0  0  0  0.03974300  3236
ML06  0.61300700  1.000  P
ML06  1.07849100  1.000  S
ML14  0.65944300  1.000  P
ML14  1.13271400  1.000  S
ML04  0.70249600  1.000  P
ML04  1.19047200  1.000  S
ML11  0.75155700  1.000  P
ML11  1.27232400  1.000  S
ML09  0.82503500  1.000  P
ML09  1.43703900  1.000  S
ML13  0.92519400  1.000  P
ML13  1.60658700  1.000  S
ML05  1.41009500  1.000  P
ML05  2.43777500  1.000  S
ML07  1.42494600  1.000  P
ML07  2.46693100  1.000  S
ML12  1.46059800  1.000  P
ML12  2.53595400  1.000  S
#  2023   9 28  8 34  52.701038  -1.642073087  101.140997100   2.45028  0  0  0  0.04005200  3237
ML06  0.57676000  1.000  P
ML06  1.01959300  1.000  S
ML04  0.65338200  1.000  P
ML04  1.16045000  1.000  S
ML14  0.70758100  1.000  P
ML14  1.19702900  1.000  S
ML02  0.71773900  1.000  P
ML02  1.25254100  1.000  S
ML11  0.72985100  1.000  P
ML11  1.28321900  1.000  S
ML09  0.82947600  1.000  P
ML09  1.40726500  1.000  S
ML13  0.93802300  1.000  P
ML13  1.59211000  1.000  S
ML03  0.95542200  1.000  P
ML03  1.62968900  1.000  S
ML10  1.10067800  1.000  P
ML10  1.90791000  1.000  S
ML05  1.19239800  1.000  P
ML05  2.07595100  1.000  S
ML01  1.30014100  1.000  P
ML01  2.27498300  1.000  S
ML07  1.30748800  1.000  P
ML07  2.28798700  1.000  S
ML12  1.40192100  1.000  P
ML12  2.43917500  1.000  S
#  2023   9 28  8 35  23.664381  -1.640024533  101.138087100   2.81605  0  0  0  0.03263150  3238
ML06  0.61321800  1.000  P
ML06  1.05266400  1.000  S
ML04  0.69108400  1.000  P
ML04  1.19591500  1.000  S
ML02  0.71737900  1.000  P
ML02  1.23846600  1.000  S
ML14  0.72135500  1.000  P
ML14  1.23130400  1.000  S
ML11  0.74309700  1.000  P
ML11  1.30481300  1.000  S
ML09  0.83445900  1.000  P
ML09  1.43806300  1.000  S
ML13  0.91165000  1.000  P
ML13  1.55865500  1.000  S
ML03  0.92412000  1.000  P
ML03  1.60178900  1.000  S
ML10  0.95535100  1.000  P
ML10  1.64838600  1.000  S
ML07  1.23583000  1.000  P
ML07  2.11535100  1.000  S
ML05  1.29994400  1.000  P
ML05  2.24892600  1.000  S
ML01  1.32299800  1.000  P
ML01  2.30823700  1.000  S
ML12  1.43913800  1.000  P
ML12  2.46391700  1.000  S
#  2023   9 28  8 35  37.040384  -1.638738516  101.145438800   1.97798  0  0  0  0.01459770  3239
ML06  0.49700800  1.000  P
ML06  0.89372100  1.000  S
ML14  0.58423800  1.000  P
ML14  1.03503300  1.000  S
ML11  0.58537500  1.000  P
ML11  1.02429800  1.000  S
ML04  0.61041500  1.000  P
ML04  1.06259000  1.000  S
ML09  0.71370200  1.000  P
ML09  1.28126000  1.000  S
ML13  0.82757400  1.000  P
ML13  1.47170900  1.000  S
ML05  1.12916800  1.000  P
ML05  1.98254200  1.000  S
ML07  1.18843300  1.000  P
ML07  2.08676700  1.000  S
ML12  1.35440300  1.000  P
ML12  2.36874600  1.000  S
#  2023   9 28  8 36   6.266300  -1.642819158  101.135316000   2.58523  0  0  0  0.00834873  3240
ML06  0.60333800  1.000  P
ML06  1.04709600  1.000  S
ML04  0.64070800  1.000  P
ML04  1.10130200  1.000  S
ML14  0.69547800  1.000  P
ML14  1.22328600  1.000  S
ML09  0.85911000  1.000  P
ML09  1.51274200  1.000  S
ML13  0.86839000  1.000  P
ML13  1.49773100  1.000  S
ML05  1.31226100  1.000  P
ML05  2.27938000  1.000  S
#  2023   9 28  8 36   9.261727  -1.641665148  101.145007400   2.20881  0  0  0  0.03889330  3241
ML06  0.62212000  1.000  P
ML06  1.09506400  1.000  S
ML14  0.65237800  1.000  P
ML14  1.15416100  1.000  S
ML04  0.66454000  1.000  P
ML04  1.17540400  1.000  S
ML11  0.73649600  1.000  P
ML11  1.25951900  1.000  S
ML09  0.81044400  1.000  P
ML09  1.42047400  1.000  S
ML02  0.81109100  1.000  P
ML02  1.42377300  1.000  S
ML03  0.92868100  1.000  P
ML03  1.63475600  1.000  S
ML13  0.97905300  1.000  P
ML13  1.71096400  1.000  S
ML10  1.05910200  1.000  P
ML10  1.87276000  1.000  S
ML05  1.21641300  1.000  P
ML05  2.12791300  1.000  S
ML01  1.27144100  1.000  P
ML01  2.20598100  1.000  S
ML07  1.31072000  1.000  P
ML07  2.26797300  1.000  S
ML12  1.47073200  1.000  P
ML12  2.57325300  1.000  S
#  2023   9 28  8 36  18.695253  -1.643748370  101.146948200   2.31534  0  0  0  0.05971850  3242
ML06  0.59423900  1.000  P
ML06  1.10355400  1.000  S
ML04  0.65825700  1.000  P
ML04  1.20976900  1.000  S
ML14  0.66424800  1.000  P
ML14  1.20493700  1.000  S
ML11  0.74460100  1.000  P
ML11  1.34559300  1.000  S
ML09  0.82918600  1.000  P
ML09  1.50117900  1.000  S
ML02  0.84235200  1.000  P
ML02  1.48803400  1.000  S
ML13  0.97726900  1.000  P
ML13  1.76081500  1.000  S
ML03  0.98780500  1.000  P
ML03  1.75830300  1.000  S
ML10  0.99155300  1.000  P
ML10  1.79887400  1.000  S
ML05  1.31580800  1.000  P
ML05  2.28750600  1.000  S
ML07  1.32824200  1.000  P
ML07  2.33732800  1.000  S
ML01  1.33376700  1.000  P
ML01  2.32781800  1.000  S
ML12  1.49485600  1.000  P
ML12  2.64927300  1.000  S
#  2023   9 28  8 36  33.712682  -1.641407162  101.134712900   3.00426  0  0  0  0.01378180  3243
ML06  0.69473100  1.000  P
ML06  1.19011200  1.000  S
ML14  0.75838400  1.000  P
ML14  1.27149500  1.000  S
ML11  0.83220900  1.000  P
ML11  1.46612400  1.000  S
ML09  0.88085400  1.000  P
ML09  1.55192100  1.000  S
ML13  1.01274800  1.000  P
ML13  1.73038700  1.000  S
ML07  1.39306100  1.000  P
ML07  2.39805900  1.000  S
#  2023   9 28  8 36  39.875258  -1.645029432  101.144208900   2.03835  0  0  0  0.03958900  3244
ML04  0.58376100  1.000  P
ML04  1.05888100  1.000  S
ML06  0.60544700  1.000  P
ML06  1.09546400  1.000  S
ML14  0.70414100  1.000  P
ML14  1.23378900  1.000  S
ML11  0.75549800  1.000  P
ML11  1.32039000  1.000  S
ML02  0.75938600  1.000  P
ML02  1.36797100  1.000  S
ML09  0.86379400  1.000  P
ML09  1.49986800  1.000  S
ML13  0.98481500  1.000  P
ML13  1.74514900  1.000  S
ML05  1.26919300  1.000  P
ML05  2.22902100  1.000  S
ML07  1.33712500  1.000  P
ML07  2.35881600  1.000  S
ML12  1.59315600  1.000  P
ML12  2.76952900  1.000  S
#  2023   9 28  8 37  37.740103  -1.650945558  101.147423800   0.37642  0  0  0  0.02522550  3245
ML06  0.76585900  1.000  P
ML06  1.33176600  1.000  S
ML14  0.77433200  1.000  P
ML14  1.32977500  1.000  S
ML02  0.84112000  1.000  P
ML02  1.46726400  1.000  S
ML11  0.86542700  1.000  P
ML11  1.48769500  1.000  S
ML09  1.03220200  1.000  P
ML09  1.77856200  1.000  S
ML13  1.13723900  1.000  P
ML13  1.93832200  1.000  S
ML07  1.56717100  1.000  P
ML07  2.69595900  1.000  S
#  2023   9 28  8 37  40.766601  -1.640861828  101.141396900   2.66335  0  0  0  0.02186050  3246
ML06  0.58076200  1.000  P
ML06  1.03330300  1.000  S
ML04  0.65719700  1.000  P
ML04  1.13621200  1.000  S
ML14  0.70605100  1.000  P
ML14  1.20452200  1.000  S
ML11  0.72259200  1.000  P
ML11  1.28855600  1.000  S
ML02  0.75427700  1.000  P
ML02  1.34985000  1.000  S
ML09  0.82530300  1.000  P
ML09  1.41663800  1.000  S
ML03  0.88737900  1.000  P
ML03  1.56261100  1.000  S
ML13  0.94453900  1.000  P
ML13  1.65887100  1.000  S
ML10  1.00468100  1.000  P
ML10  1.73987600  1.000  S
ML05  1.18718400  1.000  P
ML05  2.06990100  1.000  S
ML01  1.23635900  1.000  P
ML01  2.13611300  1.000  S
ML07  1.25172100  1.000  P
ML07  2.19725100  1.000  S
ML12  1.40618600  1.000  P
ML12  2.45097400  1.000  S
#  2023   9 28  8 38   9.712571  -1.641264998  101.141798400   2.80540  0  0  0  0.01927990  3247
ML06  0.62212900  1.000  P
ML06  1.07481400  1.000  S
ML04  0.64926700  1.000  P
ML04  1.11057400  1.000  S
ML14  0.73380800  1.000  P
ML14  1.25185000  1.000  S
ML11  0.77053600  1.000  P
ML11  1.33472000  1.000  S
ML02  0.77893200  1.000  P
ML02  1.37757300  1.000  S
ML09  0.85607400  1.000  P
ML09  1.47312900  1.000  S
ML03  0.94344300  1.000  P
ML03  1.68555900  1.000  S
ML13  0.98977900  1.000  P
ML13  1.71910900  1.000  S
ML10  1.05421600  1.000  P
ML10  1.84925600  1.000  S
ML05  1.20567600  1.000  P
ML05  2.09915100  1.000  S
ML07  1.27048100  1.000  P
ML07  2.20135000  1.000  S
ML01  1.27617800  1.000  P
ML01  2.20410700  1.000  S
ML12  1.42030900  1.000  P
ML12  2.43993500  1.000  S
#  2023   9 28  8 39   3.324868  -1.640048838  101.146743700   2.37926  0  0  0  0.04292000  3248
ML06  0.58822600  1.000  P
ML06  1.05674700  1.000  S
ML14  0.61556700  1.000  P
ML14  1.10892100  1.000  S
ML11  0.68650600  1.000  P
ML11  1.21024200  1.000  S
ML04  0.68923900  1.000  P
ML04  1.21349100  1.000  S
ML09  0.76716700  1.000  P
ML09  1.35391700  1.000  S
ML02  0.81915900  1.000  P
ML02  1.41708900  1.000  S
ML13  0.87470300  1.000  P
ML13  1.53577500  1.000  S
ML10  0.91090800  1.000  P
ML10  1.63275000  1.000  S
ML03  0.92545000  1.000  P
ML03  1.66359100  1.000  S
ML05  1.20487900  1.000  P
ML05  2.12595100  1.000  S
ML07  1.21279700  1.000  P
ML07  2.15964000  1.000  S
ML01  1.26170300  1.000  P
ML01  2.19282900  1.000  S
ML12  1.39402500  1.000  P
ML12  2.47034600  1.000  S
#  2023   9 28  8 39  16.254984  -1.640192882  101.137920200   2.70597  0  0  0  0.03119520  3249
ML06  0.60333800  1.000  P
ML06  1.09369300  1.000  S
ML14  0.67151300  1.000  P
ML14  1.17337800  1.000  S
ML04  0.67168800  1.000  P
ML04  1.21885900  1.000  S
ML02  0.68762400  1.000  P
ML02  1.22251900  1.000  S
ML11  0.72552100  1.000  P
ML11  1.28436100  1.000  S
ML09  0.81844700  1.000  P
ML09  1.44766000  1.000  S
ML13  0.94154200  1.000  P
ML13  1.64521600  1.000  S
ML05  1.27654400  1.000  P
ML05  2.25702500  1.000  S
ML07  1.29920000  1.000  P
ML07  2.30008300  1.000  S
ML12  1.39147400  1.000  P
ML12  2.44006700  1.000  S
#  2023   9 28  8 39  29.691031  -1.644126258  101.139629000   2.24787  0  0  0  0.02277280  3250
ML04  0.61653100  1.000  P
ML04  1.09410200  1.000  S
ML14  0.63319700  1.000  P
ML14  1.13420400  1.000  S
ML06  0.64116000  1.000  P
ML06  1.13786600  1.000  S
ML11  0.76136900  1.000  P
ML11  1.33244500  1.000  S
ML09  0.85450500  1.000  P
ML09  1.50055600  1.000  S
ML02  0.88053300  1.000  P
ML02  1.54674100  1.000  S
ML13  0.89653700  1.000  P
ML13  1.58765900  1.000  S
ML05  1.19754600  1.000  P
ML05  2.10268200  1.000  S
ML07  1.29517300  1.000  P
ML07  2.27412200  1.000  S
#  2023   9 28  8 40  15.941136  -1.642037905  101.142434300   2.48224  0  0  0  0.02487310  3251
ML06  0.61622400  1.000  P
ML06  1.11510600  1.000  S
ML04  0.67256100  1.000  P
ML04  1.20120200  1.000  S
ML14  0.71722700  1.000  P
ML14  1.22278700  1.000  S
ML11  0.73828600  1.000  P
ML11  1.28096900  1.000  S
ML02  0.75969400  1.000  P
ML02  1.30216000  1.000  S
ML09  0.82897700  1.000  P
ML09  1.47724900  1.000  S
ML03  0.88779400  1.000  P
ML03  1.57822200  1.000  S
ML13  0.94105900  1.000  P
ML13  1.67193900  1.000  S
ML10  1.08251900  1.000  P
ML10  1.87323900  1.000  S
ML01  1.17163400  1.000  P
ML01  2.02815200  1.000  S
ML05  1.20425000  1.000  P
ML05  2.08770900  1.000  S
ML07  1.25832500  1.000  P
ML07  2.22474400  1.000  S
ML12  1.43250000  1.000  P
ML12  2.50239500  1.000  S
#  2023   9 28  8 40  38.481508  -1.642472370  101.145008300   2.40767  0  0  0  0.03017380  3252
ML06  0.63885300  1.000  P
ML06  1.10734800  1.000  S
ML04  0.70052200  1.000  P
ML04  1.22278400  1.000  S
ML14  0.72401300  1.000  P
ML14  1.24447500  1.000  S
ML11  0.75514100  1.000  P
ML11  1.29777400  1.000  S
ML02  0.79644600  1.000  P
ML02  1.41344300  1.000  S
ML09  0.84572800  1.000  P
ML09  1.49418100  1.000  S
ML13  0.97670200  1.000  P
ML13  1.70273800  1.000  S
ML10  1.13791500  1.000  P
ML10  1.99154900  1.000  S
ML07  1.27300900  1.000  P
ML07  2.23468600  1.000  S
ML05  1.27739200  1.000  P
ML05  2.21571900  1.000  S
ML01  1.36262300  1.000  P
ML01  2.34459900  1.000  S
ML12  1.43680400  1.000  P
ML12  2.49079000  1.000  S
#  2023   9 28  8 40  41.382031  -1.643554152  101.139929200   2.56392  0  0  0  0.03635090  3253
ML06  0.66355500  1.000  P
ML06  1.15970600  1.000  S
ML04  0.66788800  1.000  P
ML04  1.17811900  1.000  S
ML02  0.74150000  1.000  P
ML02  1.30063600  1.000  S
ML14  0.76076800  1.000  P
ML14  1.26731800  1.000  S
ML11  0.79347900  1.000  P
ML11  1.37587300  1.000  S
ML09  0.88896100  1.000  P
ML09  1.53562900  1.000  S
ML03  0.96663200  1.000  P
ML03  1.68219700  1.000  S
ML13  1.02044600  1.000  P
ML13  1.74590300  1.000  S
ML10  1.05708600  1.000  P
ML10  1.83342700  1.000  S
ML07  1.28028800  1.000  P
ML07  2.23191800  1.000  S
ML05  1.33859200  1.000  P
ML05  2.28449600  1.000  S
ML01  1.36890000  1.000  P
ML01  2.38199600  1.000  S
ML12  1.44015500  1.000  P
ML12  2.50244100  1.000  S
#  2023   9 28  8 41   2.164666  -1.646240555  101.143942800   2.13778  0  0  0  0.02226840  3254
ML04  0.68333300  1.000  P
ML04  1.20421700  1.000  S
ML06  0.71121700  1.000  P
ML06  1.26380900  1.000  S
ML14  0.78184200  1.000  P
ML14  1.36211000  1.000  S
ML02  0.78633900  1.000  P
ML02  1.39273600  1.000  S
ML11  0.80878500  1.000  P
ML11  1.38997300  1.000  S
ML09  0.90608600  1.000  P
ML09  1.60105200  1.000  S
ML13  1.07438600  1.000  P
ML13  1.87912500  1.000  S
ML05  1.33043700  1.000  P
ML05  2.34519400  1.000  S
ML07  1.37081300  1.000  P
ML07  2.36931500  1.000  S
ML12  1.55807900  1.000  P
ML12  2.71713900  1.000  S
#  2023   9 28  8 41  20.882024  -1.638965898  101.152892300   2.70597  0  0  0  0.01672010  3255
ML06  0.65055000  1.000  P
ML06  1.12248900  1.000  S
ML14  0.71600000  1.000  P
ML14  1.25417800  1.000  S
ML11  0.76789400  1.000  P
ML11  1.32916300  1.000  S
ML09  0.87642000  1.000  P
ML09  1.54347100  1.000  S
ML05  1.32795000  1.000  P
ML05  2.30656500  1.000  S
#  2023   9 28  8 41  55.053530  -1.640324542  101.140594200   2.47869  0  0  0  0.02481510  3256
ML06  0.53945300  1.000  P
ML06  0.98700100  1.000  S
ML04  0.63612900  1.000  P
ML04  1.13423700  1.000  S
ML14  0.64714200  1.000  P
ML14  1.12575300  1.000  S
ML02  0.66349200  1.000  P
ML02  1.19936500  1.000  S
ML11  0.67798000  1.000  P
ML11  1.23760800  1.000  S
ML09  0.76671800  1.000  P
ML09  1.34354900  1.000  S
ML13  0.87837400  1.000  P
ML13  1.53581800  1.000  S
ML10  0.97556500  1.000  P
ML10  1.71103100  1.000  S
ML05  1.13972600  1.000  P
ML05  1.98702800  1.000  S
ML07  1.19815600  1.000  P
ML07  2.10609600  1.000  S
ML01  1.24126200  1.000  P
ML01  2.17740400  1.000  S
ML12  1.34627700  1.000  P
ML12  2.36851300  1.000  S
#  2023   9 28  8 42  14.572999  -1.638574406  101.141661800   3.50142  0  0  0  0.03524510  3257
ML06  0.75859800  1.000  P
ML06  1.30248100  1.000  S
ML14  0.83813300  1.000  P
ML14  1.40624800  1.000  S
ML11  0.84751100  1.000  P
ML11  1.46245300  1.000  S
ML09  0.89345600  1.000  P
ML09  1.55182900  1.000  S
ML13  1.05165800  1.000  P
ML13  1.79462000  1.000  S
ML05  1.36975800  1.000  P
ML05  2.36087700  1.000  S
ML07  1.39358200  1.000  P
ML07  2.39800000  1.000  S
#  2023   9 28  8 42  19.552989  -1.644227263  101.139528800   2.96165  0  0  0  0.03506110  3258
ML06  0.67898800  1.000  P
ML06  1.14832200  1.000  S
ML14  0.77730100  1.000  P
ML14  1.25191800  1.000  S
ML02  0.82276600  1.000  P
ML02  1.43126600  1.000  S
ML11  0.88696400  1.000  P
ML11  1.52431800  1.000  S
ML09  0.91241700  1.000  P
ML09  1.61620200  1.000  S
ML13  1.02543400  1.000  P
ML13  1.79659600  1.000  S
ML07  1.35273800  1.000  P
ML07  2.31446900  1.000  S
ML05  1.36540700  1.000  P
ML05  2.30298300  1.000  S
ML12  1.60590500  1.000  P
ML12  2.77399700  1.000  S
#  2023   9 28  8 43  54.732379  -1.641936964  101.142467600   2.89062  0  0  0  0.03089540  3259
ML06  0.63795600  1.000  P
ML06  1.10467600  1.000  S
ML04  0.75873300  1.000  P
ML04  1.30009200  1.000  S
ML14  0.77699400  1.000  P
ML14  1.30528400  1.000  S
ML11  0.77879400  1.000  P
ML11  1.35695000  1.000  S
ML09  0.89742400  1.000  P
ML09  1.57576100  1.000  S
ML13  1.03901000  1.000  P
ML13  1.80388400  1.000  S
ML10  1.18599400  1.000  P
ML10  2.06432800  1.000  S
ML07  1.38437400  1.000  P
ML07  2.41135500  1.000  S
ML12  1.73298400  1.000  P
ML12  2.92997800  1.000  S
#  2023   9 28  8 44  16.908736  -1.647784466  101.146952500   1.37784  0  0  0  0.05179100  3260
ML04  0.67286400  1.000  P
ML04  1.17357800  1.000  S
ML06  0.68336800  1.000  P
ML06  1.17364400  1.000  S
ML14  0.78691000  1.000  P
ML14  1.28340600  1.000  S
ML11  0.79610800  1.000  P
ML11  1.41166400  1.000  S
ML02  0.80755900  1.000  P
ML02  1.46931000  1.000  S
ML09  0.92509400  1.000  P
ML09  1.58871000  1.000  S
ML13  1.05407600  1.000  P
ML13  1.80066000  1.000  S
ML10  1.20289500  1.000  P
ML10  2.12541500  1.000  S
ML05  1.39113200  1.000  P
ML05  2.40677600  1.000  S
ML07  1.41785700  1.000  P
ML07  2.48748500  1.000  S
ML12  1.83919100  1.000  P
ML12  3.16359800  1.000  S
#  2023   9 28  8 44  28.379225  -1.638033099  101.144602500   3.14631  0  0  0  0.03450130  3261
ML06  0.67701900  1.000  P
ML06  1.15530200  1.000  S
ML04  0.72293600  1.000  P
ML04  1.21106900  1.000  S
ML14  0.76033000  1.000  P
ML14  1.28602000  1.000  S
ML11  0.77658800  1.000  P
ML11  1.33321700  1.000  S
ML09  0.87063400  1.000  P
ML09  1.51126600  1.000  S
ML02  0.89199000  1.000  P
ML02  1.52767000  1.000  S
ML13  0.98034500  1.000  P
ML13  1.70059800  1.000  S
ML10  1.16741900  1.000  P
ML10  1.96408100  1.000  S
ML05  1.19213500  1.000  P
ML05  2.05229900  1.000  S
ML07  1.29294600  1.000  P
ML07  2.20677200  1.000  S
ML12  1.51265500  1.000  P
ML12  2.59357800  1.000  S
#  2023   9 28  8 47  19.863003  -1.642038698  101.141699000   2.64560  0  0  0  0.02394090  3262
ML06  0.64986600  1.000  P
ML06  1.13216400  1.000  S
ML04  0.70132400  1.000  P
ML04  1.21377500  1.000  S
ML14  0.73595400  1.000  P
ML14  1.24622500  1.000  S
ML11  0.76059300  1.000  P
ML11  1.32960100  1.000  S
ML02  0.77232700  1.000  P
ML02  1.32489200  1.000  S
ML09  0.83686200  1.000  P
ML09  1.48806700  1.000  S
ML03  0.97986200  1.000  P
ML03  1.69596700  1.000  S
ML13  0.98183000  1.000  P
ML13  1.74406400  1.000  S
ML10  1.05040500  1.000  P
ML10  1.82369000  1.000  S
ML05  1.19609400  1.000  P
ML05  2.09616400  1.000  S
ML01  1.20205300  1.000  P
ML01  2.07279800  1.000  S
ML07  1.26931400  1.000  P
ML07  2.20805300  1.000  S
ML12  1.43086400  1.000  P
ML12  2.46031200  1.000  S
#  2023   9 28  8 47  33.074199  -1.639283062  101.139490100   2.87997  0  0  0  0.03343300  3263
ML06  0.62539400  1.000  P
ML06  1.07052700  1.000  S
ML14  0.67353100  1.000  P
ML14  1.16549700  1.000  S
ML04  0.70185500  1.000  P
ML04  1.22314100  1.000  S
ML11  0.74155900  1.000  P
ML11  1.29887100  1.000  S
ML09  0.82419700  1.000  P
ML09  1.42813600  1.000  S
ML13  0.96923500  1.000  P
ML13  1.67284800  1.000  S
ML05  1.29160800  1.000  P
ML05  2.23833500  1.000  S
ML07  1.30367700  1.000  P
ML07  2.25733300  1.000  S
ML12  1.57392600  1.000  P
ML12  2.72343500  1.000  S
#  2023   9 28  8 51  42.258733  -1.641671779  101.138857600   3.10369  0  0  0  0.01382430  3264
ML06  0.68940200  1.000  P
ML06  1.17848100  1.000  S
ML11  0.84097900  1.000  P
ML11  1.43160500  1.000  S
ML09  0.94115300  1.000  P
ML09  1.59411500  1.000  S
ML13  1.02093400  1.000  P
ML13  1.76572700  1.000  S
#  2023   9 28  8 59  46.525692  -1.640731464  101.137519700   2.83381  0  0  0  0.02755220  3265
ML06  0.62398900  1.000  P
ML06  1.09715300  1.000  S
ML04  0.69065500  1.000  P
ML04  1.17956900  1.000  S
ML14  0.71196000  1.000  P
ML14  1.21808200  1.000  S
ML11  0.75552400  1.000  P
ML11  1.34372300  1.000  S
ML09  0.87115100  1.000  P
ML09  1.55420700  1.000  S
ML13  0.96410000  1.000  P
ML13  1.69587700  1.000  S
ML05  1.23466100  1.000  P
ML05  2.13598200  1.000  S
ML07  1.35926100  1.000  P
ML07  2.36025600  1.000  S
