#  2023   9 28  9  4  21.272602  -1.641065717  101.139458600   2.59943  0  0  0  0.02117270  3266
ML06  0.56357200  1.000  P
ML06  1.00269300  1.000  S
ML04  0.62925900  1.000  P
ML04  1.11888500  1.000  S
ML14  0.68390700  1.000  P
ML14  1.18728100  1.000  S
ML11  0.71148300  1.000  P
ML11  1.24924300  1.000  S
ML09  0.80623400  1.000  P
ML09  1.39779700  1.000  S
ML13  0.96377800  1.000  P
ML13  1.69580700  1.000  S
ML07  1.24750000  1.000  P
ML07  2.16272400  1.000  S
#  2023   9 28  9  5  15.836161  -1.640594769  101.139524900   2.89062  0  0  0  0.01857910  3267
ML06  0.62718000  1.000  P
ML06  1.08567000  1.000  S
ML14  0.67833700  1.000  P
ML14  1.17115000  1.000  S
ML04  0.72260600  1.000  P
ML04  1.23553100  1.000  S
ML11  0.77673100  1.000  P
ML11  1.33808900  1.000  S
ML09  0.88132600  1.000  P
ML09  1.52856400  1.000  S
ML13  0.98021700  1.000  P
ML13  1.69460100  1.000  S
ML07  1.36234100  1.000  P
ML07  2.36582700  1.000  S
#  2023   9 28  9 10  20.367955  -1.642605462  101.146345400   2.26562  0  0  0  0.02100880  3268
ML06  0.63531800  1.000  P
ML06  1.14261600  1.000  S
ML04  0.69864400  1.000  P
ML04  1.20758900  1.000  S
ML14  0.70360100  1.000  P
ML14  1.25129400  1.000  S
ML11  0.73923600  1.000  P
ML11  1.33382000  1.000  S
ML02  0.83123500  1.000  P
ML02  1.43250200  1.000  S
ML09  0.84928800  1.000  P
ML09  1.50002800  1.000  S
ML03  0.93771300  1.000  P
ML03  1.67379500  1.000  S
ML13  0.98587200  1.000  P
ML13  1.77884200  1.000  S
ML10  1.09734800  1.000  P
ML10  1.90685200  1.000  S
ML05  1.26435400  1.000  P
ML05  2.25312200  1.000  S
ML07  1.29228700  1.000  P
ML07  2.24941900  1.000  S
ML01  1.31075000  1.000  P
ML01  2.30599100  1.000  S
ML12  1.47845800  1.000  P
ML12  2.57652000  1.000  S
#  2023   9 28  9 17  17.358584  -1.640737638  101.131770900   3.00426  0  0  0  0.01334550  3269
ML06  0.71550700  1.000  P
ML06  1.22544200  1.000  S
ML14  0.75238600  1.000  P
ML14  1.30541200  1.000  S
ML11  0.87799800  1.000  P
ML11  1.48646900  1.000  S
ML09  0.96414900  1.000  P
ML09  1.67185900  1.000  S
ML13  0.97817600  1.000  P
ML13  1.67280100  1.000  S
